city,state,klan_number,klavern name,notes,latitude,longitude,founded by
Birmingham,Alabama,1,R. E. Lee Klan,may be the oldest functioning Klan in the Invisible Empire,33.5206608,-86.80249,1924
Bessemer,Alabama,2,Niles Burnett Klan,No Notes,33.4017766,-86.954437,1926
Montgomery,Alabama,3,Not Named,No Notes,32.3668052,-86.2999689,1923
Anniston,Alabama,4,Not Named,No Notes,33.6598257,-85.8316318,1924
Birmingham,Alabama,6,Nathan Bedford Forrest Klan,No Notes,33.5206608,-86.80249,1924
Huntsville,Alabama,9,Not Named,No Notes,34.7303688,-86.5861037,1931
Mobile,Alabama,11,Not Named,No Notes,30.6953657,-88.0398912,1931
Stevenson,Alabama,12,Not Named,No Notes,34.8686932,-85.8394199,1923
Tuscaloosa,Alabama,14,Jack Jolly Klan,No Notes,33.2098407,-87.5691735,1923
Sumpter,Alabama,24,Not Named,No Notes,32.6155551,-88.2461183,1924
Ensley,Alabama,31,Not Named,No Notes,33.5089695,-86.8997918,1924
Vincent,Alabama,34,Not Named,No Notes,33.3845537,-86.411924,1923
Jasper,Alabama,43,Joe Wheeler Klan,No Notes,33.8312185,-87.2775053,1926
Luverne,Alabama,51,Not Named,No Notes,31.7165455,-86.2638492,1923
Louisville,Alabama,57,Not Named,No Notes,31.7834963,-85.5557751,1923
Birmingham,Alabama,59,Avondale Park Klan,No Notes,33.5206608,-86.80249,1923
Birmingham,Alabama,60,Nathan Bedford Forrest Klan,"will break ground on $75,000 Klavern on 15 October 1924.",33.5206608,-86.80249,1923
Sheffield,Alabama,63,Stonewall Jackson Klan,No Notes,34.7650887,-87.6986407,1923
Oneonta,Alabama,66,Not Named,No Notes,33.9481537,-86.472764,1923
Eufala,Alabama,68,Not Named,No Notes,31.8912717,-85.1454876,1924
Akron,Alabama,71,Not Named,No Notes,32.8765165,-87.7425105,1923
Florence,Alabama,73,Not Named,No Notes,34.79981,-87.677251,1923
Phoenix City,Alabama,77,Not Named,No Notes,32.4709761,-85.0007653,1923
Auburn,Alabama,84,James H. Lane Klan,No Notes,32.6098566,-85.4807825,1923
Athens,Alabama,86,Not Named,No Notes,34.8028661,-86.9716741,1923
Scottsboro,Alabama,92,Not Named,No Notes,34.6723069,-86.0341463,1924
Mobile,Alabama,108,Not Named,No Notes,30.6953657,-88.0398912,1924
Collinsville,Alabama,125,Not Named,No Notes,34.2639821,-85.8605251,1931
Pisgah,Alabama,133,Not Named,No Notes,34.685022,-85.846575,1924
Edwardsville,Alabama,141,Hopewell Klan,No Notes,33.7073272,-85.5091235,1929
Florala,Alabama,144,Not Named,No Notes,31.007712,-86.324957,1925
Foley,Alabama,186,Not Named,No Notes,30.4065868,-87.6835974,1929
Bessemer,Alabama,0,Miles Burnett Klan,No Notes,33.4017766,-86.954437,1924
Birmingham,Alabama,1,Not Named,No Notes,33.5206608,-86.80249,1916
Montgomery,Alabama,3,Not Named,No Notes,32.3668052,-86.2999689,1918
Anniston,Alabama,4,Not Named,No Notes,33.6598257,-85.8316318,1919
Anchorage,Alaska,1,Mt. McKinley Klan,No Notes,61.2180556,-149.9002778,1926
Juneau,Alaska,2,Not Named,Mount Juneau Klan gets charter,58.3019444,-134.4197222,1926
Ketchikan,Alaska,3,Not Named,No Notes,55.3422222,-131.6461111,1926
Cordova,Alaska,4,Not Named,No Notes,60.5424087,-145.7525414,1931
Petersburg,Alaska,5,Not Named,No Notes,56.8125,-132.9555556,1931
Fairbanks,Alaska,6,Not Named,No Notes,64.8377778,-147.7163889,1931
Seward,Alaska,8,Not Named,No Notes,60.1041667,-149.4422222,1931
Skagway,Alaska,9,Not Named,No Notes,59.4583333,-135.3138889,1931
Wrangell,Alaska,10,Not Named,No Notes,56.4708333,-132.3766666,1931
Haines,Alaska,11,Not Named,No Notes,59.2358333,-135.445,1931
Tucson,Arizona,2,Not Named,No Notes,32.2217429,-110.926479,1924
Yuma,Arizona,5,Not Named,No Notes,32.6926512,-114.6276916,1923
Grand Canyon,Arizona,9,Kanyon Klan,No Notes,36.0544445,-112.1401108,1927
Winslow,Arizona,11,Moqui Klan,No Notes,35.0241873,-110.6973571,1924
Prescott,Arizona,14,Not Named,No Notes,34.5400242,-112.4685025,1924
Bisbee,Arizona,15,Not Named,No Notes,31.4481547,-109.9284084,1923
Tombstone,Arizona,20,Cochise Klan,No Notes,31.7128683,-110.0675764,1924
Ajo,Arizona,21,Not Named,No Notes,32.3717248,-112.8607099,1931
Phoenix,Arizona,22,Not Named,"Jackson, 185",33.4483771,-112.0740373,1926
Douglas,Arizona,25,Not Named,chartered 1926,31.3445471,-109.5453447,1931
Benson,Arizona,26,Strongholt [sic] Klan,No Notes,31.9678611,-110.2945174,1927
Hayden,Arizona,0,Not Named,No Notes,33.0047878,-110.7853836,1923
Douglas,Arizona,0,Douglas Provisional Klan,No Notes,31.345,-109.541389,1923
Miami,Arizona,12,Kactus Klan,No Notes,33.396667,-110.871667,1923
Little Rock,Arkansas,1,Kamelia Kourt No. 1,loyal to Simmons,34.7464809,-92.2895948,1923
Bentonville,Arkansas,1,Not Named,No Notes,36.3728538,-94.2088172,1922
Mena,Arkansas,1,Not Named,"See No. 90,received charter",34.5862171,-94.2396554,1922
Little Rock,Arkansas,1,Not Named,No Notes,34.7464809,-92.2895948,1930
Arkansas City,Arkansas,3,Not Named,No Notes,33.6087222,-91.2067794,1923
Helena,Arkansas,3,Not Named,No Notes,34.5291253,-90.5900273,1924
Benton,Arkansas,4,Not Named,No Notes,34.5645371,-92.586828,1922
Malvern,Arkansas,4,Not Named,No Notes,34.3623149,-92.8129462,1923
Hot Springs,Arkansas,7,Not Named,No Notes,34.5037004,-93.0551795,1922
Hope,Arkansas,8,Hempstead County Klan,No Notes,33.6670615,-93.5915665,1922
Prescott,Arkansas,9,Not Named,No Notes,33.8026107,-93.3810057,1922
Parkdale,Arkansas,10,Not Named,No Notes,33.1215116,-91.5456761,1923
Bald Knob,Arkansas,11,Bald Knob Klan,No Notes,35.3098066,-91.5679114,1923
Newport,Arkansas,12,Stephens Klan,No Notes,35.6048018,-91.2817951,1922
Fort Smith,Arkansas,15,Not Named,No Notes,35.3859242,-94.3985475,1922
Arkadelphia,Arkansas,16,Not Named,No Notes,34.1209292,-93.0537839,1923
Lonoke,Arkansas,24,Lonoke Klan,No Notes,34.7839795,-91.8998611,1923
Batesville,Arkansas,30,Not Named,No Notes,35.769799,-91.6409721,1922
Newark,Arkansas,31,Big Bottom Klan,No Notes,35.7017444,-91.441522,1922
De Queen,Arkansas,37,Not Named,No Notes,34.0378916,-94.3413168,1922
Pine Bluff,Arkansas,38,Not Named,No Notes,34.2284312,-92.0031955,1922
Searcy,Arkansas,40,Not Named,No Notes,35.2468204,-91.7336846,1923
Yell County,Arkansas,43,Harkey Klan,"held a barbecue across the Peht Jean River from Danville,Yell County",35.0810824,-93.3388917,1923
Okolona,Arkansas,47,Not Named,No Notes,33.9973256,-93.3379532,1923
Magnolia,Arkansas,49,Not Named,No Notes,33.2670725,-93.239334,1922
Paris,Arkansas,53,Not Named,No Notes,35.2920325,-93.7299173,1926
Lockesburg,Arkansas,57,Alberta Peach Klan,No Notes,33.9673375,-94.1685312,1922
Manila,Arkansas,59,Not Named,No Notes,35.8800733,-90.1670393,1923
Leachville,Arkansas,60,Robert E. Lee Klan,No Notes,35.9359051,-90.257876,1922
Wynne,Arkansas,61,Not Named,No Notes,35.224533,-90.7867798,1923
Paragould,Arkansas,62,Greene County Klan,No Notes,36.0584021,-90.4973286,1923
Osceola,Arkansas,64,Not Named,No Notes,35.7050778,-89.969532,1922
Mount Ida,Arkansas,71,Not Named,No Notes,34.5567637,-93.6340814,1923
Jonesboro,Arkansas,72,Kraighead Kounty,No Notes,35.8422967,-90.704279,1922
Pocahontas,Arkansas,73,Not Named,said to be the 73rd Klan chartered in AR,36.261286,-90.970551,1922
Hermitage,Arkansas,75,Hermitage Klan,No Notes,33.448333,-92.1725,1923
Hartford,Arkansas,80,Not Named,No Notes,35.0228761,-94.3813277,1922
Fayetteville,Arkansas,83,Not Named,No Notes,36.0625795,-94.1574263,1922
Sulphur Springs,Arkansas,85,Not Named,No Notes,36.4834084,-94.4585488,1923
Gravette,Arkansas,85,Not Named,No Notes,36.4220207,-94.4535484,1923
Marshall,Arkansas,88,Bear Creek Klan,No Notes,35.9089643,-92.6312746,1925
Ingalls,Arkansas,89,Not Named,No Notes,33.383333,-92.150833,1923
Mena,Arkansas,90,Not Named,No Notes,34.5862171,-94.2396554,1922
El Dorado,Arkansas,92,Not Named,No Notes,33.20763,-92.6662674,1923
Rogers,Arkansas,94,Not Named,No Notes,36.3320196,-94.1185366,1924
Harrison,Arkansas,101,Kerr-Harrell Klan,No Notes,36.2297936,-93.1076765,1923
Forrest City,Arkansas,103,St. Francis County Klan,No Notes,35.0081474,-90.7898342,1923
Monticello,Arkansas,108,Not Named,No Notes,33.6289974,-91.7909639,1923
Bearden,Arkansas,117,Not Named,No Notes,33.7245526,-92.6157139,1924
Huntsville,Arkansas,120,Not Named,No Notes,36.086187,-93.7413032,1923
Springdale,Arkansas,124,Not Named,No Notes,36.1867442,-94.1288141,1924
Spring Bank,Arkansas,130,Not Named,No Notes,33.0890215,-93.8310119,1923
Buchner,Arkansas,134,Not Named,No Notes,33.3584581,-93.4360073,1923
Corning,Arkansas,140,Not Named,No Notes,36.41,-90.589444,1923
Lockesburg,Arkansas,152,Sevier County Klan,No Notes,33.9673375,-94.1685312,1926
Buckner,Arkansas,154,Not Named,No Notes,33.3584581,-93.4360073,1924
Fresno,California,1,Not Named,No Notes,36.7468422,-119.7725868,1923
San Francisco,California,1,Not Named,No Notes,37.7749295,-122.4194155,1923
Inglewood,California,1,Med Mosher Klan,No Notes,33.9616801,-118.3531311,1923
Los Angeles,California,1,Not Named,mother Klan of California[2],34.0522342,-118.2436849,1923
Santa Maria,California,1,Not Named,No Notes,34.9530337,-120.4357191,1923
El Segundo,California,1,Not Named,No Notes,33.9191799,-118.4164652,1924
Los Angeles,California,2,Not Named,No Notes,34.0522342,-118.2436849,1923
Bakersfield,California,2,Not Named,No Notes,35.3732921,-119.0187125,1923
Fresno,California,2,Not Named,No Notes,36.7468422,-119.7725868,1924
Oakland,California,2,Not Named,No Notes,37.8043637,-122.2711137,1924
Santa Monica,California,2,Not Named,No Notes,34.0194543,-118.4911912,1924
Ingleside,California,2,Loyalty Klan,gets charter this year,37.7198213,-122.4538009,1926
Long Beach,California,2,Not Named,No Notes,33.7700504,-118.1937395,1935
Los Angeles,California,3,Not Named,No Notes,34.0522342,-118.2436849,1923
Oakland,California,3,Provisional Klan,No Notes,37.8043637,-122.2711137,1924
Valley Union,California,5,Not Named,No Notes,34.8798169,-120.4452402,1934
Alhambra,California,8,Not Named,No Notes,34.095287,-118.1270146,1923
Pasadena,California,9,Not Named,No Notes,34.1477849,-118.1445155,1923
Oakland,California,9,Not Named,No Notes,37.8043637,-122.2711137,1923
Long Beach,California,11,Benjamin Cameron Klan,No Notes,33.7700504,-118.1937395,1931
Montebello,California,12,Not Named,No Notes,34.0165053,-118.1137535,1923
Sawtelle,California,18,Malibu Klan,No Notes,34.0433903,-118.4542772,1931
Vallejo,California,19,Not Named,No Notes,38.113056,-122.235833,1926
Oakland,California,22,Not Named,No Notes,37.8043637,-122.2711137,1926
Inglewood,California,25,Loyalty Klan,formerly Med Mosher Klan,33.961442,-118.354532,1933
Alhambra,California,32,Not Named,No Notes,34.095287,-118.1270146,1932
Chico,California,33,Hooker Oak Klan,gets charter,39.7284944,-121.8374777,1926
Holtville,California,36,Not Named,No Notes,32.8111612,-115.3802643,1931
Alameda,California,39,Not Named,No Notes,37.7652065,-122.2416355,1930
San Francisco,California,40,Not Named,No Notes,37.7749295,-122.4194155,1927
Glendale,California,41,Not Named,No Notes,34.1425078,-118.255075,1931
Pasadena,California,41,Not Named,No Notes,34.1477849,-118.1445155,1932
Randsburg,California,43,Not Named,No Notes,35.3685739,-117.6581161,1929
Visalia,California,48,Not Named,No Notes,36.3302284,-119.2920585,1931
Hawthorne,California,49,Not Named,No Notes,33.9164032,-118.3525748,1929
San Pedro,California,51,Not Named,No Notes,33.7360619,-118.2922461,1931
San Francisco,California,58,Not Named,No Notes,37.7749295,-122.4194155,1931
San Francisco,California,61,Not Named,No Notes,37.7749295,-122.4194155,1931
Palo Alto,California,63,Not Named,No Notes,37.4418834,-122.1430195,1931
San Diego,California,64,Not Named,No Notes,32.715738,-117.1610838,1928
Santa Cruz,California,65,Not Named,No Notes,36.9741171,-122.0307963,1929
Colton,California,68,Not Named,No Notes,34.0739016,-117.3136547,1931
Ontario,California,70,Not Named,No Notes,34.0633443,-117.6508876,1931
Selma,California,71,Not Named,No Notes,36.5707838,-119.6120765,1931
Taft,California,72,Not Named,No Notes,35.1424671,-119.4565078,1930
Fresno,California,74,Not Named,No Notes,36.7468422,-119.7725868,1932
Tulare,California,78,Not Named,No Notes,36.2077288,-119.3473379,1927
San Bernardino,California,80,Not Named,No Notes,34.1083449,-117.2897652,1927
Highland Park,California,84,Not Named,AKA Los Angeles/Highland Klan,34.1157564,-118.1854042,1929
Hemet-San Jacinto,California,86,Not Named,No Notes,33.753046,-116.9586732,1929
San Jose,California,88,Pioneer Klan,No Notes,37.3382082,-121.8863286,1931
Santa Anna,California,100,Not Named,"Referenced as the Orange County Klan and the Huntington Beach, Orange Klan",33.7455731,-117.8678338,1927
Venice,California,102,Bay Cities Klan,No Notes,33.9850469,-118.4694832,1932
Watsonville,California,105,Pajero Valley Klan,No Notes,36.910231,-121.7568946,1926
Los Angeles,California,110,Theodore Roosevelt Klan,No Notes,34.0522342,-118.2436849,1928
Torrance,California,113,Triple City Klan,No Notes,33.8358492,-118.3406288,1931
Sacramento,California,120,Capital Klan,gets chartered this year (1931),38.5815719,-121.4943996,1931
San Fernando Valley,California,124,Not Named,No Notes,34.1825782,-118.4396756,1931
Burlingame,California,127,Not Named,gets charter this year,37.5778696,-122.34809,1931
San Bernardino,California,6,San Bernardino Provisional Klan,No Notes,34.1083449,-117.2897652,1923
Oakland,California,3,Oakland Provisional Klan,No Notes,37.8043637,-122.2711137,1924
Sawtelle,California,7,Progression Klan,No Notes,34.0433903,-118.4542772,1931
Visalia,California,4,Not Named,Jr. Klan chapter,36.3302284,-119.2920585,1925
Orange,California,14,Not Named,Jr. Klan chapter,33.7877944,-117.8531119,1925
Hermosa,California,16,Not Named,Jr. Klan chapter,33.6191643,-117.6927206,1925
Calexico,California,0,Not Named,No Notes,32.6789476,-115.4988834,1923
Redondo Beach,California,0,Not Named,No Notes,33.8491816,-118.3884078,1923
San Diego,California,0,Provisional Klan,No Notes,32.715738,-117.1610838,1923
San Pedro,California,0,Not Named,No Notes,33.7360619,-118.2922461,1923
Watts,California,0,Provisional Klan,No Notes,33.9386361,-118.2380432,1923
Anaheim,California,0,Provisional Klan,No Notes,33.8352932,-117.9145036,1923
Vallejo,California,19,Not Named,No Notes,38.113056,-122.235833,1930
Napa,California,38,Not Named,No Notes,38.304722,-122.298889,1930
Alameda,California,39,Not Named,No Notes,37.7652065,-122.2416355,1930
San Francisco,California,61,Not Named,No Notes,37.7749295,-122.4194155,1930
Pacific Grove,California,82,Not Named,No Notes,36.617778,-121.916667,1930
Antioch,California,87,Not Named,No Notes,38.005,-121.805833,1930
San Jose,California,88,Not Named,No Notes,37.3382082,-121.8863286,1930
Oakland,California,110,Not Named,No Notes,37.8043637,-122.2711137,1930
Richmond,California,121,Not Named,No Notes,37.935833,-122.347778,1930
Denver,Colorado,1,Not Named,Organized early in 1921,39.7392358,-104.990251,1921
Pueblo,Colorado,5,Not Named,No Notes,38.2544472,-104.6091409,1923
Florence,Colorado,7,Not Named,No Notes,38.3902777,-105.1185988,1923
Brighton,Colorado,8,Not Named,No Notes,39.9852617,-104.8205283,1931
Colorado Springs,Colorado,11,Pikes Peak Klan,No Notes,38.8338816,-104.8213634,1925
Loveland,Colorado,16,Not Named,No Notes,40.3977612,-105.0749801,1931
Colorado Springs,Colorado,17,Pikes Peak Klan,No Notes,38.8338816,-104.8213634,1931
Rocky Ford,Colorado,19,Not Named,No Notes,38.052508,-103.7202274,1925
Canon City,Colorado,21,Not Named,No Notes,38.4494063,-105.2253316,1924
Canon City,Colorado,22,Royal Gorge Klan,No Notes,38.4494063,-105.2253316,1931
Buena Vista,Colorado,25,Not Named,No Notes,38.8422178,-106.1311288,1926
Greeley,Colorado,31,Not Named,No Notes,40.4233142,-104.7091322,1931
Simla,Colorado,43,Not Named,No Notes,39.1416551,-104.0838479,1926
Edgewater,Colorado,55,Not Named,No Notes,39.7530425,-105.0641503,1933
Durango,Colorado,66,Not Named,No Notes,37.27528,-107.8800667,1925
Bayfield,Colorado,69,Pine River Klan,No Notes,37.2255593,-107.5981123,1925
Stratton,Colorado,74,Not Named,No Notes,39.3033276,-102.6046454,1926
Milliken,Colorado,79,Little Thompson Klan,No Notes,40.3294268,-104.85525,1927
Denver,Colorado,81,Monarch Klan,No Notes,39.7392358,-104.990251,1931
Longmont,Colorado,2,Not Named,No Notes,40.171667,-105.109167,1927
Boulder,Colorado,3,Not Named,No Notes,40.027435,-105.251945,1927
La Junta,Colorado,4,Not Named,No Notes,37.981389,-103.5475,1927
Hot Sulphur,Colorado,6,Not Named,No Notes,40.073333,-106.101389,1927
Littleton,Colorado,9,Not Named,No Notes,39.599722,-105.010833,1927
Sterling,Colorado,10,Not Named,No Notes,40.625556,-103.211667,1927
Walsenburg,Colorado,12,Not Named,No Notes,37.626667,-104.783889,1927
Wray,Colorado,13,Not Named,No Notes,40.076667,-102.225833,1927
Holly,Colorado,14,Not Named,No Notes,38.054444,-102.125278,1927
Trinidad,Colorado,15,Not Named,No Notes,37.170833,-104.506389,1927
Fowler,Colorado,17,Not Named,No Notes,38.128343,-104.025,1927
Fort Collins,Colorado,18,Not Named,No Notes,40.559167,-105.078056,1927
Manzanola,Colorado,20,Not Named,No Notes,38.109167,-103.867778,1927
Lafayette,Colorado,22,Not Named,No Notes,39.995,-105.100556,1927
Salida,Colorado,23,Not Named,No Notes,38.531389,-105.996111,1927
Ordway,Colorado,24,Not Named,No Notes,38.219722,-103.757222,1927
Trinidad,Colorado,25,Not Named,No Notes,37.170833,-104.506389,1927
Byers,Colorado,27,Not Named,No Notes,39.710556,-104.221667,1927
Grand Junction,Colorado,35,Not Named,No Notes,39.066667,-108.566667,1927
Delta,Colorado,38,Not Named,No Notes,38.757372,-108.087959,1927
Holyoke,Colorado,43,Not Named,No Notes,40.581944,-102.301111,1927
Rifle,Colorado,45,Not Named,No Notes,39.536944,-107.782778,1927
Paonia,Colorado,46,Not Named,No Notes,38.8675,-107.5925,1927
Fort Morgan,Colorado,48,Not Named,No Notes,40.253333,-103.799167,1927
Akron,Colorado,49,Not Named,No Notes,40.164382,-103.220685,1927
Haxtun,Colorado,50,Not Named,No Notes,40.641667,-102.628889,1927
Fairplay,Colorado,51,Not Named,No Notes,39.224444,-105.998056,1927
Arvada,Colorado,53,Not Named,No Notes,39.833728,-105.150306,1927
Elizabeth,Colorado,60,Not Named,No Notes,39.361015,-104.606172,1927
Yampa,Colorado,63,Not Named,No Notes,40.153333,-106.908333,1927
Castle Rock,Colorado,65,Not Named,No Notes,39.376089,-104.853487,1927
Center,Colorado,68,Not Named,No Notes,37.751351,-106.110195,1927
Mancos,Colorado,71,Not Named,No Notes,37.345556,-108.2925,1927
Breckinridge,Colorado,72,Not Named,No Notes,39.499619,-106.043292,1927
Meeker,Colorado,75,Not Named,No Notes,40.039444,-107.910833,1927
Eagle,Colorado,78,Not Named,No Notes,39.634496,-106.816402,1927
New Haven,Connecticut,1,Not Named,No Notes,41.308274,-72.9278835,1922
Greenwich,Connecticut,1,Not Named,No Notes,41.0262417,-73.6281964,1932
Meriden,Connecticut,3,Not Named,No Notes,41.5381535,-72.8070435,1922
Norwalk,Connecticut,4,Not Named,No Notes,41.117744,-73.4081575,1932
Bridgeport,Connecticut,5,Not Named,No Notes,41.1865478,-73.1951767,1923
Danbury,Connecticut,5,Not Named,No Notes,41.394817,-73.4540111,1926
New London,Connecticut,6,Not Named,No Notes,41.3556539,-72.0995209,1931
New Haven,Connecticut,7,Not Named,No Notes,41.308274,-72.9278835,1931
Kent County,Connecticut,9,Not Named,RI?,41.6579147,-71.7147951,1933
Canaan,Connecticut,10,Not Named,No Notes,41.9640877,-73.3001233,1931
Washington County,Connecticut,12,Not Named,No Notes,41.4568113,-71.6673352,1933
Waterbury,Connecticut,14,Not Named,No Notes,41.5581525,-73.0514965,1929
Brooklyn,Connecticut,15,Israel Putnam Klan,Wauregan,41.7881236,-71.9497216,1928
West Willington,Connecticut,17,Nathan Hale Klan,No Notes,41.8812085,-72.3020246,1931
Hartford,Connecticut,18,Nutmeg Klan,South Manchester,41.7637111,-72.6850932,1929
New Britain,Connecticut,23,Elihu Burritt Klan,No Notes,41.6612104,-72.7795419,1931
Washington,DC,1,Not Named,No Notes,38.9071923,-77.0368707,1921
Washington,DC,2,National Capital Klan,No Notes,38.9071923,-77.0368707,1923
Washington,DC,3,Washington City Klan,No Notes,38.9071923,-77.0368707,1931
Washington,DC,4,Washington City Klan,No Notes,38.9071923,-77.0368707,1932
Washington,DC,5,Fellowship Klan,No Notes,38.9071923,-77.0368707,1928
Delmar,Delaware,2,Not Named,No Notes,38.4565052,-75.5771471,1925
Smyrna,Delaware,4,Caesar Rodney Klan,No Notes,39.2998339,-75.6046494,1924
Wilmington,Delaware,7,Not Named,"10th and 11th anniversaries celebrated on Oct 2, 1931 and Sept 16, 1932, respectively",39.7390721,-75.5397878,1923
Newport,Delaware,12,Not Named,No Notes,39.7137237,-75.6093709,1931
Wilmington,Delaware,13,Not Named,No Notes,39.7390721,-75.5397878,1929
Dover,Delaware,15,Nathan Hale Klan,No Notes,39.158168,-75.5243682,1926
Wilmington,Delaware,13,Not Named,No Notes,39.7390721,-75.5397878,1931
Newark,Delaware,14,Mason-Dixon Klan,No Notes,39.6837226,-75.7496572,1931
Georgetown,Delaware,17,Goodwill Klan,No Notes,38.6901134,-75.3854728,1929
Newark,Delaware,23,Ivy Castle Klan,No Notes,39.6837226,-75.7496572,1930
Jacksonville,Florida,1,Stonewall Jackson Klan,"FL's second largest Klan, after Miami",30.3321838,-81.655651,1924
South Jacksonville,Florida,2,Robert E. Lee Klan,No Notes,30.304384,-81.650083,1922
Lakeland,Florida,5,Abraham Lincoln Klan,No Notes,28.0394654,-81.9498042,1922
Tampa,Florida,7,Seminole Klan,No Notes,27.950575,-82.4571776,1932
Orlando,Florida,9,Cherokee Klan,No Notes,28.5383355,-81.3792365,1923
Palatka,Florida,13,Not Named,No Notes,29.6485801,-81.6375819,1922
DeLand,Florida,14,Not Named,No Notes,29.028318,-81.3031179,1924
New Smyrna,Florida,15,Not Named,No Notes,29.0258191,-80.9269984,1924
DeLand,Florida,16,Not Named,No Notes,29.028318,-81.3031179,1932
Daytona,Florida,17,Not Named,No Notes,29.1890073,-81.0469647,1924
Port Orange,Florida,17,Tamoka Klan,No Notes,29.1383165,-80.9956105,1932
Delray,Florida,17,Not Named,No Notes,26.4762477,-80.1330006,1926
Fort Myers,Florida,19,Palm Klan,AKA  Klan of the Palms,26.640628,-81.8723084,1926
St. Petersburg,Florida,20,Olaste Klan,AKA Olustee Klan,27.773056,-82.64,1924
Miami,Florida,24,John B. Gordon Klan,FL's largest Klan,25.7616798,-80.1917902,1924
Miami,Florida,26,Dade County Klan,No Notes,25.7616798,-80.1917902,1942
Eustis,Florida,27,Lake Region Klan,No Notes,28.8527675,-81.6853534,1929
Sanford,Florida,31,Dixie Klan,No Notes,28.8028612,-81.269453,1931
Cocoa,Florida,33,Not Named,No Notes,28.3861159,-80.7419984,1924
Titusville,Florida,33,Indian River Klan,No Notes,28.6122187,-80.8075537,1926
Key West,Florida,42,Not Named,No Notes,24.5550593,-81.7799871,1924
DeLand,Florida,46,Not Named,No Notes,29.028318,-81.3031179,1924
Winter Haven,Florida,49,Haven Klan,No Notes,28.0222435,-81.7328567,1932
West Palm Beach,Florida,50,Not Named,No Notes,26.7153424,-80.0533746,1923
West Palm Beach,Florida,56,Albert Sidney Johnston Klan,No Notes,26.7153424,-80.0533746,1924
Pensacola,Florida,57,Not Named,AKA the Escambia Klan,30.421309,-87.2169149,1923
Green Cove Springs,Florida,61,Not Named,No Notes,29.9919085,-81.6781467,1932
Bradenton,Florida,65,Not Named,No Notes,27.4989278,-82.5748194,1923
Palmetto,Florida,65,Manatee County,No Notes,27.5214269,-82.5723193,1924
Lake Worth,Florida,70,George B. Baker Klan,No Notes,26.6167555,-80.0684479,1924
Sebring,Florida,71,Highlands Klan,No Notes,27.495592,-81.440907,1933
Sarasota,Florida,72,Not Named,No Notes,27.3364347,-82.5306527,1924
Vero,Florida,74,Not Named,No Notes,27.6389729,-80.460952,1924
Plant City,Florida,77,Hillsboro Klan,No Notes,28.0186323,-82.1128641,1927
Levy County,Florida,78,Not Named,No Notes,29.3178545,-82.820974,1924
Punta Gorda,Florida,81,Not Named,No Notes,26.9297836,-82.0453664,1925
Arcadia,Florida,82,De Soto Klan,No Notes,27.2158826,-81.8584164,1933
Fort Pierce,Florida,83,Not Named,No Notes,27.4467056,-80.3256056,1924
McDavid,Florida,84,Not Named,Received its charter as the second Klan in Escambia County because Pensacola was too far away,30.8375596,-87.3295636,1924
Pinellas,Florida,87,Not Named,No Notes,27.876394,-82.7778579,1933
Okaloosa,Florida,99,Not Named,No Notes,30.5773401,-86.6611083,1931
Callahan,Florida,107,Not Named,No Notes,30.5621807,-81.8306621,1932
Avon Park,Florida,110,Not Named,No Notes,27.5958672,-81.5061862,1931
St. Augustine,Florida,113,Not Named,"AKA St. Johns County, Selooe Klan",29.9012437,-81.3124341,1930
Suwannee County,Florida,114,Not Named,AKA Live Oak,30.2485096,-82.9931607,1931
West Palm Beach,Florida,115,John A. Partin Klan,No Notes,26.7153424,-80.0533746,1929
Jupiter,Florida,117,Not Named,No Notes,26.9342246,-80.0942087,1933
Cross City,Florida,123,Dixie County Klan,No Notes,29.6343977,-83.1251306,1931
Lafayette,Florida,124,Not Named,No Notes,30.0299573,-83.2077645,1931
Tampa,Florida,128,Liberty Bell Klan,No Notes,27.950575,-82.4571776,1932
Plant City,Florida,129,C. G. McElroy Klan,AKA Tampa,28.0186323,-82.1128641,1931
Tecumseh Beach,Florida,141,Not Named,No Notes,26.740345,-80.095269,1932
Gainesville,Florida,46,Alachua Klan,No Notes,29.6516344,-82.3248262,1922
Arcadia,Florida,82,Not Named,Chartered 'last week' per INH in March 26th issue. The 82d Klan in the Realm.,27.2158826,-81.8584164,1924
Jacksonville,Florida,1,Not Named,No Notes,30.3321838,-81.655651,1920
Atlanta,Georgia,1,Nathan Bedford Forrest Klan,One of nine Klans in Fulton County,33.7489954,-84.3879824,1931
Athens,Georgia,5,McDorman Klan,No Notes,33.9519347,-83.357567,1923
Athens,Georgia,8,Rutherford Klan,No Notes,33.9519347,-83.357567,1922
Augusta,Georgia,22,Alexander H. Stephens Klan,No Notes,33.466667,-81.966667,1926
Buford,Georgia,26,Captain Espy Klan,No Notes,34.1206564,-84.0043513,1922
Savannah,Georgia,41,Not Named,"""largest Klan in Georgia""",32.016667,-81.116667,1922
Decatur,Georgia,42,Not Named,No Notes,33.7748275,-84.2963123,1921
Shannon,Georgia,47,Hill City Klan,Rome?,34.3431937,-85.0783625,1932
East Point,Georgia,51,Not Named,"11th anniversary on Nov 12, 1931. [misidentified as No. 61], chartered 12 Nov. 20",33.6795531,-84.4393724,1931
Austell,Georgia,57,Not Named,chartered after a long period as a provisional Klan. Lithonia,33.8126059,-84.6343783,1923
Bainbridge,Georgia,60,John E. Donaldson Klan,No Notes,30.9037995,-84.5754699,1924
Marietta,Georgia,61,Joseph E. Johnston Klan,No Notes,33.952602,-84.5499327,1923
Brunswick,Georgia,63,Not Named,No Notes,31.1499528,-81.4914894,1931
Waycross,Georgia,78,Not Named,No Notes,31.2135511,-82.3540178,1924
Camilla,Georgia,87,Not Named,No Notes,31.2312933,-84.2104611,1925
Kirkwood,Georgia,91,John B. Gordon Klan,Atlanta,33.752831,-84.3252791,1924
College Park,Georgia,96,Copaga Klan,Associated with College Park,33.648333,-84.456111,1931
Tennille,Georgia,107,General Lee Klan,No Notes,32.9359886,-82.8115273,1922
Dublin,Georgia,108,Not Named,No Notes,32.5404447,-82.903754,1922
Bolton,Georgia,112,Riverside Klan,No Notes,33.8144708,-84.4566458,1922
Statham,Georgia,115,Paradise Klan,No Notes,33.9651127,-83.596555,1931
Cummings,Georgia,125,Cummings Klan,No Notes,34.2094687,-84.1169006,1923
Buckhead,Georgia,128,Not Named,No Notes,33.5684599,-83.3623853,1923
Ty Ty,Georgia,133,Red Blood Klan,No Notes,31.4718497,-83.6468362,1922
Gainesville,Georgia,136,Robert E. Lee Klan,No Notes,34.2978794,-83.8240663,1930
Carnesville,Georgia,140,Kanon Klan,No Notes,34.3698266,-83.235155,1923
Kensington,Georgia,143,Chickamauga Klan,No Notes,34.7742451,-85.3727368,1923
Meldrim,Georgia,145,Not Named,No Notes,32.1432582,-81.3778902,1924
Dalton,Georgia,146,Not Named,No Notes,34.7698021,-84.9702228,1924
Pelham,Georgia,153,Not Named,No Notes,31.1276849,-84.1518466,1923
Broxton,Georgia,163,Not Named,No Notes,31.6251911,-82.8868113,1923
Woodstock,Georgia,164,Not Named,No Notes,34.1014873,-84.5193754,1923
Saltilla,Georgia,169,Not Named,No Notes,31.7875,-82.567778,1923
Alma,Georgia,172,Not Named,No Notes,0,0,1924
Hardwick,Georgia,174,Not Named,No Notes,33.0685576,-83.223983,1923
Unadilla,Georgia,192,Dooly County Klan,No Notes,32.2615496,-83.7365656,1924
Danielsville,Georgia,206,Not Named,No Notes,34.1242771,-83.2212629,1924
Atlanta,Georgia,207,Not Named,North Atlanta,33.7489954,-84.3879824,1930
East Atlanta,Georgia,213,Not Named,No Notes,33.7366044,-84.3357992,1924
Tallulah Falls,Georgia,228,Not Named,No Notes,34.7306498,-83.3943316,1932
Lilburn,Georgia,229,Not Named,No Notes,33.8901036,-84.1429719,1931
Atlanta,Georgia,241,Inman Yards Klan,Mt. Vernon,33.7489954,-84.3879824,1932
Orchard Knob,Georgia,247,Not Named,No Notes,33.6702028,-84.376547,1931
Guyton,Georgia,252,Effingham County,No Notes,32.3363045,-81.3914992,1931
Columbus,Georgia,254,Not Named,No Notes,32.4609764,-84.9877094,1935
Griffin,Georgia,259,Not Named,No Notes,33.2467807,-84.2640904,1931
Jonesboro,Georgia,261,Not Named,No Notes,33.5215013,-84.3538128,1931
Monroe,Georgia,264,Not Named,No Notes,33.7948364,-83.713229,1931
Savannah,Georgia,293,Samuel Green Klan,No Notes,32.016667,-81.116667,1931
Augusta,Georgia,22,Alexander Stephens Klan,No Notes,33.466667,-81.966667,1931
Atlanta,Georgia,1,Not Named,No Notes,33.7489954,-84.3879824,1915
Columbus,Georgia,29,Not Named,No Notes,32.4609764,-84.9877094,1919
Macon,Georgia,33,Not Named,No Notes,32.834722,-83.651667,1920
Savannah,Georgia,41,Not Named,No Notes,32.016667,-81.116667,1920
Boise,Idaho,1,Capital Klan,No Notes,43.6187102,-116.2146068,1926
Pocatello,Idaho,2,Not Named,No Notes,42.8713032,-112.4455344,1927
Twin Falls,Idaho,4,Not Named,No Notes,42.5629668,-114.4608711,1923
Coeur d'Alene,Idaho,18,Fort Sherman Klan,No Notes,47.6776832,-116.7804664,1926
Culdesac,Idaho,0,Not Named,No Notes,46.3746103,-116.6732035,1923
East St. Louis,Illinois,1,George Washington Klan,No Notes,38.624514,-90.1506465,1923
Chicago,Illinois,1,Not Named,No Notes,41.8781136,-87.6297982,1935
Chicago,Illinois,2,Englewood Klan,No Notes,41.8781136,-87.6297982,1923
Springfield,Illinois,3,Abraham Lincoln Klan,No Notes,39.7817213,-89.6501481,1923
Chicago,Illinois,4,Woodlawn Klan,No Notes,41.8781136,-87.6297982,1923
Chicago,Illinois,5,Not Named,No Notes,41.8781136,-87.6297982,1924
Chicago,Illinois,6,Austin Klan,No Notes,41.8781136,-87.6297982,1922
Chicago,Illinois,8,Stephen Edgar Brown Klan,No Notes,41.8781136,-87.6297982,1930
Chicago,Illinois,9,Logan Square Klan,AKA Logan Square Klan,41.8781136,-87.6297982,1924
Chicago,Illinois,10,U. S. Grant Klan,No Notes,41.8781136,-87.6297982,1923
Chicago,Illinois,11,Garfield Park,"Reinstated, and there are now 31 Klans in Chicago",41.8781136,-87.6297982,1923
Freeport,Illinois,12,Albert Pike Klan,No Notes,42.2966861,-89.6212271,1923
Danville,Illinois,14,Not Named,No Notes,40.124481,-87.6300207,1923
Chicago,Illinois,15,Not Named,No Notes,41.8781136,-87.6297982,1923
Chicago,Illinois,16,Thomas E. Watson Klan,No Notes,41.8781136,-87.6297982,1923
Chicago,Illinois,17,Not Named,No Notes,41.8781136,-87.6297982,1923
Mount Pulaski,Illinois,21,Not Named,No Notes,40.0108767,-89.282314,1923
Kewanee,Illinois,22,Not Named,No Notes,41.2455927,-89.9248303,1926
Crawfordsville,Illinois,23,Montgomery County Klan,No Notes,38.866667,-87.669444,1923
Peoria,Illinois,23,Not Named,No Notes,40.6936488,-89.5889864,1923
Mattoon,Illinois,24,Zenith Klan,"may have also connection with Champain, Ill",39.4830897,-88.3728255,1923
Ft. Dearborn,Illinois,24,Not Named,No Notes,41.8433683,-87.6100904,1929
Oak Park,Illinois,25,Uno Klan,No Notes,41.8850317,-87.7845025,1923
Chicago,Illinois,26,South Shore Klan,"Of Cook County was organized on 19 April 1922. On 7 November 1923 invited ECs of all Cook County Klans to a meeting, representatives of 23 Klans were present",41.8781136,-87.6297982,1923
Maywood,Illinois,27,Not Named,No Notes,41.8791979,-87.8431155,1923
Princeton,Illinois,28,Not Named,No Notes,41.3680919,-89.4648145,1923
Mattoon,Illinois,29,Not Named,No Notes,39.4830897,-88.3728255,1923
Pekin,Illinois,31,Not Named,No Notes,40.5675388,-89.640658,1923
Chicago,Illinois,33,Kenwood Klan,May have been reinstated,41.8781136,-87.6297982,1923
Ottawa,Illinois,34,Illini Klan,May have connection to Serena Township,41.3455892,-88.8425769,1923
Charleston,Illinois,35,Not Named,No Notes,39.4961458,-88.1761521,1923
Shelbyville,Illinois,36,Not Named,No Notes,39.4064284,-88.7900689,1924
Auburn,Illinois,37,Not Named,No Notes,39.5917197,-89.7464874,1924
Chicago,Illinois,38,Not Named,May have been located at Cottage Grove Ave. and 42d St. Gets charter.,41.8781136,-87.6297982,1923
Joliet,Illinois,39,Not Named,No Notes,41.525031,-88.0817251,1923
Marseilles,Illinois,40,Marseilles Klan,No Notes,41.327778,-88.701111,1923
East St. Louis,Illinois,41,George Washington Klan,No Notes,38.624514,-90.1506465,1926
West Frankfort,Illinois,43,Twin City Klan,Will again be the best Klan in southern Illinois as it was before.,37.8985966,-88.9233622,1930
Sterling,Illinois,44,Not Named,Connection with Rock Falls,41.788642,-89.6962194,1930
Newton,Illinois,45,Colonial Klan,No Notes,38.9908766,-88.1625389,1924
Stanford,Illinois,54,Not Named,No Notes,40.4347608,-89.2178643,1923
Lockport,Illinois,55,Not Named,No Notes,41.588611,-88.047222,1923
Champaign-Urbana,Illinois,56,Zenith Klan,No Notes,40.1105875,-88.2072697,1923
Mt. Carmel,Illinois,56,Not Named,No Notes,38.4108801,-87.7614174,1925
Harvey,Illinois,64,Not Named,No Notes,41.6100344,-87.6467131,1923
Chicago,Illinois,70,Midwest Klan,No Notes,41.8781136,-87.6297982,1923
Bloomington,Illinois,71,Not Named,Also referenced as Bloomington and Bloomington Valley,40.4842027,-88.9936873,1923
Winchester,Illinois,72,Stephen A. Douglas Klan,No Notes,39.6297689,-90.4562355,1924
Lexington,Illinois,75,Not Named,No Notes,40.6414237,-88.7834001,1924
Rockford,Illinois,76,Black Hawk Klan,No Notes,42.2711311,-89.0939952,1923
LaSalle,Illinois,77,Starved Rock Klan,No Notes,41.3621503,-89.0418249,1923
Waukegan,Illinois,80,Not Named,No Notes,42.3636331,-87.8447938,1924
Nokomis,Illinois,81,Not Named,No Notes,39.3011566,-89.285085,1923
Edgar County,Illinois,86,Not Named,No Notes,39.7131223,-87.7763333,1924
Alton,Illinois,87,Christie Klan,No Notes,38.8906038,-90.1842764,1931
Bloomington,Illinois,88,Ever Ready Klan,No Notes,40.4842027,-88.9936873,1927
Decatur,Illinois,89,Not Named,No Notes,39.8403147,-88.9548001,1923
Elgin,Illinois,93,Watch City Klan,No Notes,42.0354084,-88.2825668,1923
Chicago,Illinois,95,Not Named,No Notes,41.8781136,-87.6297982,1923
Litchfield,Illinois,100,Not Named,No Notes,39.1753256,-89.6542579,1926
Venice,Illinois,101,James A. Garfield Klan,No Notes,38.6722727,-90.169832,1924
Logan County,Illinois,102,Not Named,Connection with Lincoln. AKA the Logan County Klan,40.159443,-89.3341669,1924
Shabbona,Illinois,103,Not Named,No Notes,41.7680851,-88.8770311,1925
Pana,Illinois,105,Not Named,No Notes,39.3889311,-89.0800809,1924
Chicago,Illinois,108,Not Named,No Notes,41.8781136,-87.6297982,1923
Farmer City,Illinois,108,DeWitt Clinton Klan,No Notes,40.2433676,-88.6425668,1924
Chicago,Illinois,109,Thomas Jefferson Klan,No Notes,41.8781136,-87.6297982,1924
Assumption,Illinois,114,Not Named,No Notes,39.5203188,-89.0489712,1924
Clinton,Illinois,118,DeWitt Clinton Klan,No Notes,40.1536479,-88.9645253,1931
East Chicago,Illinois,122,Not Named,No Notes,41.8781136,-87.6297982,1926
Knox,Illinois,123,Not Named,No Notes,40.9342048,-90.2548467,1924
Kankankee,Illinois,130,Excelsior Klan,Connection with Bradley,41.1200325,-87.8611531,1926
Galesburg,Illinois,133,Knox County Klan,No Notes,40.9478158,-90.3712395,1926
Belvidere,Illinois,135,Not Named,Changed its name to Little Thunder Klan. Connection to Boone County,42.2639098,-88.8442674,1932
Stark County,Illinois,140,Not Named,No Notes,41.0795661,-89.8130356,1930
East St. Louis,Illinois,143,George Washington Klan,[see 41],38.624514,-90.1506465,1925
Peoria County,Illinois,144,Not Named,No Notes,40.7156396,-89.7755338,1931
Berwyn,Illinois,146,Not Named,No Notes,41.8505874,-87.7936685,1932
Lincoln,Illinois,152,Logan County Klan,No Notes,40.1483768,-89.3648183,1926
Joliet,Illinois,153,Will County,No Notes,41.525031,-88.0817251,1933
Wilmette,Illinois,162,North Shore Klan,No Notes,42.0722513,-87.7228384,1925
Olney,Illinois,164,Richland County,No Notes,38.7308811,-88.0853154,1925
Kewanee,Illinois,172,Warren County Klan,No Notes,41.2455927,-89.9248303,1927
Monmouth,Illinois,173,Warren County Klan,No Notes,40.9114271,-90.6473576,1927
Chatham,Illinois,181,Not Named,No Notes,39.676163,-89.7045439,1925
DeKalb,Illinois,187,Not Named,No Notes,41.9294736,-88.7503647,1932
El Paso,Illinois,189,Woodford County,No Notes,40.7392017,-89.0164626,1926
Harvard,Illinois,197,Not Named,Connection with Howard,42.422241,-88.6137101,1926
Chicago,Illinois,201,Nathan Hale Klan,"Nathan Hale, Downer's Grove",41.8781136,-87.6297982,1930
Kewanee,Illinois,202,Not Named,No Notes,41.2455927,-89.9248303,1926
Chicago,Illinois,209,Logan Square Klan,No Notes,41.8781136,-87.6297982,1927
Chicago,Illinois,210,Theodore Roosevelt Klan,No Notes,41.8781136,-87.6297982,1929
Chicago,Illinois,211,Fort Dearborn Klan,No Notes,41.8781136,-87.6297982,1930
Chicago,Illinois,212,Old Ironsides Klan,No Notes,41.8781136,-87.6297982,1926
Chicago,Illinois,213,Uptown Klan,No Notes,41.8781136,-87.6297982,1930
Chicago,Illinois,214,Fidelity Klan,No Notes,41.8781136,-87.6297982,1929
Chicago,Illinois,216,Nathan Hale Klan,"Monitor, 26 Sep 31)",41.8781136,-87.6297982,1929
Erie,Illinois,230,Rock Creek,No Notes,41.6564203,-90.0792859,1926
Elgin,Illinois,246,Watch City,No Notes,42.0354084,-88.2825668,1930
Irving Park,Illinois,249,Not Named,No Notes,41.9529604,-87.7212413,1933
Mt. Morris,Illinois,252,Not Named,No Notes,42.0503062,-89.4312201,1930
Oregon,Illinois,256,Not Named,No Notes,42.0147513,-89.3323279,1929
Chicago,Illinois,269,Not Named,Connection with Ravenswood,41.8781136,-87.6297982,1930
West Frankfort,Illinois,270,Not Named,"First public appearance ""in more than five years."" in May 1931",37.8985966,-88.9233622,1931
Oak Park,Illinois,18,Not Named,No Notes,41.8850317,-87.7845025,1922
Jacksonville,Illinois,30,Abraham Lincoln Klan,No Notes,39.731944,-90.234444,1923
Murphysboro,Illinois,124,Not Named,No Notes,37.767222,-89.337222,1924
Windfall,Indiana,119,Not Named,No Notes,40.362222,-85.956944,1928
Evansville,Indiana,1,Not Named,"Pioneer unit of the order in the North, and the first chartered Klan above the Mason and Dixon Line.",37.9715592,-87.5710898,1922
Indianapolis,Indiana,3,Marion County,No Notes,39.768403,-86.158068,1924
Fountain City,Indiana,3,Wayne County,No Notes,39.9556028,-84.9174619,1922
Muncie,Indiana,4,Delaware County,No Notes,40.1933767,-85.3863599,1924
Terre Haute,Indiana,7,Vigo County Klan,Also operated out of Franklin.,39.4667034,-87.4139092,1922
New Castle,Indiana,8,Not Named,Also operated out of Elizaville and throughout Henry County.,39.928935,-85.3702476,1923
Kokomo,Indiana,11,Nathan Hale Klan,No Notes,40.486427,-86.1336033,1924
Cambridge City,Indiana,12,Not Named,No Notes,39.8125465,-85.1716315,1923
Marion,Indiana,13,Mississiniwa Klan,No Notes,40.5583739,-85.6591442,1923
Anderson,Indiana,13,Not Named,No Notes,40.1053196,-85.6802541,1923
Marion,Indiana,14,Mississinewa Klan,"Also known as Grant County Klan and the True Blue Klan. Operated in Elwood, LaFayette and throughout Grant County as well.",40.5583739,-85.6591442,1923
Monroe,Indiana,15,Not Named,Operated in Bloomington and throughout Monroe County,40.7450468,-84.9369111,1923
Bluffton,Indiana,17,Not Named,No Notes,40.7386579,-85.1716368,1924
Elwood,Indiana,19,White City Klan,No Notes,40.2769834,-85.8419246,1924
Delphi,Indiana,20,Dear Creek Klan,No Notes,40.5875371,-86.6750059,1924
Bedford,Indiana,21,Not Named,Operated throughout Lawrence County,38.8611619,-86.4872149,1924
Montgomery County,Indiana,23,"Montgomery Klan (INH, 18 Jun 24)",No Notes,40.019879,-86.8220341,1924
Connersville,Indiana,24,Not Named,No Notes,39.6411589,-85.1410748,1932
Whitley County,Indiana,25,Not Named,No Notes,41.1136133,-85.520024,1926
Clay County,Indiana,27,Not Named,No Notes,39.368622,-87.1422895,1924
Lafayette,Indiana,30,Tippecanoe Klan,No Notes,40.4167022,-86.8752869,1931
Hartford City,Indiana,31,Not Named,Reorganized in 1924.,40.451154,-85.369972,1924
San Pierre,Indiana,31,Frank Hay Klan,Operated throughout Starke County.,41.1976703,-86.8935256,1926
Jeffersonville,Indiana,32,Klark Kounty Klan,Also operated in Sellersburg.,38.2775702,-85.7371847,1923
Hartford City,Indiana,34,Blackford County Klan,No Notes,40.451154,-85.369972,1924
Bainbridge,Indiana,37,Kastle Klan,No Notes,39.761157,-86.8119523,1924
Frankfort,Indiana,38,Not Named,No Notes,40.2794809,-86.5108355,1924
Logansport,Indiana,39,Mystic Tie Klan,Also known as the Muncie Klan.,40.7544843,-86.3566659,1923
Portland,Indiana,40,Jay County Klan,Shackford County,40.4344895,-84.9777455,1924
Plymouth,Indiana,41,Marshall County Klan,No Notes,41.3436554,-86.3097278,1923
Noblesville,Indiana,42,Hamilton County Klan,No Notes,40.0455917,-86.0085955,1924
Plymouth,Indiana,42,Marshall County Klan,No Notes,41.3436554,-86.3097278,1924
Lebanon,Indiana,43,Daniel Boone Klan,Operated throughout Boone County.,40.0483744,-86.4691677,1923
Modoc,Indiana,44,Randolph County Klan,Also operated in Winchester.,40.0453238,-85.1263542,1924
Winamac,Indiana,45,Liberty Klan,No Notes,41.0514299,-86.6030648,1930
Kosciusko County,Indiana,46,Not Named,No Notes,41.2864679,-85.8486236,1924
Tipton,Indiana,50,Not Named,No Notes,40.2822598,-86.041098,1926
Sullivan,Indiana,51,Not Named,,39.0953199,-87.4058525,1928
South Bend,Indiana,52,Valley Klan,No Notes,41.6763545,-86.2519898,1926
South Bend,Indiana,53,Valley Klan,"Operated in North Vernon, Jennings County and St. Joseph County.",41.6763545,-86.2519898,1924
Martin County,Indiana,54,Not Named,No Notes,38.71,-86.8,1924
Rockville,Indiana,58,Parke County Klan,No Notes,39.7625404,-87.2291809,1923
Wayne County,Indiana,59,Not Named,No Notes,39.831882,-84.981754,1927
Richmond,Indiana,60,Whitewater Klan,Also operated out of Tipton.,39.8289369,-84.8902382,1924
Clinton,Indiana,61,Not Named,No Notes,39.6569817,-87.3980741,1923
Kendallville,Indiana,66,Not Named,No Notes,41.4414384,-85.2649754,1924
Crown Point,Indiana,67,Kalumet Klan,No Notes,41.4169806,-87.3653135,1924
Warren County,Indiana,69,Not Named,No Notes,40.35,-87.36,1924
Columbus,Indiana,70,Not Named,No Notes,39.2014404,-85.9213796,1923
Crown Point,Indiana,72,Lake County Klan,No Notes,41.4169806,-87.3653135,1923
Knox County,Indiana,75,Not Named,Vincennes Unit 8 and Sandborn Unit 11 make up Knox County Klan #75,38.69,-87.42,1924
Elkhart County,Indiana,77,Not Named,Chartered on 11/1/1925,41.6062253,-85.8486236,1925
Jasper County,Indiana,80,Not Named,No Notes,41.016667,-87.116667,1923
Wabash,Indiana,81,Wabasheo Klan,No Notes,40.797821,-85.8205411,1926
Chesterton,Indiana,82,Not Named,Also operated throughout Johnson County,41.6105937,-87.0641992,1929
Peru,Indiana,83,Wabash Valley Klan,No Notes,40.7536528,-86.0688811,1925
Rochester,Indiana,84,Not Named,No Notes,41.0647645,-86.2158331,1924
Pike County,Indiana,86,Not Named,No Notes,38.4,-87.23,1924
Gibson County,Indiana,87,Not Named,Also operated in Fort Cumberland,38.3338249,-87.5791287,1924
Odon,Indiana,90,Not Named,No Notes,38.8428256,-86.9913959,1923
Hartford City,Indiana,92,Godfrey Klan,No Notes,40.451154,-85.369972,1928
Rockport,Indiana,93,Not Named,No Notes,37.8831055,-87.0494408,1924
Hartford City,Indiana,93,Godfrey Klan,No Notes,40.451154,-85.369972,1927
Eureka,Indiana,96,Not Named,No Notes,37.8806026,-87.2150011,1926
Fortville,Indiana,99,Not Named,No Notes,39.9322625,-85.8480354,1926
Roanoke,Indiana,106,Jackson Klan,No Notes,40.9625467,-85.3733078,1927
Roanoke,Indiana,110,Little River Klan,No Notes,40.9625467,-85.3733078,1927
Gas City,Indiana,113,Not Named,"Also operated throughout Grant County. Chartered on October 9, 1924 with 72 members.",40.4872625,-85.6130311,1924
Hammond,Indiana,125,Not Named,Associated with Hammond klavern number 135.,41.5833688,-87.5000412,1926
Mishawaka,Indiana,142,White Cloud Klan,No Notes,41.6619927,-86.1586156,1927
Michigan City,Indiana,145,Not Named,No Notes,41.7075394,-86.8950297,1930
West Point,Indiana,151,Shawnee Klan,No Notes,40.3449627,-87.0428982,1932
Indianapolis,Indiana,164,Fountain Square Klan,"Predecessor to klavern 184, also situated in Indianapolis. Reorganized and incorporated into 179 prior to being incorporated into 184.",39.768403,-86.158068,1932
Logansport,Indiana,170,Kass Kounty Klan,No Notes,40.7544843,-86.3566659,1930
Kokomo,Indiana,173,Nathan Hale Klan,"9th birthday on 24 Nov 31 , 10th anniversary on 26 Nov 32",40.486427,-86.1336033,1932
Indianapolis,Indiana,179,Not Named,Successor to klavern 164 and later incorporated into klavern 184.,39.768403,-86.158068,1932
Ft. Wayne,Indiana,180,Anthony Wayne Klan,No Notes,41.079273,-85.1393513,1929
Indianapolis,Indiana,184,Fountain Square Klan,Successor to klavern 164.,39.768403,-86.158068,1932
Des Moines,Iowa,1,Pioneer Klan,"received back its old charter, issued April 1922",41.6005448,-93.6091064,1923
Sanborn,Iowa,2,Daniel Boone Klan,O'Brien County,43.1816421,-95.6555674,1923
Davenport,Iowa,5,Abraham Lincoln Klan,No Notes,41.5236437,-90.5776367,1925
Mason City,Iowa,7,Betsy Ross Klan,No Notes,43.1535728,-93.2010367,1923
Perry,Iowa,11,Dallas County Klan,Perry,41.8385964,-94.1071797,1924
Jones County,Iowa,13,Jones County Klan,No Notes,42.1516737,-91.135302,1926
Clay County,Iowa,16,Not Named,Peterson Unit,43.080833,-95.149444,1925
Sioux City,Iowa,17,Woodbury County,No Notes,42.4999942,-96.4003069,1929
Creston,Iowa,19,Union County Klan,No Notes,41.0586002,-94.3613474,1927
Dubuque Country,Iowa,20,Dubuque County Klan,No Notes,42.4694679,-90.8294002,1926
Marshalltown,Iowa,21,Marshall County,No Notes,42.0494674,-92.9080375,1925
O'Brien County,Iowa,23,Not Named,No Notes,43.1131245,-95.6457951,1933
Floyd County,Iowa,26,Not Named,No Notes,43.0615947,-92.8577105,1926
Keokuk,Iowa,28,Not Named,No Notes,40.4044731,-91.3963966,1934
Manchester,Iowa,31,Delaware County,No Notes,42.4857853,-91.4579698,1925
Ottumwa,Iowa,33,Wapello County,No Notes,41.0160293,-92.4083022,1929
Mechanicsville,Iowa,34,Cedar County Klan,No Notes,41.9027909,-91.2546067,1926
Tipton,Iowa,34,Not Named,No Notes,41.7697434,-91.1279349,1932
Muscatine County,Iowa,39,Not Named,No Notes,41.5156913,-91.135302,1925
Jackson County,Iowa,44,Jackson County Klan,No Notes,42.170278,-90.575,1926
Cass County,Iowa,47,Griswold Unit,No Notes,41.2538068,-94.976654,1925
Newton,Iowa,50,Jasper County Klan,No Notes,41.7033177,-93.0573533,1930
Knoxville,Iowa,61,Not Named,No Notes,41.320343,-93.09967,1930
Boone,Iowa,68,Not Named,No Notes,42.0597047,-93.8802273,1925
Council Bluffs,Iowa,69,Not Named,No Notes,41.2619444,-95.8608333,1931
Cedar Rapids,Iowa,78,Not Named,No Notes,41.9778795,-91.6656232,1927
Emerson,Iowa,88,Not Named,No Notes,41.0172179,-95.4022179,1930
Red Oak,Iowa,0,Oak Klan,No Notes,41.0170937,-95.2214477,1926
Waterloo,Iowa,25,Black Hawk County Klan,No Notes,42.4925,-92.346111,1925
Fayette County,Iowa,55,Fayette County Klan,No Notes,42.865,-91.849444,1929
Augusta,Kansas,2,Frontier Klan,No Notes,37.6866844,-96.9767023,1923
Florence,Kansas,4,Not Named,No Notes,38.244462,-96.9280786,1923
Kansas City,Kansas,5,Wyandotte Klan,No Notes,39.114053,-94.6274636,1922
Wichita,Kansas,6,Not Named,No Notes,37.688889,-97.336111,1923
Coffeyville,Kansas,7,Not Named,No Notes,37.0373005,-95.6163665,1922
Caney,Kansas,8,Not Named,No Notes,37.0114608,-95.9352584,1923
Bonner Springs,Kansas,8,Not Named,No Notes,39.059726,-94.8835754,1924
Bonner Springs,Kansas,9,Not Named,No Notes,39.059726,-94.8835754,1923
Independence,Kansas,10,Not Named,No Notes,37.2242358,-95.7083131,1923
Independence,Kansas,0,Not Named,No Notes,37.2242358,-95.7083131,1922
Wathena,Kansas,12,Not Named,AKA Walthena Sphinx Klan,39.7591606,-94.9496907,1924
Kiowa,Kansas,15,Not Named,Charles McBrayer Klan,37.0172493,-98.4853539,1923
Medicine Lodge,Kansas,18,Not Named,No Notes,37.2811339,-98.580361,1923
Elwood,Kansas,19,Not Named,[See also Indiana],39.7555499,-94.8724661,1923
Columbus,Kansas,20,Not Named,No Notes,37.1692278,-94.8441239,1928
Winfield,Kansas,21,Not Named,No Notes,37.2397486,-96.9955918,1923
Pittsburg,Kansas,22,Not Named,No Notes,37.410884,-94.70496,1923
Kiwi,Kansas,23,Not Named,No Notes,37.7108299,-97.5008821,1923
Great Bend,Kansas,25,Not Named,No Notes,38.3644567,-98.7648073,1923
Atchison,Kansas,27,Not Named,No Notes,39.5630521,-95.1216356,1923
Chanute,Kansas,28,Not Named,No Notes,37.6792135,-95.4572034,1923
Leonora,Kansas,29,Not Named,No Notes,39.61056,-100.0026272,1931
Parsons,Kansas,32,Not Named,No Notes,37.3403384,-95.2610838,1924
Shawnee,Kansas,35,Not Named,No Notes,39.0228485,-94.7151865,1923
Hiawatha,Kansas,39,Not Named,No Notes,39.8525,-95.536389,1926
Dexter,Kansas,44,Not Named,No Notes,37.1772513,-96.7144722,1923
Hamilton,Kansas,44,Not Named,No Notes,37.9794705,-96.1641647,1925
Udall,Kansas,46,Not Named,No Notes,37.3875221,-97.1142063,1923
Oxford,Kansas,48,Not Named,No Notes,37.2741908,-97.1689296,1923
Newton,Kansas,49,Not Named,No Notes,38.0466779,-97.3450365,1925
Cherryvale,Kansas,51,Not Named,No Notes,37.270344,-95.5524788,1923
Rossville,Kansas,57,Not Named,No Notes,39.1361097,-95.9516563,1923
Oskaloosa,Kansas,58,Not Named,No Notes,39.215277,-95.3127498,1923
Douglass,Kansas,60,Not Named,No Notes,37.5194642,-97.0128147,1923
Bunker Hill,Kansas,62,Bunker Hill Klan,No Notes,38.8758445,-98.7039655,1924
Overbrook,Kansas,65,Osage County,No Notes,38.7805607,-95.5572026,1924
Linwood,Kansas,68,Not Named,No Notes,39.001392,-95.0391356,1923
Valley Falls,Kansas,69,Not Named,No Notes,39.3433316,-95.460253,1924
Hoisington,Kansas,70,Not Named,No Notes,38.5180672,-98.7781394,1923
Topeka,Kansas,78,Not Named,No Notes,39.0558235,-95.6890185,1923
Onaga,Kansas,81,Not Named,No Notes,39.4888846,-96.1699986,1925
Tonganoxie,Kansas,88,Not Named,No Notes,39.109724,-95.0877465,1924
Mullinsville,Kansas,89,Not Named,No Notes,37.5861307,-99.475674,1924
Osawatomie,Kansas,91,John Brown Klan,No Notes,38.4972372,-94.9505207,1924
Neodesha,Kansas,99,Little Bear Klan,No Notes,37.4183929,-95.6802581,1926
Stafford,Kansas,109,Not Named,No Notes,37.9622371,-98.6006375,1924
Osage City,Kansas,140,Not Named,No Notes,38.6338981,-95.8258207,1926
Miltonvale,Kansas,142,Not Named,No Notes,39.3483299,-97.4461408,1926
Conway Springs,Kansas,145,Not Named,No Notes,37.3902975,-97.6422723,1924
Salina,Kansas,146,Not Named,No Notes,38.8402805,-97.6114237,1931
Leavenworth,Kansas,150,Not Named,No Notes,39.3111112,-94.9224637,1927
Council Grove,Kansas,161,Not Named,No Notes,38.6611187,-96.4919473,1926
Abilene,Kansas,172,Not Named,No Notes,38.9172216,-97.2139094,1926
Little River,Kansas,175,Not Named,No Notes,38.3980652,-98.0119966,1926
Chase County,Kansas,190,Not Named,just chartered in January 1925,38.3,-96.583333,1925
Hutchinson,Kansas,207,Not Named,No Notes,38.0608445,-97.9297743,1927
Hamilton,Kansas,211,Not Named,No Notes,37.9794705,-96.1641647,1925
Sterling,Kansas,222,Not Named,No Notes,38.2100111,-98.2070059,1930
Ottawa,Kansas,243,Franklin County Klan,reorganized in 1935,38.611944,-95.266389,1926
Greenleaf,Kansas,248,Not Named,No Notes,39.7283364,-96.9761341,1926
El Dorado,Kansas,1,Pioneer Klan,No Notes,37.821111,-96.858333,1921
Arkansas City,Kansas,3,Not Named,No Notes,37.065278,-97.039722,1921
Winfield,Kansas,27,Not Named,No Notes,37.239722,-96.995556,1921
Covington,Kentucky,1,John B. Castleman Klan,"Kenton County, oldest klan in KY",39.0836712,-84.5085536,1923
Newport,Kentucky,3,Campbell County Klan,No Notes,39.091449,-84.4957757,1927
Newport,Kentucky,4,Henry Clay Klan,No Notes,39.091449,-84.4957757,1929
Pendleton County,Kentucky,12,Not Named,No Notes,38.6900889,-84.359802,1925
Winchester,Kentucky,21,Clark County,No Notes,37.990079,-84.1796503,1932
Catlettsburg,Kentucky,30,Boyd Klan,No Notes,38.4048042,-82.6004369,1925
Shelbyville,Kentucky,32,Shelby Klan,No Notes,38.2120144,-85.2235666,1929
Glasgow,Kentucky,39,Barren Klan,No Notes,36.9958839,-85.9119215,1928
Frankfort,Kentucky,55,David [sic] Boone Klan,No Notes,38.2009055,-84.8732835,1925
Lebanon,Kentucky,61,Marion Klan,No Notes,37.5697868,-85.2527381,1925
Sanford,Kentucky,65,Lincoln Klan,No Notes,37.5311901,-84.6618876,1925
McCreary County,Kentucky,72,Not Named,No Notes,36.6973499,-84.4802606,1925
Olive Hill,Kentucky,77,Carter Klan,No Notes,38.3000809,-83.1740654,1929
Pineville,Kentucky,85,Not Named,No Notes,36.76203,-83.6949176,1925
Lexington,Kentucky,87,Fayette Klan,No Notes,38.0405837,-84.5037164,1930
Black Snake,Kentucky,125,Not Named,No Notes,36.7116839,-83.5140087,1926
Louisville,Kentucky,127,Not Named,No Notes,38.2526647,-85.7584557,1926
South Louisville,Kentucky,133,Not Named,No Notes,38.2063016,-85.7692277,1931
Covington,Kentucky,136,Not Named,No Notes,39.0836712,-84.5085536,1931
Portland,Kentucky,137,Not Named,May also be from Okloona or Louisville,38.7481239,-84.4477162,1931
Elizabeth,Kentucky,139,Bourbon Klan,No Notes,38.1211819,-85.9741324,1930
Louisville,Kentucky,143,Not Named,oldest in the city,38.2526647,-85.7584557,1931
Glasgow,Kentucky,0,Barren County,No Notes,36.9958839,-85.9119215,1931
Ashland,Kentucky,0,Boyd Klan,No Notes,38.4784144,-82.6379387,1930
Middlesboro,Kentucky,118,Not Named,No Notes,36.610278,-83.723333,1926
New Orleans,Louisiana,1,Old Hickory Klan,No Notes,29.9510658,-90.0715323,1922
Shreveport,Louisiana,2,Not Named,"Organized ""almost three years ago"", according to the INH. Granger, established Nov 1920",32.5251516,-93.7501789,1923
Baton Rouge,Louisiana,3,Not Named,No Notes,30.4582829,-91.1403196,1921
Monroe,Louisiana,4,Not Named,No Notes,32.5093109,-92.1193012,1922
Alexandria,Louisiana,6,Not Named,No Notes,31.3112936,-92.4451371,1922
Lake Charles,Louisiana,7,Not Named,No Notes,30.2265949,-93.2173758,1922
Derrider,Louisiana,9,Beauregard Parish,No Notes,30.8463055,-93.2890527,1923
De Quincy,Louisiana,10,Not Named,No Notes,30.4504779,-93.4332189,1923
Baton Rouge,Louisiana,11,White Oak Klan,No Notes,30.4582829,-91.1403196,1924
Alexandria,Louisiana,12,Not Named,No Notes,31.3112936,-92.4451371,1922
Minden,Louisiana,17,Not Named,No Notes,32.6154278,-93.2868354,1922
Covington,Louisiana,18,Kay-Tam Klan,No Notes,30.4754702,-90.1009108,1922
Winnfield,Louisiana,19,Antone W. Radescich Klan,No Notes,31.9254413,-92.6395931,1922
Oakdale,Louisiana,23,Not Named,No Notes,30.8167525,-92.658557,1923
Jackson,Louisiana,25,Not Named,No Notes,30.8374036,-91.2176087,1923
Crowley,Louisiana,26,Rice City Klan,No Notes,30.2140928,-92.3745761,1923
Arcadia,Louisiana,28,James Brice Klan,No Notes,32.551944,-92.924167,1922
Haynesville,Louisiana,30,Not Named,No Notes,32.9620847,-93.1401647,1923
Rushton,Louisiana,31,Not Named,No Notes,32.5232053,-92.637927,1926
Winnsboro,Louisiana,32,John C. Adams Klan,No Notes,32.1632079,-91.720681,1922
Morehouse Parish,Louisiana,34,Not Named,New York Times on Skipwith,32.82,-91.8,1922
Lake Providence,Louisiana,37,Karroll Klan,No Notes,32.8042966,-91.170109,1922
Merryville,Louisiana,40,Not Named,No Notes,30.753889,-93.536944,1924
Vivian,Louisiana,41,Vivian Klan,No Notes,32.8715278,-93.9874032,1923
Algiers,Louisiana,45,Al-Gre-Har Klan,No Notes,29.9220105,-90.0139908,1922
Logansport,Louisiana,47,Not Named,No Notes,31.975445,-93.9979678,1923
Amite City,Louisiana,49,Amite Klan,No Notes,30.7265747,-90.5089815,1923
Boyce,Louisiana,51,Not Named,No Notes,31.3904558,-92.6693132,1922
Kinder,Louisiana,52,Not Named,No Notes,30.485479,-92.850703,1924
Colfax,Louisiana,53,Grant Klan,No Notes,31.5190623,-92.706816,1922
Urania,Louisiana,53,Urania Klan,No Notes,31.8637771,-92.2959723,1923
LaSalle,Louisiana,55,LaSalle Parish,No Notes,31.68,-92.16,1922
Campti,Louisiana,57,Kampti Klan,No Notes,31.8934954,-93.1182202,1923
Gibsland,Louisiana,59,Not Named,No Notes,32.5440413,-93.0529398,1923
Jonesboro,Louisiana,60,Hoboro Klan,No Notes,32.2412672,-92.7159853,1922
Tensas,Louisiana,61,Not Named,No Notes,32,-91.33,1922
Haynesville,Louisiana,63,Not Named,No Notes,32.9620847,-93.1401647,1922
Homer,Louisiana,63,Not Named,No Notes,32.7918133,-93.055718,1923
Colfax,Louisiana,70,Not Named,No Notes,31.5190623,-92.706816,1922
Ashland,Louisiana,78,Not Named,No Notes,32.1418256,-93.0982193,1924
Bull Bayou,Louisiana,83,Bull Bayou Klan,No Notes,32.007566,-93.4243225,1923
Shreveport,Louisiana,100,Not Named,Shreveport,32.5251516,-93.7501789,1926
Urania,Louisiana,125,Russo Klan,No Notes,31.8637771,-92.2959723,1925
New Iberia,Louisiana,138,Not Named,No Notes,30.0035365,-91.8187285,1925
New Orleans,Louisiana,163,Old Hickory Klan,No Notes,29.9510658,-90.0715323,1926
New Orleans,Louisiana,166,Harmony Klan,"""a younger unit of the organization here,"" held a meeting with attendees also from George Washington, Old Hickory, Abraham Lincoln, and Al-Gre-Har (Algiers, Gretna, and Harvey) Klans",29.9510658,-90.0715323,1929
Shreveport,Louisiana,3,Not Named,No Notes,32.5251516,-93.7501789,1928
Catahoula,Louisiana,36,Katahoula Klan,No Notes,30.214499,-91.708932,1923
Glenmore,Louisiana,46,McLongmore Klan,No Notes,30.976667,-92.585278,1922
Columbia,Louisiana,64,Kaldwell Klan,No Notes,32.104167,-92.076944,1923
Harrisonburg,Louisiana,75,Not Named,No Noes,31.772222,-91.8275,1923
Monroe,Louisiana,102,Not Named,No Nodes,32.509444,-92.118333,1925
New Orleans,Louisiana,1,Not Named,No Notes,29.9510658,-90.0715323,1920
Portland,Maine,1,Witham Klan,"Witham Klan named for Dr. W. H. Witham, founder",43.661471,-70.2553259,1923
York,Maine,4,Not Named,No Notes,43.1617483,-70.6482581,1925
Kittery,Maine,5,Not Named,"dateline is August 16th, 1925, no paper identified",43.0881256,-70.736137,1925
Pittsfield,Maine,10,Dirigo Klan,No Notes,44.7825145,-69.3833847,1929
Presque Isle,Maine,12,Not Named,No Notes,46.681153,-68.0158615,1928
Waterville,Maine,26,Not Named,No Notes,44.5520105,-69.6317121,1926
Auburn,Maine,46,Androscoggin County,No Notes,44.0978509,-70.2311655,1925
South Paris,Maine,49,Flanders Klanton,No Notes,44.223681,-70.5133929,1931
Portland,Maine,54,Kumberland Kounty Klan,No Notes,43.661471,-70.2553259,1928
Hagerstown,Maryland,1,Not Named,No Notes,39.6417629,-77.7199932,1922
Baltimore,Maryland,1,Thomas Dixon Klan,"Chartered Feb 1922(Jackson). Simultaneous cross burnings in Delaware and Maryland, including Baltimore with twenty-five crosses, one for each of the twenty-five Klans in the city (Fiery Cross).",39.2903848,-76.6121893,1923
Baltimore,Maryland,2,Jefferson Klan,No Notes,39.2903848,-76.6121893,1923
Indian Head,Maryland,2,Not Named,No Notes,38.6001186,-77.1622016,1923
Hyattsville,Maryland,2,Not Named,No Notes,38.9559442,-76.9455301,1927
Hyattsville,Maryland,3,Not Named,No Notes,38.9559442,-76.9455301,1926
Perryville,Maryland,4,Cecil Klan,AKA Cissell Klan,39.5601129,-76.0713385,1924
Cambridge,Maryland,5,Choptank Klan,No Notes,38.5631744,-76.0788292,1923
Annapolis,Maryland,6,Severn Klan,No Notes,38.9784453,-76.4921829,1930
Hampden,Maryland,7,Not Named,No Notes,39.3333706,-76.632607,1923
Havre de Grace,Maryland,7,Harford Klan,No Notes,39.5492792,-76.091617,1924
Hurlock,Maryland,10,Eagle Klan,No Notes,38.6355387,-75.8615316,1923
Odenton,Maryland,11,Not Named,No Notes,39.0839981,-76.7002462,1923
Brunswick,Maryland,13,Gibralter Klan,No Notes,39.3142682,-77.6277679,1925
Hagerstown,Maryland,14,Dixie Klan,No Notes,39.6417629,-77.7199932,1926
Centerville,Maryland,15,Queen Anne's County Klan,No Notes,39.0417785,-76.0663334,1923
Columbia,Maryland,17,Kolumbia Klan,No Notes,39.2037144,-76.8610462,1923
Takoma,Maryland,18,Not Named,No Notes,38.9725465,-77.0204624,1926
Oakland,Maryland,20,Not Named,May have also been number 10 in the state,39.4078747,-79.4067116,1923
Elkton,Maryland,23,Elk Klan,"organized ten years ago. 12th anniversary celebrated on 12 Feb 35. Meets in Jr. O. U. A. M. Hall, Childs, Md., every Tuesday",39.6067789,-75.8332718,1927
Marion,Maryland,25,Not Named,No Notes,38.0392905,-75.7707639,1925
Snow Hill,Maryland,28,Not Named,No Notes,38.1770634,-75.3926959,1923
Cumberland,Maryland,37,Fort Cumberland Klan,"Established October 31, 1922 according to FF. Ebay photo has label giving Fort Cumberland Klan No. 37, which seller dates as approximately 1919. Give or take two years.",39.6528654,-78.7625185,1924
Bethesda,Maryland,44,Not Named,No Notes,38.984652,-77.0947092,1926
Baltimore,Maryland,45,Not Named,No Notes,39.2903848,-76.6121893,1931
Mt. Rainier,Maryland,51,Not Named,No Notes,38.9415,-76.9649751,1927
Rising Sun,Maryland,52,Not Named,No Notes,39.6978871,-76.0627266,1933
Capitol Heights,Maryland,53,Not Named,No Notes,38.8851122,-76.9158068,1932
Hampden,Maryland,55,Not Named,"Organized last spring, with 31 members. Since then it has naturalized 35, reinstated 4, and has 11 applications on hand. AKA  Baltimore-Hamden",39.3333706,-76.632607,1929
Westminster,Maryland,59,Not Named,No Notes,39.5753791,-76.9958149,1932
Cumberland,Maryland,60,Loyal Klan,No Notes,39.6528654,-78.7625185,1933
Poolsville,Maryland,63,Not Named,No Notes,39.1459392,-77.4169311,1935
Boston,Massachusetts,1,Mohawk Klan,May have also been located in Charlemont,42.3600825,-71.0588801,1922
Brockton,Massachusetts,2,Mayflower Klan,No Notes,42.0834335,-71.0183787,1927
Berkshire County,Massachusetts,2,Western Gateway Klan,No Notes,42.311782,-73.1821623,1926
Athol,Massachusetts,3,Not Named,No Notes,42.5959329,-72.2267383,1927
Worcester,Massachusetts,4,Not Named,"Organized as a provisional Klan in May 1922, chartered on 25 Mar 26",42.2625932,-71.8022934,1931
Pittsfield,Massachusetts,9,Berkshire Klan,No Notes,42.4500845,-73.2453824,1926
Northampton,Massachusetts,6,Hampshire Klan,No Notes,42.3250896,-72.6412013,1928
Ward Hill,Massachusetts,7,North Essex Klan,No Notes,42.7567572,-71.1036688,1927
Upton-Whitin,Massachusetts,8,Not Named,No Notes,42.4072107,-71.3824374,1926
Boston,Massachusetts,11,Tea Party Klan,"Massachusetts has now become a Realm in 1926 (Fellowship Forum). The Boston Tea Party Klan No. 11, has a very interesting history, while it stands number eleven in the list of chartered Klans in the R",42.3600825,-71.0588801,1926
Leonminster,Massachusetts,13,Paul Revere Klan,AKA Gardner Klan,42.5250906,-71.759794,1930
Springfield,Massachusetts,14,Not Named,Springfield Ethan Allen Klan No. 74 [sic],42.1014831,-72.589811,1922
Gardner,Massachusetts,14,Not Named,No Notes,42.5750883,-71.998133,1927
Framingham,Massachusetts,15,Ashfram Klan,No Notes,42.279286,-71.4161565,1930
Waltham,Massachusetts,17,Gunder Klan,Also attributed as number 16 (Kourier Magainze),42.3764852,-71.2356113,1931
Lowell,Massachusetts,18,Not Named,Hosts Neva Miller Moss,42.6334247,-71.3161718,1929
Sutton,Massachusetts,21,General Rufus Putnam Klan,No Notes,42.1500353,-71.7632878,1931
Cape Cod,Massachusetts,25,Kape Kod Klan,No Notes,41.700808,-70.472904,1932
Rutland,Massachusetts,30,Naquog Klan,"Also attributed to Holden, MA (Kourier Magazine)",42.3695086,-71.9481211,1931
Lynn,Massachusetts,33,Viking Klan,No Notes,42.466763,-70.9494938,1927
Amesbury,Massachusetts,17,Not Named,No Notes,42.858333,-70.930556,1925
Ann Arbor,Michigan,1,Arbor Klan,No Notes,42.2808256,-83.7430378,1926
Flint,Michigan,4,Not Named,No Notes,43.0125274,-83.6874562,1922
Genesee,Michigan,4,Genesee Klan,No Notes,43.0935147,-83.6135572,1931
Lapeer County,Michigan,4,Lapeer County Klan,No Notes,43.0482433,-83.1649001,1932
Jackson County,Michigan,5,Not Named,No Notes,42.1764362,-84.3542049,1932
Adrian,Michigan,16,Lenawee County Klan,No Notes,41.8975471,-84.0371659,1931
Oakland City,Michigan,21,Not Named,No Notes,42.7561109,-83.1434573,1926
Tuscola,Michigan,23,Not Named,No Notes,43.326413,-83.6571828,1926
Alena,Michigan,24,Gratiot Klan,No Notes,44.3148443,-85.6023643,1928
Port Huron,Michigan,25,William Jennings Bryan Klan,No Notes,42.9708634,-82.4249142,1926
Mecosta County,Michigan,28,Not Named,"Also attributed to Big Rapids, MI. AKA Mecosta County Klan",43.6201025,-85.354965,1930
Newaygo County,Michigan,29,Not Named,No Notes,43.5593582,-85.7666645,1923
St. John's,Michigan,31,Klinton Kounty Klan,No Notes,43.001143,-84.5591521,1925
Detroit,Michigan,32,Dolley Madison Klan,No Notes,42.331427,-83.0457538,1928
Niles,Michigan,33,Pottawattamie Klan,No Notes,41.8297694,-86.2541768,1926
Muskegon,Michigan,34,Bishop Klan,No Notes,43.2341813,-86.2483921,1925
Grand Rapids,Michigan,37,Not Named,No Notes,42.9633599,-85.6680863,1929
Bay City,Michigan,41,Not Named,No Notes,43.5944677,-83.8888647,1926
Hartford,Michigan,46,Not Named,No Notes,42.2067051,-86.1666876,1926
Wyandotte,Michigan,49,Bryan Klan,No Notes,42.2142064,-83.1499239,1930
Wyandotte,Michigan,65,Monroe Klan,No Notes,42.2142064,-83.1499239,1926
Niles,Michigan,66,Gateway City Klan,No Notes,41.8297694,-86.2541768,1929
Wayne County,Michigan,68,Wayne County Klan,Also attributed to Detriot. The name of the Detroit Klan when it finally got its charter in 1925 (Jackson).,42.2790746,-83.336188,1926
Allegan,Michigan,77,Cheshire Klan,No Notes,42.5291989,-85.8553031,1927
Berkeley,Michigan,91,Not Named,"Chartered June 23, 1926",42.5030908,-83.1835389,1931
Williamston,Michigan,104,Not Named,No Notes,42.6889235,-84.2830245,1931
Iron Mountain,Michigan,112,Not Named,Seven years old as of June 1931(Kourier Magazine). AKA Kloverland Klan,45.8202334,-88.0659603,1931
Sault Ste. Marie,Michigan,118,Lock City Klan,No Notes,44.3148443,-85.6023643,1927
Flint,Michigan,121,Dixie Highway Klan,No Notes,43.0125274,-83.6874562,1928
Kalamazoo,Michigan,126,Not Named,No Notes,42.2917069,-85.5872286,1931
Long Rapids,Michigan,143,Not Named,No Notes,45.1258448,-83.7224883,1931
Battle Creek,Michigan,146,Not Named,No Notes,42.3211522,-85.1797142,1929
Detroit,Michigan,149,Triangle Klan,Mainly situated in the east side of Detriot,42.331427,-83.0457538,1931
Pontiac,Michigan,151,Not Named,No Notes,42.6389216,-83.2910468,1928
Woodmere,Michigan,152,Not Named,No Notes,42.3078549,-83.1360117,1931
Constantine,Michigan,159,St. Jo Klan,AKA St. Joseph Klan,41.8411603,-85.6686026,1929
Saginaw,Michigan,161,Wanigas Klan,No Notes,43.4194699,-83.9508068,1931
Detroit,Michigan,165,Not Named,The city's newest and largest Klan,42.331427,-83.0457538,1931
Flint,Michigan,166,Friendship Klan,"Chartered Feb 17, 1933",43.0125274,-83.6874562,1933
Benton Harbor,Michigan,85,Not Named,No Notes,42.111111,-86.448333,1927
Minneapolis,Minnesota,2,North Star Klan,Began August 1921 according to Jackson,44.977753,-93.2650108,1923
Albert Lea,Minnesota,7,Not Named,No Notes,43.6478006,-93.3686555,1923
St. James,Minnesota,15,Watowan Klan,No Notes,43.9820734,-94.6283192,1928
St. Paul,Minnesota,62,Not Named,No Notes,44.9537029,-93.0899578,1928
St. Paul,Minnesota,236,Not Named,No Notes,44.9537029,-93.0899578,1931
New Ulm,Minnesota,29,New Ulm Provisional Klan,No Notes,44.3144394,-94.4593018,1923
Albert Lea,Minnesota,54,Freeborn County Klan,No Notes,43.647861,-93.36875,1929
Natchez,Mississippi,2,Not Named,No Notes,31.5604442,-91.403171,1924
Vicksburg,Mississippi,3,Jefferson Davis Klan,No Notes,32.3526456,-90.877882,1921
Biloxi,Mississippi,4,Not Named,No Notes,30.3960318,-88.8853078,1922
Logtown,Mississippi,5,Hancock County Klan,No Notes,30.2829726,-89.6211682,1924
Canton,Mississippi,6,J. Z. George Klan,No Notes,32.6126381,-90.0367512,1922
New Augusta,Mississippi,16,Not Named,No Notes,31.2024033,-89.0347743,1923
Hattiesburg,Mississippi,18,Not Named,No Notes,31.3271189,-89.2903392,1922
McComb,Mississippi,23,Not Named,No Notes,31.2437872,-90.4531535,1928
Laurel,Mississippi,30,Dr. R. C. Johnston Klan,No Notes,31.6940509,-89.1306124,1926
Brookhaven,Mississippi,36,Thomas Walker Klan,AKA Tom Walker Adams Klan,31.5790588,-90.4406506,1924
Poplarville,Mississippi,40,Bilbo Klan,No Notes,30.8401863,-89.5342315,1923
Sardis,Mississippi,44,Not Named,No Notes,34.4370511,-89.9159227,1923
Greenwood,Mississippi,51,Leflore Klan,No Notes,33.5162315,-90.1795281,1922
Meridian,Mississippi,54,Not Named,No Notes,32.3643098,-88.703656,1923
Philadelphia,Mississippi,58,Not Named,No Notes,32.7715227,-89.1167275,1926
Ripley,Mississippi,63,Not Named,No Notes,34.7298181,-88.9506181,1923
Summit,Mississippi,65,Captain Boyd Klan,No Notes,31.2837867,-90.4684315,1923
Aberdeen,Mississippi,70,Not Named,No Notes,33.8251139,-88.5436553,1924
Lexington,Mississippi,71,Not Named,No Notes,33.1131833,-90.0531408,1923
Osyka,Mississippi,84,Not Named,No Notes,31.0068453,-90.4723178,1923
Sumrall,Mississippi,88,Sumrall Klan,No Notes,31.4173935,-89.5422909,1926
Morton,Mississippi,90,Not Named,No Notes,32.3537557,-89.6545171,1923
Itta Bena,Mississippi,91,Itta Bena Klan,No Notes,33.49512,-90.3198067,1923
Schlater,Mississippi,95,Not Named,No Notes,33.6406729,-90.3481422,1923
Tupelo,Mississippi,97,Not Named,No Notes,34.2576066,-88.7033859,1923
Lexington,Mississippi,98,Water Valley Klan,No Notes,33.1131833,-90.0531408,1924
New Albany,Mississippi,100,Not Named,No Notes,34.4942683,-89.0078418,1923
Iuka,Mississippi,100,Not Named,No Notes,34.8117565,-88.1900415,1924
Corinth,Mississippi,105,Not Named,No Notes,34.9342548,-88.5222702,1923
Tippah County,Mississippi,53,Not Named,No Notes,34.7688097,-88.864698,1924
Jackson,Mississippi,22,Not Named,No Notes,32.298889,-90.184722,1926
El Dorado Springs,Missouri,1,El Dorado Klan,No Notes,37.8769799,-94.0213303,1923
St. Joseph,Missouri,2,Not Named,No Notes,39.7674578,-94.846681,1931
Carthage,Missouri,3,Ozark Klan,"Also attributed to Jolpin, MO (Kourier Magazine and Chalmers)",37.176447,-94.3102228,1922
Webb City,Missouri,3,Ozark Klan,No Notes,37.1464475,-94.4630035,1923
St. Joseph,Missouri,4,Not Named,No Notes,39.7674578,-94.846681,1923
Fortescue,Missouri,5,Not Named,No Notes,40.0522205,-95.3183117,1923
Mound City,Missouri,5,Not Named,No Notes,38.6270025,-90.1994042,1926
Monett,Missouri,6,Not Named,No Notes,36.9289502,-93.9277071,1923
Neosho,Missouri,7,Isaac Shambaugh Klan,No Notes,36.8689554,-94.367996,1922
Joplin,Missouri,8,Ozark Klan,No Notes,37.0842271,-94.513281,1923
Agency,Missouri,10,Not Named,No Notes,39.644718,-94.7399611,1924
Springfield,Missouri,12,Not Named,No Notes,37.2089572,-93.2922989,1923
Carthage,Missouri,13,Paul Revere Klan,No Notes,37.176447,-94.3102228,1926
Lewiston,Missouri,14,Nathan Hale Klan,No Notes,40.086154,-91.8132225,1923
DeKalb,Missouri,15,Not Named,No Notes,39.8554602,-94.43879,1923
Faucett,Missouri,20,Not Named,No Notes,39.5997974,-94.7988868,1923
Gower,Missouri,21,Not Named,No Notes,39.6108304,-94.5994003,1923
Holt County,Missouri,24,Benjamin Franklin Klan,No Notes,40.0704458,-95.1849219,1923
Hickman Mills,Missouri,26,Not Named,No Notes,38.9158139,-94.526348,1923
Independence,Missouri,27,Not Named,No Notes,39.0911161,-94.4155068,1926
Lees Summit,Missouri,29,Not Named,No Notes,38.9108408,-94.3821724,1924
Holden,Missouri,30,Not Named,No Notes,38.7141778,-93.9913303,1926
Longton,Missouri,31,Not Named,No Notes,37.9642529,-91.8318334,1923
Kansas City,Missouri,38,Agapa Klan,No Notes,39.0997265,-94.5785667,1923
Kansas City,Missouri,39,Santa Fe Klan,No Notes,39.0997265,-94.5785667,1924
Kansas City,Missouri,40,Not Named,"AKA Heart of America Klan or Glen Klan. Also attributed to Glen, MO.",39.0997265,-94.5785667,1926
Kansas City,Missouri,41,West Port Klan,No Notes,39.0997265,-94.5785667,1923
Kansas City,Missouri,42,Central Klan,No Notes,39.0997265,-94.5785667,1923
Kansas City,Missouri,44,North West Klan,AKA the Northeast Klan,39.0997265,-94.5785667,1923
Kansas City,Missouri,45,Albert Pike Klan,No Notes,39.0997265,-94.5785667,1923
Linwood,Missouri,45,Not Named,No Notes,38.7979988,-90.9059053,1923
Sarcoxie,Missouri,47,Not Named,No Notes,37.0692266,-94.1166043,1923
Poplar Bluff,Missouri,48,Not Named,No Notes,36.7569994,-90.392888,1923
Trenton,Missouri,49,Not Named,No Notes,40.0789018,-93.6166074,1923
Naylor,Missouri,50,Not Named,No Notes,36.5753359,-90.6040037,1926
Liberal,Missouri,57,Not Named,No Notes,37.5581024,-94.5199553,1923
Malden,Missouri,61,Not Named,No Notes,36.5570028,-89.9664798,1923
Parma,Missouri,63,Not Named,No Notes,36.613669,-89.8164743,1924
Rochester,Missouri,65,Not Named,No Notes,39.9122168,-94.6846845,1923
Caruthersville,Missouri,86,Not Named,No Notes,36.1931245,-89.6556353,1931
Lilbourn,Missouri,91,Not Named,No Notes,36.5922816,-89.6153571,1926
Henrietta,Missouri,92,Not Named,No Notes,39.2341782,-93.9354988,1923
Maitland,Missouri,98,Nodaway Klan,No Notes,40.2008262,-95.0744187,1923
Windsor,Missouri,103,Not Named,No Notes,38.5322401,-93.5221545,1931
Appleton City,Missouri,106,Not Named,No Notes,38.1905819,-94.0293867,1926
Hannibal,Missouri,111,Not Named,No Notes,39.7083789,-91.3584816,1927
Warrensburg,Missouri,114,Not Named,No Notes,38.7627893,-93.7360498,1926
Tipton,Missouri,115,Not Named,No Notes,38.655578,-92.7799153,1926
Ironton,Missouri,117,Not Named,No Notes,37.600556,-90.631667,1924
St. Francois County,Missouri,120,Not Named,No Notes,37.7652755,-90.4879916,1926
Humansville,Missouri,126,Not Named,No Notes,37.795556,-93.578333,1926
Bowling Green,Missouri,127,Not Named,No Notes,39.341667,-91.2,1926
Lousiana,Missouri,128,Not Named,No Notes,39.445833,-91.056324,1926
Kirksville,Missouri,132,Adair County,No Notes,40.194722,-92.583333,1932
Sullivan,Missouri,134,Not Named,No Notes,38.2081045,-91.1604207,1926
Springfield,Missouri,137,Capitol Klan,Also attributed to Jefferson City and known as the Kapitol Klan (Freedom Forum).,37.2089572,-93.2922989,1926
Russellville,Missouri,138,Not Named,No Notes,38.511696,-92.4401869,1926
Eldon,Missouri,140,Not Named,No Notes,38.3483636,-92.5815759,1926
Slater,Missouri,141,Not Named,No Notes,39.2180805,-93.0690852,1925
Marshall,Missouri,142,Not Named,No Notes,39.1230777,-93.1968704,1926
Frankfort,Missouri,144,Not Named,No Notes,39.4900448,-91.3201473,1926
Lewiston,Missouri,146,Not Named,No Notes,40.086154,-91.8132225,1926
Oregon,Missouri,150,Not Named,No Notes,39.986667,-95.1425,1926
Curryville,Missouri,155,Not Named,No Notes,39.3455986,-91.3448719,1926
St. Louis,Missouri,162,Not Named,No Notes,38.627222,-90.197778,1926
Bolivar,Missouri,168,Not Named,No Notes,37.616667,-93.416667,1926
Weston,Missouri,169,Not Named,No Notes,39.413333,-94.897778,1926
Brookfield,Missouri,172,Not Named,No Notes,39.783056,-93.073889,1926
George Washington,Missouri,173,Not Named,No Notes,38.6487895,-90.3107962,1926
Buchanan County,Missouri,190,Not Named,No Notes,39.6349791,-94.8105955,1931
St. Louis,Missouri,191,North Side Klan,No Notes,38.6270025,-90.1994042,1931
Joplin,Missouri,3,Ozark Klan,"Had members in Joplin, Webb City, Orongo, Alba, Neck City, Purcell, Carl Junction, Waco, Asbury, and rural territory contiguous thereto, save for Carthage.",37.084167,-94.513056,1923
Carterville,Missouri,14,Nathan Hale Klan,No Notes,37.149444,-94.440278,1923
St. Louis,Missouri,152,Not Named,No Notes,38.627222,-90.197778,1926
Havre,Montana,1,Hill County Klan,No Notes,48.549999,-109.6840887,1922
Laurel,Montana,2,Not Named,No Notes,45.6691159,-108.7715328,1923
Glasgow,Montana,5,Valley County Klan,No Notes,48.1969637,-106.6367127,1922
Billings,Montana,6,Not Named,No Notes,45.7832856,-108.5006904,1923
Lewiston,Montana,8,Not Named,No Notes,47.0624732,-109.428238,1923
Livingston,Montana,9,Not Named,No Notes,45.6614105,-110.5599556,1924
Bozeman,Montana,10,Kascade County Klan,No Notes,45.6769979,-111.0429339,1923
Polson,Montana,13,Lake City Klan,No Notes,47.6932004,-114.1631275,1924
Red Lodge,Montana,14,Red Lodge Klan,No Notes,45.1857782,-109.2468211,1923
Round Up,Montana,18,Not Named,No Notes,46.445242,-108.5417999,1923
Great Falls,Montana,19,Kascade County Klan,No Notes,47.4941836,-111.2833449,1923
Miles City,Montana,21,Not Named,No Notes,46.4083362,-105.8405582,1926
Carbon County,Montana,23,Not Named,Karbon Ko[unty?] Klan,45.23,-109.02,1924
Superior,Montana,28,Not Named,No Notes,47.1915937,-114.8917978,1924
Harlowton,Montana,29,Wheatland Klan,No Notes,46.435512,-109.8343499,1923
Butte,Montana,30,Kontinental Klan,No Notes,46.0038232,-112.5347776,1922
Omaha,Nebraska,1,Not Named,,41.2523634,-95.9979883,1931
Lincoln,Nebraska,11,Not Named,No Notes,40.8257625,-96.6851982,1923
Nebraska City,Nebraska,12,Not Named,No Notes,40.6765745,-95.8593616,1931
Kearney,Nebraska,13,Buffalo Klan,No Notes,40.6993303,-99.0816784,1923
Edgar,Nebraska,17,Not Named,No Notes,40.3722317,-97.9714319,1930
Litchfield,Nebraska,35,Not Named,No Notes,41.1564497,-99.1535342,1926
Scotts Bluff,Nebraska,36,Not Named,No Notes,41.8140936,-103.6362715,1927
Fairbury,Nebraska,53,Jefferson Klan,No Notes,40.1466169,-97.1798456,1928
Chaldron,Nebraska,60,Not Named,AKA Chadron,42.8294187,-102.9999069,1926
Albany,Nebraska,62,Not Named,No Notes,40.306623,-99.4783816,1926
York County,Nebraska,76,Not Named,No Notes,40.7941448,-97.5247243,1926
Benkelman,Nebraska,83,Not Named,No Notes,40.047217,-101.5332221,1929
Ulysses,Nebraska,88,Butler County,No Notes,41.0719562,-97.201984,1931
Central City,Nebraska,90,Not Named,No Notes,41.1158476,-98.0017248,1930
Hay Springs,Nebraska,97,Not Named,No Notes,42.6838618,-102.6899007,1928
Trenton,Nebraska,102,Not Named,No Notes,40.1747708,-101.0129668,1932
Wood River,Nebraska,112,Cedardale Klan,active throughout Hall County,40.820569,-98.6000704,1927
Fremont,Nebraska,118,Not Named,No Notes,41.4333909,-96.4981467,1926
Grand Island,Nebraska,135,Not Named,No Notes,40.9263957,-98.3420118,1931
Chadron,Nebraska,475,Not Named,No Notes,42.8294187,-102.9999069,1928
McCook,Nebraska,67,Not Named,No Notes,40.205278,-100.626111,1925
Minden,Nebraska,109,Not Named,"The Omaha Bee has a story and pictures of a Klan initiation in Lincoln. ""Utmost secrecy has surrounded the activities of 22 Klan organizers who have been working in Nebraska since May 18..""",40.498056,-98.951111,1921
Las Vegas,Nevada,2,Klark Kounty Klan,No Notes,36.1699412,-115.1398296,1926
Portsmouth,New Hampshire,1,Not Named,first to get a charter,43.0717552,-70.7625532,1926
Androscoggin Valley,New Hampshire,4,Androscoggin Valley Klan,"chartered Oct 16, 1928",44.4780046,-71.1708214,1931
Whitefield,New Hampshire,7,Johns River Klan,No Notes,44.3731103,-71.6101011,1931
Mt. Forest,New Hampshire,10,Not Named,No Notes,44.4711694,-71.2009102,1931
Hampton,New Hampshire,2,Not Named,No Notes,42.9375,-70.838889,1925
Portsmouth,New Hampshire,2,Not Named,No Notes,43.075556,-70.760556,1925
Portsmouth,New Hampshire,4,Not Named,No Notes,43.075556,-70.760556,1925
Hoboken,New Jersey,1,Not Named,No Notes,40.7439905,-74.0323626,1922
Paterson,New Jersey,1,Leif Erickson Klan,No Notes,40.9167654,-74.171811,1931
Rutherford,New Jersey,2,Albert Pike Klan,No Notes,40.826489,-74.1068091,1926
Newark,New Jersey,3,George Washington Klan,"Circa 1922, district kleagle says of the Klan, 'Its membership is now two millions. We have just passed the fifteen hundred mark in this local Klan. That is the minimum for a charter.'",40.735657,-74.1723667,1923
Bloomfield,New Jersey,4,Not Named,No Notes,40.8067546,-74.1854209,1930
Orange,New Jersey,5,Not Named,No Notes,40.7706187,-74.2326478,1932
Lakewood,New Jersey,6,Not Named,No Notes,40.082129,-74.2097014,1931
Asbury Park,New Jersey,7,Not Named,No Notes,40.2203907,-74.0120817,1931
Red Bank,New Jersey,10,Not Named,"Lester T. Mount, EC",40.3470543,-74.0643065,1931
Elizabeth,New Jersey,11,Betsy Ross Klan,"Sometimes reported as located in PA, but NJ seems more likely",40.6639916,-74.2107006,1923
Wildwood,New Jersey,11,Theodore Roosevelt Klan,No Notes,38.9917797,-74.8148894,1926
Rio Grande,New Jersey,11,Theodore Roosevelt Klan,No Notes,39.0145573,-74.8815594,1926
Bridgeton,New Jersey,16,Arden M. Ellis Klan,chartered in 1926,39.427337,-75.2340768,1926
Trenton,New Jersey,17,Not Named,No Notes,40.2170534,-74.7429384,1930
Clark Township,New Jersey,17,Unity Klan,No Notes,40.6278031,-74.3127631,1931
Palermo,New Jersey,19,Ocean City Klan,No Notes,39.2401149,-74.6723822,1928
Elizabeth,New Jersey,22,Not Named,No Notes,40.6639916,-74.2107006,1929
Kenilworth,New Jersey,22,Not Named,No Notes,40.6764911,-74.2907032,1930
Morristown,New Jersey,23,Not Named,No Notes,40.7967667,-74.4815438,1931
Port Elizabeth,New Jersey,24,Francis E. Stever Klan,No Notes,39.3134481,-74.9810079,1929
Millville,New Jersey,24,Not Named,No Notes,39.4020596,-75.0393438,1934
Margate City,New Jersey,32,Atlantic City Klan,No Notes,39.327894,-74.5034858,1928
Egg Harbor,New Jersey,34,A. A. Andridge Klan,No Notes,39.3822537,-74.6166192,1926
Pleasantville,New Jersey,37,Not Named,active also in Bargaintown and Pleasantville,39.3898388,-74.5240422,1929
Salem,New Jersey,38,Not Named,No Notes,39.5717796,-75.4671423,1931
Plainfield,New Jersey,40,Not Named,No Notes,40.6337136,-74.4073736,1926
Scotch Plains,New Jersey,40,Not Named,No Notes,40.6400404,-74.369018,1934
New Brunswick,New Jersey,44,Rutgers Klan,No Notes,40.4862157,-74.4518188,1931
New Egypt,New Jersey,45,Edgewood Klan,No Notes,40.0676135,-74.5307093,1927
South Amboy,New Jersey,47,Anchor Klan,No Notes,40.4778838,-74.290702,1931
Tuckerton,New Jersey,49,Tuckerton Klan,No Notes,39.603174,-74.340145,1931
Waretown,New Jersey,50,Not Named,No Notes,39.7915084,-74.1951395,1927
Perth Amboy,New Jersey,55,Stone Mountain Klan,No Notes,40.5067723,-74.2654234,1926
Springdale,New Jersey,60,Not Named,active in Trenton,39.8934965,-74.9880895,1931
Mountainside,New Jersey,63,Mountainside Klan,No Notes,40.6723242,-74.3573722,1932
Hightstown,New Jersey,66,Not Named,No Notes,40.2695538,-74.5232089,1926
Camden,New Jersey,67,Not Named,No Notes,39.9259463,-75.1196199,1930
Camden,New Jersey,68,Richard D. Early Klan,No Notes,39.9259463,-75.1196199,1931
Merchanville,New Jersey,69,Not Named,No Notes,39.9503838,-75.0479726,1926
Hackensack,New Jersey,70,Hiram Evans Klan,AKA the H. W. Evans Klan,40.8859325,-74.0434736,1926
Ridgewood,New Jersey,72,Not Named,No Notes,40.9792645,-74.1165313,1929
Burlington County,New Jersey,77,Progressive Heights Klan,No Notes,39.8558488,-74.6868815,1926
Lumberton,New Jersey,77,Mt. Holly Klan,Loyal Body Klan,39.9676482,-74.8003877,1932
Ridgewood,New Jersey,82,Not Named,No Notes,40.9792645,-74.1165313,1932
Jersey City,New Jersey,83,Not Named,No Notes,40.7281575,-74.0776417,1931
Union City,New Jersey,84,Not Named,No Notes,40.6975898,-74.2631635,1928
Atlantic City,New Jersey,86,Neptune Klan,No Notes,39.3642834,-74.4229266,1931
Albuquerque,New Mexico,7,Rio Grande Klan,No Notes,35.0853336,-106.6055534,1924
Roswell,New Mexico,15,Pioneer Klan,Conflicting reports in Kourier Magainze -- in separate issues states it was chartered 1924 and that Kludd joined the klavern in 1921,33.3942655,-104.5230242,1924
Roosevelt,New York,0,Not Named,No Notes,40.678713,-73.5890168,1935
Brooklyn,New York,1,Not Named,No Notes,40.6781784,-73.9441579,1921
New York City,New York,1,Albert Pike Klan,No Notes,40.7127837,-74.0059413,1932
Brooklyn,New York,2,Not Named,No Notes,40.6781784,-73.9441579,1923
Grand Island,New York,3,Grand Island Klan,No Notes,43.0216283,-78.9657302,1924
Jamaica,New York,5,Not Named,No Notes,40.699683,-73.807903,1923
Northport,New York,6,Not Named,No Notes,40.9009313,-73.3431727,1925
Lynbook,New York,8,Lynbrook Klan,No Notes,40.6548253,-73.6717969,1931
Valley Stream,New York,9,"L. I., Pioneer Klan",No Notes,40.6642699,-73.7084645,1932
Roosevelt,New York,11,Theodore Roosevelt Klan,No Notes,40.678713,-73.5890168,1931
Deposit,New York,12,Broome County,No Notes,42.0600834,-75.4276769,1931
Millport,New York,14,Not Named,Operating since 1924,42.2653526,-76.8346791,1931
Onondaga,New York,16,Not Named,No Notes,42.978056,-76.198333,1930
Hancock,New York,17,Not Named,No Notes,41.954722,-75.283333,1931
Horsehead,New York,19,Newton Klan,Also operated in and around Chemung County,42.166389,-76.8275,1928
Binghampton,New York,20,Not Named,No Notes,42.0986867,-75.9179738,1924
Harpursville,New York,21,Broome County Klan,No Notes,42.1784124,-75.6246297,1931
Orange County,New York,22,Not Named,Also operated in Port Jervis,41.3911653,-74.3118212,1931
Elmira,New York,23,Not Named,No Notes,42.0897965,-76.8077338,1927
Port Jefferson,New York,25,Suwasset Klan,No Notes,40.9464875,-73.0692732,1932
Huntington,New York,28,Not Named,No Notes,40.8681539,-73.425676,1935
Patchogue,New York,30,Trinity Klan,No Notes,40.7659783,-73.019343,1926
Smithtown,New York,33,Nissequoque Klan,No Notes,40.8559314,-73.2006687,1926
Endicott,New York,34,Broome County,No Notes,42.098408,-76.0493684,1931
Far Rockaway,New York,35,Not Named,"AKA Inwood, Long Island, Rockaway Klan",40.60913,-73.75054,1929
Flushing,New York,36,Not Named,"Chartered on March 10th, 1926",40.7674987,-73.833079,1931
Niagara Falls,New York,37,Not Named,No Notes,43.0962143,-79.0377388,1932
Williamsburg,New York,37,Williamsburg Klan,active by 1932,40.7081156,-73.9570696,1932
Jamaica,New York,38,Major Emmett D. Smith Klan,No Notes,40.699683,-73.807903,1927
Staten Island,New York,39,Not Named,No Notes,40.5795317,-74.1502007,1932
Queens,New York,40,Not Named,Concentrated in the Flushing neighborhood,40.7282239,-73.7948516,1931
Jamaica,New York,41,Not Named,No Notes,40.699683,-73.807903,1931
Queens County,New York,41,Not Named,No Notes,40.7282239,-73.7948516,1932
Newark Valley,New York,42,Not Named,No Notes,42.2236853,-76.183263,1931
Amityville,New York,43,Nathan Hale Klan,No Notes,40.6789893,-73.4170673,1931
Binghamton,New York,45,Broome County,"Consolidated with 242, Binghamton",42.0986867,-75.9179738,1931
Peekskill,New York,46,Lincoln Klan,No Notes,41.2900939,-73.9204158,1932
Hempstead,New York,47,Unity Klan,No Notes,40.7062128,-73.6187397,1929
Jamesburg,New York,48,Rader Klan,No Notes,42.153333,-79.257778,1927
Poughkeepsie,New York,48,Not Named,No Notes,41.7003713,-73.9209701,1927
Chatham,New York,50,Not Named,No Notes,42.3642516,-73.5948391,1928
Auburn,New York,58,Not Named,No Notes,42.9317335,-76.5660529,1929
Hornell,New York,63,Steuben County,No Notes,42.3278477,-77.6611025,1931
Corning,New York,64,Steuben County,No Notes,42.1428521,-77.0546903,1930
Bath,New York,65,Steuben County,No Notes,42.3370164,-77.3177577,1931
Canisteo,New York,68,Purdy Klan,No Notes,42.2703487,-77.6058225,1928
Beacon,New York,69,Not Named,chartered,41.5048158,-73.9695832,1927
Midland,New York,72,Ridgewood Klan,No Notes,40.5763116,-74.1003384,1930
Oneonta,New York,73,Not Named,Reorganized in 1935,42.455833,0,1935
Smithtown,New York,76,Not Named,No Notes,40.862778,-73.215278,1925
Clarence,New York,76,Akron Klan,No Notes,42.977012,-78.592015,1931
Glendale-Ridgewood,New York,78,Not Named,No Notes,40.698439,0,1931
Albany,New York,79,Not Named,No Notes,42.6525793,-73.7562317,1931
Richmond Hill,New York,83,Not Named,No Notes,40.6958108,-73.8272029,1928
Schenectady,New York,84,Electric City Klan,No Notes,42.8142432,-73.9395687,1931
Wanakena,New York,86,Not Named,No Notes,44.1339512,-74.9210219,1932
Rawling,New York,87,Harlem Valley Klan,No Notes,42.9178401,-73.3980209,1931
Rochester,New York,87,Lindbergh Klan,No Notes,43.16103,-77.6109219,1932
Auburn,New York,88,Not Named,No Notes,42.9317335,-76.5660529,1929
Fair Haven,New York,93,Sterling Klan,No Notes,43.3164558,-76.7021747,1927
Madison County,New York,97,Madison County,"Stop, Look, and Listen Klan",42.9805975,-75.8069082,1929
Cameron,New York,98,Steuben County,No Notes,42.199167,-77.406389,1931
Nelson,New York,99,Cazenovia Klan,AKA The Kazenovia Klan,42.917222,-75.776944,1929
Monroe,New York,100,Not Named,No Notes,41.330794,-74.187597,1932
Sherill,New York,101,Oneida Klan,No Notes,43.070833,-75.599167,1929
Schenectady,New York,102,U. S. Grant Klan,No Notes,42.8142432,-73.9395687,1931
De Ruyter,New York,105,Not Named,No Notes,42.7584005,-75.8843616,1929
Madison County,New York,106,United Klan,No Notes,42.9805975,-75.8069082,1929
Oswego County,New York,109,Not Named,No Notes,43.482533,-76.1783739,1928
Buffalo,New York,113,Allegiance Klan,No Notes,42.8864468,-78.8783689,1931
Maspeth,New York,116,Not Named,Said to be about 9 years old in 1933,40.7294018,-73.9065883,1928
Syracuse,New York,120,Not Named,No Notes,43.0481221,-76.1474244,1930
Oneonta,New York,121,Not Named,No Notes,42.4528571,-75.0637746,1926
Fulton,New York,125,Not Named,Also mentioned as klavern 121,43.3228462,-76.4171585,1931
Greigsville,New York,126,Glenfield Klan,No Notes,42.83056,-77.89722,1931
Hamilton,New York,127,Not Named,No Notes,42.8270136,-75.5446238,1929
Lockport,New York,134,Not Named,No Notes,43.1706128,-78.6903098,1925
Wawarsing,New York,142,Kerhoulsson Klan,No Notes,41.7588883,-74.3573343,1930
Buffalo,New York,145,Austin Klan,No Notes,42.8864468,-78.8783689,1932
Middletown,New York,147,Not Named,No Notes,41.4459271,-74.4229341,1931
Seneca Falls,New York,149,Seneca Klan,Also operated out of Waterloo,42.9106219,-76.7966215,1928
Yonkers,New York,150,Charles Lindbergh Klan,No Notes,40.9312099,-73.8987469,1932
Delanson,New York,152,Fellowship Klan,No Notes,42.7453531,-74.1881834,1930
Glenn Falls,New York,153,Mohican Klan,No Notes,43.3095164,-73.6440058,1934
Buffalo,New York,154,Not Named,No Notes,42.8864468,-78.8783689,1926
Westchester,New York,160,Washington Irving Klan,Also operated out of Ossining and College Point,41.1220194,-73.7948516,1932
Carthage,New York,162,Four Square Klan,No Notes,43.981111,-75.606944,1929
Watertown,New York,163,Thomas Jefferson Klan,No Notes,43.975556,-75.906389,1931
Rochester,New York,172,Criterion Klan,Also operated out of Fairport,43.165556,-77.611389,1929
Falconer,New York,174,Not Named,No Notes,42.1186695,-79.1983799,1928
Salem,New York,176,Not Named,No Notes,43.1722983,-73.3276101,1931
Springfield Gardens,New York,177,Steadfast Klan,Also operated out of Queens,40.6626441,-73.7683784,1929
Ilion,New York,179,Not Named,No Notes,43.016667,-75.05,1929
Newburgh,New York,185,George Washington Klan,Also operated out of Cornwall-on-Hudson,41.5034271,-74.0104178,1928
Haverstraw,New York,191,Not Named,No Notes,41.1975947,-73.9645837,1931
Rochester,New York,192,Rochester Klan,No Notes,43.16103,-77.6109219,1932
Pearl River,New York,193,Not Named,No Notes,41.0589855,-74.0218063,1933
New Rochelle,New York,195,Huguenot Klan,Reorganized in 1934,40.9114882,-73.7823549,1934
Beacon,New York,202,Not Named,No Notes,41.5048158,-73.9695832,1926
Port Chester,New York,203,Victory Klan,No Notes,41.0017643,-73.6656834,1932
Oswego,New York,206,Never Fail Klan,Township also spelled Oswego in some records,43.4553461,-76.5104973,1931
Ogdensburg,New York,207,Not Named,No Notes,44.6942291,-75.4863364,1929
Potsdam,New York,208,Not Named,No Notes,44.6697805,-74.9813084,1929
Messena,New York,212,Power City Klan,"Described as ""newly reorganized"" in 1931",44.9281049,-74.891865,1931
Rossie,New York,214,Brasie Corners Klan,"AKA the Macomb Klan. Described as ""recently reorganized"" in 1931.",44.3786699,-75.6549495,1929
Mannsville,New York,215,Adams Klan,No Notes,43.7128457,-76.0627006,1929
Bloomingdale,New York,224,Saranac Lake Klan,No Notes,44.4078279,-74.0870965,1931
Selkirk,New York,229,Capt. Andrew Hannay Klan,Chartered 21 July 28,42.5319998,-73.7985008,1931
Jay,New York,230,Lake Placid Klan,No Notes,44.3750471,-73.728195,1930
Oswegatchie,New York,231,Not Named,No Notes,44.1828405,-75.070196,1931
Mt. Vernon,New York,234,Not Named,Operated throughout Westchester County,40.9125992,-73.8370786,1933
Johnson City,New York,242,Broome County,kept name and number,42.116667,-75.959444,1931
Ilion,New York,246,Mohawk Valley Klan,No Notes,43.016667,-75.05,1931
Long Island City,New York,247,Long Island City Klan,No Notes,40.751,-73.941,1930
Bayshore,New York,248,Not Named,No Notes,40.8471019,-73.8163834,1931
Oyster Bay,New York,250,Not Named,No Notes,40.8656543,-73.5320685,1934
Cortland,New York,252,Kortland Kounty Klan,No Notes,42.6011813,-76.1804843,1933
Carthage,New York,253,Four Square Klan,No Notes,43.981111,-75.606944,1931
Queens County,New York,254,Lincoln Klan,Newly chartered in 1931,40.7282239,-73.7948516,1931
Ridgewood,New York,254,Not Named,No Notes,40.7108476,-73.8977693,1932
Westchester County,New York,255,Not Named,No Notes,41.1220194,-73.7948516,1934
South Ozone Park,New York,256,Not Named,", chartered 9 Mar 32",40.6764003,-73.8124984,1932
Rochester,New York,392,Monroe Klan,No Notes,43.16103,-77.6109219,1932
Glens Falls,New York,423,Not Named,No Notes,43.3095164,-73.6440058,1928
Delmar,New York,473,Not Named,No Notes,42.618056,-73.836667,1928
Raleigh,North Carolina,1,Not Named,No Notes,35.7795897,-78.6381787,1924
Durham,North Carolina,4,Not Named,No Notes,35.9940329,-78.898619,1923
Wilmington,North Carolina,5,Not Named,No Notes,34.2257255,-77.9447102,1923
New Bern,North Carolina,13,Craven County Klan,No Notes,35.108493,-77.0441143,1929
Lexington,North Carolina,25,Not Named,No Notes,35.8240265,-80.2533838,1923
Salisbury,North Carolina,30,Not Named,No Notes,35.6709727,-80.4742261,1924
Charlotte,North Carolina,35,Not Named,No Notes,35.2270869,-80.8431267,1922
Wallace,North Carolina,38,Wallace Klan,No Notes,34.737222,-77.994722,1923
Asheville,North Carolina,40,Not Named,No Notes,35.5950581,-82.5514869,1924
Kenansville,North Carolina,46,Not Named,No Notes,34.9623883,-77.9622069,1922
Henderson,North Carolina,55,Not Named,No Notes,36.3295905,-78.3991638,1927
Spencer,North Carolina,57,Not Named,No Notes,35.6923614,-80.43478,1927
Hickory,North Carolina,58,Old Hickory Klan,No Notes,35.7344538,-81.3444573,1931
Calypso,North Carolina,73,Goshen Klan,No Notes,35.153776,-78.105269,1927
Forest City,North Carolina,93,Not Named,No Notes,35.3340108,-81.8651028,1927
Durham,North Carolina,95,Not Named,No Notes,35.9940329,-78.898619,1925
Dunn,North Carolina,98,Not Named,No Notes,35.3062743,-78.6089028,1925
Wilson,North Carolina,101,Not Named,No Notes,35.7212689,-77.9155395,1927
Atkinson,North Carolina,110,Not Named,No Notes,34.5285008,-78.171107,1931
Rocky Mount,North Carolina,113,Not Named,No Notes,35.9382103,-77.7905339,1931
Sanford,North Carolina,141,Not Named,No Notes,35.4798757,-79.1802994,1927
Hertford,North Carolina,137,Not Named,No Notes,36.1901579,-76.4660519,1926
Buncombe,North Carolina,151,Kounty Klan,No Notes,35.5931377,-82.4752757,1926
High Point,North Carolina,163,Not Named,No Notes,35.9556923,-80.0053176,1930
Grand Forks,North Dakota,1,Not Named,No Notes,47.9252568,-97.0328547,1923
Larimore,North Dakota,2,Not Named,No Notes,47.9066569,-97.6267539,1923
Fargo,North Dakota,5,Kass Kounty Klan,No Notes,46.8771863,-96.7898034,1927
Bismark,North Dakota,48,Not Named,No Notes,46.8083268,-100.7837392,1929
Valley City,North Dakota,49,Not Named,No Notes,46.9233129,-98.0031547,1931
Fargo,North Dakota,57,Kass County Klan,No Notes,46.8771863,-96.7898034,1928
Columbus,Ohio,1,Not Named,No Notes,39.9611755,-82.9987942,1923
Cincinnati,Ohio,1,Walnut Hill Klan,No Notes,39.1031182,-84.5120196,1923
Locklan,Ohio,2,Valley Klan,Also operated out of the Cincinnati area,39.2292249,-84.4577201,1923
Columbus,Ohio,8,Buckeye Klan,No Notes,39.9611755,-82.9987942,1923
Cincinnati,Ohio,9,Not Named,No Notes,39.1031182,-84.5120196,1923
Zanesville,Ohio,11,Not Named,No Notes,39.9403453,-82.0131924,1926
Blanchester,Ohio,13,Clinton County,No Notes,39.2931174,-83.9888205,1924
Lawrence County,Ohio,14,Lawrence Kounty Klan,Reported to have received its charter in 1924,38.6232686,-82.5185837,1924
Cambridge,Ohio,16,Guernsey County,No Notes,40.031183,-81.5884561,1931
Wyandotte County,Ohio,22,Wyandotte County Klan,No Notes,40.883335,-83.31472,1924
Dayton,Ohio,23,Montgomery County Klan,No Notes,39.7589478,-84.1916069,1923
Summit County,Ohio,24,Not Named,No Notes,41.0918991,-81.5596427,1925
Akron,Ohio,27,Summit County Klan,No Notes,41.0814447,-81.5190053,1931
Crawford County,Ohio,28,Not Named,No Notes,40.8268068,-82.9931607,1931
Franklin County,Ohio,29,Not Named,Operated out of Columbus and Franklin County,40.0154745,-82.9931607,1931
Salinesville,Ohio,32,Columbiana County Klan,No Notes,40.6225623,-80.8378609,1923
Licking County,Ohio,33,Not Named,"Operated out of Newark, OH as well",40.1460895,-82.4752757,1931
Ashland,Ohio,36,Not Named,No Notes,40.8686675,-82.3182178,1926
Smithfield,Ohio,38,Jefferson County,No Notes,40.2709027,-80.7814725,1925
Tuscarawas County,Ohio,41,Not Named,"Operated out New Philadelphia, OH as well",40.3978972,-81.4278984,1924
Newark,Ohio,33,Not Named,No Notes,40.0581205,-82.4012642,1929
Wayne County,Ohio,43,Not Named,"Operated out of Wooster, OH",40.7588598,-81.9534815,1931
Lake County,Ohio,48,Not Named,No Notes,41.7112668,-81.2455855,1924
Marion,Ohio,53,Not Named,No Notes,40.5886699,-83.1285242,1924
Lima,Ohio,55,Allen County Klan,No Notes,40.742551,-84.1052256,1927
Middleport,Ohio,57,Meigs County Klan,No Notes,39.0017452,-82.0487525,1927
Springfield,Ohio,59,Clark County Klan,No Notes,39.9242266,-83.8088171,1931
Canton,Ohio,62,William McKinley Klan,No Notes,40.7989473,-81.378447,1926
Miami County,Ohio,63,Not Named,No Notes,40.081473,-84.1857115,1925
Geneva Unit,Ohio,69,Ashtabula Klan,No Notes,40.4172871,-82.907123,1925
Trumbull County,Ohio,70,Not Named,No Notes,41.3064984,-80.7214417,1923
Hubbard,Ohio,70,Montgomery County Klan,No Notes,41.1564463,-80.569239,1924
Mercer County,Ohio,74,Not Named,No Notes,40.5940548,-84.6897495,1924
Mansfield,Ohio,75,Not Named,Operated throughout Richland County,40.75839,-82.5154471,1929
Mansfield,Ohio,76,Richland County,No Notes,40.75839,-82.5154471,1927
Fayette County,Ohio,77,Not Named,No Notes,39.57,-83.42083,1924
Martin's Ferry,Ohio,79,Kaplina Klan,No Notes,40.0959055,-80.724526,1924
Ross County,Ohio,91,Not Named,No Notes,39.3294895,-83.0595423,1924
Lorain,Ohio,92,Lorain County Klan,No Notes,41.452819,-82.1823746,1931
Massillon,Ohio,95,Not Named,No Notes,40.7967244,-81.5215093,1932
Toledo,Ohio,96,Lucas County,Replaced by chapter 206,41.6639383,-83.555212,1928
Hancock County,Ohio,98,Not Named,No Notes,41.0273131,-83.6773928,1931
Clinton,Ohio,100,Klinton Klan,No Notes,40.9267224,-81.6304022,1924
Bowling Green,Ohio,107,Wood County,No Notes,41.3747744,-83.6513229,1925
Fremont,Ohio,109,Sandusky County,No Notes,41.3503303,-83.1218634,1932
Crooksville,Ohio,115,Perry County Klan,No Notes,39.7689572,-82.0920868,1931
Orrville,Ohio,119,Not Named,No Notes,40.8436663,-81.7640212,1924
Cincinnati,Ohio,120,Fairmont Klan,No Notes,39.1031182,-84.5120196,1926
Cincinnati,Ohio,120,Central Klan,No Notes,39.1031182,-84.5120196,1925
Linwood,Ohio,123,Not Named,Operated in Cincinnati. Was also known as the Linwood Klan,39.1208321,-84.4133272,1927
Norwood,Ohio,126,Not Named,No Notes,39.1644798,-84.4542798,1931
Hamilton County,Ohio,127,Sycamore Symmes Klan,Klavern name taken from two townships in the county,39.2355447,-84.564147,1926
Sebring,Ohio,130,Osborne Klan,No Notes,40.9228363,-81.0189816,1925
Lake County,Ohio,134,Garfield Klan,No Notes,41.7112668,-81.2455855,1930
Fostoria,Ohio,135,Not Named,No Notes,41.156998,-83.4168702,1931
Champion,Ohio,136,Trumbull County,No Notes,41.3000564,-80.8498076,1930
Minerva,Ohio,141,Tri-County Klan,Supposedly chartered only a short time before March 1926,40.7297816,-81.1053764,1926
Hillsboro,Ohio,142,Highland Klan,Operated out of Hillsboro,39.205833,-83.613889,1930
Cuyahoga County,Ohio,143,Cuyahoga County Klan,Operated in Cleveland as well,41.433923,-81.67582,1931
Conneaut,Ohio,144,Weygandt Klan,No Notes,41.9475551,-80.5542409,1926
Cleveland,Ohio,148,Cuyahoga Falls Klan,Reorganized in early 1924,41.49932,-81.6943605,1926
East Liverpool,Ohio,156,Not Named,No Notes,40.6186756,-80.5772928,1926
Salem,Ohio,163,Not Named,No Notes,40.9008923,-80.8567501,1926
Hamilton,Ohio,167,Fort Hamilton Klan,No Notes,39.3995008,-84.5613355,1931
Middletown,Ohio,168,Not Named,No Notes,39.5150576,-84.3982763,1932
Youngstown,Ohio,173,Not Named,No Notes,41.0997803,-80.6495194,1931
Toledo,Ohio,174,Commander Perry Klan,No Notes,41.6639383,-83.555212,1926
Bellaire,Ohio,183,Captina Klan,No Notes,40.0161843,-80.7423054,1930
Warren,Ohio,186,Trumbull County Klan,"Also operated in East Liverpool, OH",41.2375569,-80.8184166,1929
Nelsonville,Ohio,187,Not Named,No Notes,39.458681,-82.2318156,1931
Barberton,Ohio,191,Not Named,No Notes,41.012833,-81.6051221,1931
Niles,Ohio,194,Not Named,No Notes,41.1828353,-80.765358,1931
Dayton,Ohio,195,Montgomery County Klan,No Notes,39.7589478,-84.1916069,1931
Lewisburg,Ohio,195,Not Named,No Notes,39.8461629,-84.5396736,1932
Garfield Heights,Ohio,203,Not Named,Operated in Cleveland,41.4169974,-81.6059581,1931
West Alexandria,Ohio,205,Twin Valley Klan,No Notes,39.7444973,-84.5321727,1929
Toledo,Ohio,206,Lucas County,"Gets charter, replacing klavern number 96 located in Lucas County.",41.6639383,-83.555212,1928
Cincinnati,Ohio,211,Northwestern Klan,No Notes,39.1031182,-84.5120196,1931
Canton,Ohio,212,Not Named,No Notes,40.7989473,-81.378447,1931
Toledo,Ohio,214,Ft. Meigs Klan,No Notes,41.6639383,-83.555212,1929
Cleveland,Ohio,216,Northeast Klan,"Chartered three years ago according to sources, circa 1931. Operated in Chagrin Falls.",41.49932,-81.6943605,1930
Dayton,Ohio,218,Air City Klan,"Referred to as the ""baby klan""",39.7589478,-84.1916069,1930
Brookfield,Ohio,220,Wheeler Klan,"Named for Wayne B. Wheeler, of the Anti-Saloon League, and charted on 6 February 1931",41.2406117,-80.5578504,1931
Cleveland,Ohio,221,Thomas Heflin Klan,No Notes,41.49932,-81.6943605,1931
London,Ohio,222,Madison County Klan,"Chartered September 13, 1931",39.8864493,-83.4482529,1931
Springfield,Ohio,223,Tecumseh Klan,No Notes,39.9242266,-83.8088171,1932
Cleveland,Ohio,226,Not Named,No Notes,41.49932,-81.6943605,1935
Logan,Ohio,35,Hocking County Klan,No Notes,39.539167,-82.406111,1925
Meigs County,Ohio,57,Not Named,No Notes,39.08,-82.02,1923
Athens,Ohio,60,Athens County Klan,No Notes,39.329167,-82.096111,1925
East Liverpool,Ohio,71,Columbiana County Klan,No Notes,40.6186756,-80.5772928,1925
Alliance,Ohio,87,Stark County Klan,No Notes,40.913333,-81.108056,1925
Portsmouth,Ohio,145,Peerless City Klan,No Notes,38.743056,-82.965556,1926
Scioto County,Ohio,190,Not Named,No Notes,38.81,-82.99,1926
Oklahoma City,Oklahoma,1,Not Named,No Notes,35.4675602,-97.5164276,1922
Tulsa,Oklahoma,2,Not Named,No Notes,36.1539816,-95.992775,1922
Muskogee,Oklahoma,3,Not Named,No Notes,35.7478769,-95.3696909,1921
Okmulgee,Oklahoma,4,Not Named,No Notes,35.6234367,-95.9605502,1922
El Reno,Oklahoma,4,Not Named,No Notes,35.5322741,-97.9550493,1922
Enid,Oklahoma,5,Not Named,No Notes,36.3955891,-97.8783911,1922
Drumright,Oklahoma,6,Not Named,No Notes,35.9884013,-96.6011294,1922
Avant,Oklahoma,7,Not Named,No Notes,36.4895323,-96.0622187,1922
Caney,Oklahoma,8,Not Named,No Notes,34.2323125,-96.2141563,1922
Morris,Oklahoma,9,Not Named,No Notes,35.6076028,-95.8602699,1922
Beggs,Oklahoma,11,Castile Klan,No Notes,35.7425976,-96.0702731,1921
Chickasha,Oklahoma,12,Not Named,No Notes,35.052565,-97.9364326,1922
Ponca City,Oklahoma,13,Not Named,No Notes,36.706981,-97.0855948,1923
McAlester,Oklahoma,14,Not Named,No Notes,34.9334298,-95.7697131,1922
El Reno,Oklahoma,15,Not Named,No Notes,35.5322741,-97.9550493,1926
Wilson,Oklahoma,18,Not Named,No Notes,34.1620385,-97.4258551,1921
Guthrie,Oklahoma,19,Not Named,No Notes,35.878937,-97.4253185,1921
Bartlesville,Oklahoma,20,Not Named,No Notes,36.7473114,-95.9808179,1922
Weleetka,Oklahoma,22,Running Water Klan,No Notes,35.3356496,-96.1363921,1922
Healdton,Oklahoma,23,Not Named,No Notes,34.2331475,-97.4878023,1922
Henryetta,Oklahoma,24,Not Named,No Notes,35.4398261,-95.9819429,1921
Ada,Oklahoma,27,Not Named,No Notes,34.774531,-96.6783449,1921
Dewey,Oklahoma,29,Not Named,No Notes,36.7959193,-95.9355387,1922
Garber,Oklahoma,30,Not Named,No Notes,36.4369786,-97.5856053,1923
Claremore,Oklahoma,34,Not Named,No Notes,36.3125963,-95.61609,1923
Skiatook,Oklahoma,35,Not Named,No Notes,36.3684245,-96.0013847,1922
Sulphur,Oklahoma,38,Not Named,No Notes,34.5078669,-96.9683498,1923
Roff,Oklahoma,39,George B. Kimbro Jr. Klan,No Notes,34.6275878,-96.8408469,1922
Hugo,Oklahoma,40,Not Named,No Notes,34.01066,-95.5096821,1922
Antlers,Oklahoma,41,Not Named,No Notes,34.231212,-95.6202476,1922
Durant,Oklahoma,42,Not Named,Also referred to as klavern number 41,33.9924186,-96.3971233,1921
Wagoner,Oklahoma,43,Not Named,No Notes,35.9595442,-95.3694116,1922
Blackwell,Oklahoma,44,Not Named,No Notes,36.8044767,-97.2828207,1922
Temple,Oklahoma,48,Not Named,No Notes,34.2720338,-98.235878,1924
Britton,Oklahoma,52,Not Named,No Notes,35.56305,-97.527432,1922
Nowata,Oklahoma,54,Nowata Klan,No Notes,36.700645,-95.6380341,1922
Chelsea,Oklahoma,55,Not Named,No Notes,36.535647,-95.432474,1922
Devol,Oklahoma,56,Not Named,No Notes,34.1959244,-98.5900596,1922
Seminole,Oklahoma,57,Not Named,No Notes,35.2245201,-96.670573,1922
Pawhuska,Oklahoma,60,Not Named,No Notes,36.6678426,-96.3372309,1922
Pryor,Oklahoma,63,Pryor Creek Klan,No Notes,36.3084275,-95.3169136,1922
Lawton,Oklahoma,64,Not Named,No Notes,34.6035669,-98.3959291,1922
Locust Grove,Oklahoma,65,Not Named,No Notes,36.2000936,-95.1677401,1922
Wapanucka,Oklahoma,66,Bromide Klan,No Notes,34.373981,-96.4244425,1922
Comanche,Oklahoma,72,Not Named,No Notes,34.3689747,-97.963924,1922
Cherokee,Oklahoma,73,Not Named,No Notes,36.7544746,-98.3567403,1923
Elmer,Oklahoma,75,Not Named,No Notes,34.4811873,-99.3509205,1922
Wynona,Oklahoma,78,Not Named,No Notes,36.5461806,-96.3272344,1923
Atoka,Oklahoma,80,Not Named,No Notes,34.3859257,-96.1283252,1922
Elk City,Oklahoma,82,Not Named,No Notes,35.4119944,-99.4042592,1924
Ramona,Oklahoma,83,Not Named,No Notes,36.5303696,-95.9235998,1922
Allen,Oklahoma,84,Not Named,No Notes,34.8789766,-96.4125075,1923
Yale,Oklahoma,85,Not Named,No Notes,36.1142305,-96.6991933,1922
Poteau,Oklahoma,88,Not Named,No Notes,35.0537094,-94.6235579,1922
Hollis,Oklahoma,92,Not Named,No Notes,34.6883948,-99.9120456,1922
Newkirk,Oklahoma,94,Not Named,No Notes,36.8822549,-97.0533717,1924
Cushing,Oklahoma,97,Not Named,No Notes,35.9850639,-96.76697,1924
Salpulpa,Oklahoma,100,Not Named,No Notes,35.9987007,-96.1141664,1924
Haileyville,Oklahoma,101,Hale-Hart Klan,No Notes,34.8545426,-95.5822044,1922
Muldrow,Oklahoma,101,Not Named,No Notes,35.4062034,-94.5988306,1922
Kaw City,Oklahoma,106,Kaw City Klan,No Notes,36.7668466,-96.8672668,1923
Broken Arrow,Oklahoma,107,Not Named,No Notes,36.060949,-95.7974526,1922
Jenks,Oklahoma,108,Not Named,No Notes,36.0228734,-95.9683278,1922
Idabel,Oklahoma,115,Not Named,No Notes,33.8956647,-94.8263281,1922
Spiro,Oklahoma,120,Not Named,No Notes,35.2412073,-94.619944,1923
Watonga,Oklahoma,128,Not Named,No Notes,35.8447654,-98.413128,1923
Kiefer,Oklahoma,129,Creek County Klan,No Notes,35.9448155,-96.065275,1931
Vinita,Oklahoma,130,Not Named,"Began ""nearly three years ago,"" according to the INH",36.6386937,-95.1541339,1923
Perry,Oklahoma,131,Not Named,No Notes,36.2894855,-97.2880983,1922
Boswell,Oklahoma,132,Not Named,No Notes,34.0273209,-95.8691422,1922
Bennington,Oklahoma,133,Not Named,No Notes,34.0045412,-96.0377597,1922
Portland,Oklahoma,137,Not Named,No Notes,34.7254556,-95.9128611,1930
Caddo,Oklahoma,138,Not Named,No Notes,34.1267595,-96.2633229,1922
Tonkawa,Oklahoma,140,Not Named,No Notes,36.6783679,-97.3100441,1923
Wakita,Oklahoma,143,Not Named,No Notes,36.8833603,-97.9220032,1926
Hobart,Oklahoma,146,Twin Elk Klan,No Notes,35.0295009,-99.0931317,1922
Quinton,Oklahoma,147,Not Named,No Notes,35.1228754,-95.3710855,1922
Heavener,Oklahoma,149,Not Named,No Notes,34.8955218,-94.6030084,1922
Grove,Oklahoma,156,Grove Klan,No Notes,36.5936863,-94.7691186,1923
Cleveland,Oklahoma,157,Not Named,No Notes,36.3100688,-96.4641886,1923
Mangum,Oklahoma,164,Not Named,No Notes,34.8720044,-99.5042561,1922
Coweta,Oklahoma,165,Not Named,No Notes,35.9517674,-95.650814,1923
Pawnee,Oklahoma,167,Not Named,No Notes,36.3378321,-96.8039232,1923
Minco,Oklahoma,177,Minco Klan,No Notes,35.3128371,-97.9444913,1923
Hennessey,Oklahoma,178,Not Named,No Notes,36.1092046,-97.8986675,1922
Chattanooga,Oklahoma,180,Not Named,No Notes,34.4228593,-98.6564522,1923
Britton,Oklahoma,188,Not Named,No Notes,35.56305,-97.527432,1923
Oilton,Oklahoma,191,Not Named,No Notes,36.0845119,-96.5836317,1922
Shamrock,Oklahoma,193,Not Named,No Notes,35.910069,-96.583905,1922
Kiowa,Oklahoma,197,Not Named,No Notes,34.7206515,-95.8991586,1923
Carnegie,Oklahoma,201,Not Named,"Operated in Bokchito, OK as well",35.1036699,-98.6036735,1923
Checotah,Oklahoma,203,Not Named,No Notes,35.4700993,-95.5230356,1923
Stillwater,Oklahoma,215,Not Named,No Notes,36.1156071,-97.0583681,1922
Ringling,Oklahoma,228,Not Named,No Notes,34.1784265,-97.5925265,1922
Camargo,Oklahoma,243,Not Named,No Notes,36.0172666,-99.2892719,1923
Billings,Oklahoma,248,Not Named,No Notes,36.5289239,-97.4439362,1923
Anadarko,Oklahoma,249,Not Named,No Notes,35.072562,-98.2436625,1924
Binger,Oklahoma,257,Not Named,No Notes,35.3089454,-98.3420014,1923
Ames,Oklahoma,265,Not Named,No Notes,36.2458685,-98.1853448,1926
Tuskahoma,Oklahoma,267,Not Named,No Notes,34.6178786,-95.2766344,1926
McCurtain,Oklahoma,274,Not Named,No Notes,35.1498196,-94.9707891,1923
Shidler,Oklahoma,280,Not Named,No Notes,36.7819849,-96.6611377,1925
Portland,Oregon,1,Luther Powell Klan,No Notes,45.5230622,-122.6764816,1923
Astoria,Oregon,2,Pacific Klan,No Notes,46.1878841,-123.8312534,1922
Pendleton,Oregon,4,Not Named,No Notes,45.672075,-118.7885967,1921
Roseburg,Oregon,5,Umpqua Klan,No Notes,43.216505,-123.3417381,1922
Tillamook,Oregon,8,Not Named,No Notes,45.4562158,-123.8440137,1922
Grants Pass,Oregon,9,Not Named,No Notes,42.438889,-123.328333,1931
Ashland,Oregon,10,Not Named,No Notes,42.191389,-122.700833,1924
Kent,Oregon,13,King County Klan,No Notes,45.1945544,-120.6922096,1931
La Grande,Oregon,14,Not Named,No Notes,45.3245771,-118.0877188,1923
Ranier,Oregon,15,Ranier Klan,No Notes,46.0890015,-122.9359439,1923
Mill City,Oregon,18,Not Named,No Notes,44.7540106,-122.4781385,1924
The Dalles,Oregon,19,Not Named,No Notes,45.5945645,-121.1786823,1923
Sherwood,Oregon,20,Not Named,No Notes,45.3565074,-122.840098,1923
Santiam,Oregon,22,Not Named,No Notes,44.7726951,-122.7060818,1923
Newberg,Oregon,24,Wallace Klan,No Notes,45.3001178,-122.9731565,1923
Riddle,Oregon,26,Not Named,No Notes,42.9509507,-123.3642332,1923
Veronia,Oregon,30,Not Named,No Notes,45.8587228,-123.1928926,1924
Wallowa County,Oregon,35,Wallowa County Klan,No Notes,45.592984,-116.9717994,1924
Scio,Oregon,38,Not Named,No Notes,44.7048445,-122.8492562,1924
Powers,Oregon,44,Green Mountain Klan,No Notes,42.8834435,-124.073152,1930
Freewater,Oregon,54,Not Named,No Notes,45.9762245,-118.4030196,1926
Cottage Grove,Oregon,55,Cottage Grove Klan,No Notes,43.797623,-123.0595246,1931
Portland,Oregon,57,Rose City Klan,No Notes,45.5230622,-122.6764816,1927
Eugene,Oregon,3,Not Named,No Notes,44.051944,-123.086667,1921
Pedro Miguel,Panama,1,Pacific Klan,Chartered in 1924,9.0186276,-79.612309,1931
Gatun,Panama,2,Atlantic Klan,Chartered in 1924 in Cristobal,9.266667,-79.916667,1931
York County,Pennsylvania,1,Red Lion Klan,No Notes,39.9512496,-76.7336521,1923
Homestead,Pennsylvania,1,Homestead Klan,No Notes,40.4059025,-79.9119948,1923
Wrightsville,Pennsylvania,1,Not Named,No Notes,40.0256531,-76.5299655,1923
Turtle Creek,Pennsylvania,1,Not Named,No Notes,40.4059022,-79.8250479,1923
Pittsburgh,Pennsylvania,1,Not Named,No Notes,40.4406248,-79.9958864,1923
Lancaster,Pennsylvania,1,Not Named,No Notes,40.0378755,-76.3055144,1923
Roscoe,Pennsylvania,1,Not Named,No Notes,40.0795178,-79.8656017,1923
Sharon,Pennsylvania,1,Not Named,No Notes,41.2331116,-80.4934035,1922
Reynoldsville,Pennsylvania,1,Not Named,No Notes,41.0970071,-78.8886436,1923
Sewickley,Pennsylvania,1,Not Named,No Notes,40.5364846,-80.1844243,1923
Millvale,Pennsylvania,1,Not Named,No Notes,40.480069,-79.9783862,1923
Harrisburg,Pennsylvania,1,Not Named,No Notes,40.2731911,-76.8867008,1923
Gettysburg,Pennsylvania,1,Not Named,No Notes,39.8309293,-77.2310955,1924
Burgettstown,Pennsylvania,1,Not Named,No Notes,40.3820132,-80.3928423,1924
South Fork,Pennsylvania,1,Not Named,No Notes,40.3672962,-78.7914107,1924
Nanty-Glo,Pennsylvania,1,Not Named,No Notes,40.4722936,-78.8333571,1924
Commodore,Pennsylvania,1,Not Named,No Notes,40.7131207,-78.9433646,1924
Philadelphia,Pennsylvania,1,Liberty Klan,No Notes,39.9525839,-75.1652215,1923
Rochester,Pennsylvania,1,Not Named,No Notes,40.7022882,-80.2864509,1922
Bristol,Pennsylvania,1,Not Named,No Notes,40.1006661,-74.8518311,1926
Youngblood,Pennsylvania,2,Keystone State Klan,No Notes,41.3257497,-75.9316887,1923
Leechburg,Pennsylvania,2,Not Named,No Notes,40.62701,-79.6056012,1923
Beaver,Pennsylvania,3,Not Named,No Notes,40.6953437,-80.3047846,1924
Greenburg,Pennsylvania,3,Not Named,"lair Klan, ""chartered a year ago""",40.3014581,-79.5389289,1924
Dunbar,Pennsylvania,4,Not Named,No Notes,39.9778528,-79.6144835,1923
Apollo,Pennsylvania,5,Not Named,No Notes,40.5814546,-79.5664333,1923
Woodlawn,Pennsylvania,5,Beaver County Klan,No Notes,40.0400976,-76.3296818,1924
Philadelphia,Pennsylvania,5,Old Glory Klan,No Notes,39.9525839,-75.1652215,1926
Pittsburgh,Pennsylvania,5,Not Named,No Notes,40.4406248,-79.9958864,1923
Bentleyville,Pennsylvania,6,Pigeon Creek Klan,No Notes,40.1167387,-80.0083855,1924
McKeesport,Pennsylvania,7,Not Named,No Notes,40.3470671,-79.8641232,1923
Allegheny,Pennsylvania,7,Not Named,"Operated throughout Pittsburgh. Reportedly had 1,500 members in 1925-1926",40.4450813,-80.0087746,1925
Osterberg,Pennsylvania,8,Not Named,No Notes,40.1695228,-78.5202946,1925
Johnstown,Pennsylvania,9,Not Named,No Notes,40.3267407,-78.9219698,1930
New Kensington,Pennsylvania,10,Paul Winter Klan,No Notes,40.5697892,-79.7647705,1926
Rochester,Pennsylvania,15,Junction City Klan,Also operated out of Ellwood City borough and throughout Beaver County.,40.7022882,-80.2864509,1923
Mount Pleasant,Pennsylvania,21,Lincoln Klan,No Notes,40.1489607,-79.5411497,1923
Allentown,Pennsylvania,22,Lehigh Klan,No Notes,40.6084305,-75.4901833,1923
Middletown,Pennsylvania,23,Not Named,No Notes,40.199814,-76.7310806,1925
Clairton,Pennsylvania,24,Not Named,No Notes,40.292292,-79.881715,1924
Wellsboro,Pennsylvania,24,Alpha Klan,No Notes,41.7486838,-77.3005304,1926
Lawrence,Pennsylvania,25,Not Named,"Reportedly had 1,630 members in 1925-1926. Operated out of New Castle, PA as well",40.306556,-80.1221585,1925
Swissvale,Pennsylvania,26,Not Named,No Notes,40.4236801,-79.8828275,1926
Harveyville,Pennsylvania,27,Huntington Valley Klan,"Chartered 10 months ago, circa March 1928",41.2139718,-76.2460448,1928
Punxsutawney,Pennsylvania,27,Not Named,"Operated out of Jefferson, PA as well. Reportedly had 1,120 members in 1925-1926.",40.9436753,-78.9708668,1925
Turtle Creek,Pennsylvania,29,Not Named,"Reportedly had 26 members in 1933. Operated out of Westmoreland, PA",40.4059022,-79.8250479,1933
West Newton,Pennsylvania,31,Yough Valley Klan,No Notes,40.2097933,-79.7669884,1927
Pittsburgh,Pennsylvania,32,Central Klan,Operated out of Allegheny County. Reportedly had 791 members in 1925-1926.,40.4406248,-79.9958864,1924
Dayton,Pennsylvania,33,Not Named,No Notes,40.8803431,-79.241983,1924
Reynoldsville,Pennsylvania,34,Not Named,No Notes,41.0970071,-78.8886436,1928
Connellsville,Pennsylvania,36,Colonel Crawford Klan,No Notes,40.0178522,-79.5894828,1924
Charleroi,Pennsylvania,41,Not Named,No Notes,40.1378499,-79.8981035,1924
Harrisburg,Pennsylvania,42,Not Named,No Notes,40.2731911,-76.8867008,1931
Pittsburgh,Pennsylvania,44,Myotha Klan,"Operated in Donora, PA as well.",40.4406248,-79.9958864,1924
Summerville,Pennsylvania,45,Not Named,No Notes,41.1161758,-79.1867053,1926
Phoenixville,Pennsylvania,46,Wayne County Klan,,40.1303822,-75.5149128,1926
Latrobe,Pennsylvania,46,Not Named,No Notes,40.315,-79.381111,1926
Carnegie,Pennsylvania,47,Carnegie Klan,Celebrated its third birthday in 1926. Reportedly had 970 members in 1925-1926. Was active in Allegheny County (Pittsburgh).,40.406944,-80.086667,1926
DuBois,Pennsylvania,53,Not Named,"Reportedly the Clearfield (Dubois) klavern had 1,053 members in 1925-1926.",41.1210115,-78.7583257,1926
Homestead,Pennsylvania,54,Not Named,reportedly had 828 members in 1925-1926,40.4059025,-79.9119948,1925
Elderton,Pennsylvania,59,Not Named,No Notes,40.6950649,-79.3414291,1926
Jefferson,Pennsylvania,60,Not Named,"Operated out of Brookville, PA and had 856 members in 1925-1926",40.2911809,-79.9319942,1925
Kittanning,Pennsylvania,62,Not Named,"Got charter with 1,400 members. Connected with klavern number 416. Reported membership in 1925-1926 was 1,146.",40.816453,-79.5219893,1925
Allegheny County,Pennsylvania,63,Not Named,"Went from 1,005 members in 1925-1926 to 20 members in 1933. Operated primarily in the Short Hills area.",40.4450813,-80.0087746,1925
Nantyglo,Pennsylvania,64,American Klan,No Notes,40.4722936,-78.8333571,1925
Wilkinsburg,Pennsylvania,73,Not Named,Had 794 members through 1925-1926.,40.4417355,-79.8819942,1925
Hazelwood,Pennsylvania,82,Victory Klan,No Notes,40.4117223,-79.9444526,1925
Cambria County,Pennsylvania,89,Not Named,"Reported had 1,775 members through 1925-1926. Operated primarily out of Johnstown.",40.4894231,-78.7476208,1925
Indiana,Pennsylvania,99,Not Named,No Notes,40.6214551,-79.1525349,1926
Lock Haven,Pennsylvania,113,Not Named,No Notes,41.1370133,-77.4469263,1926
Lewistown,Pennsylvania,114,Not Named,Also operated throughout Mifflin County,40.5992395,-77.571382,1927
Altoona,Pennsylvania,117,Not Named,"Had 2,805 members through 1925-1926.",40.5186809,-78.3947359,1925
Chambersburg,Pennsylvania,119,Not Named,"Also had a presence in Franklin, PA. Went from 817 members in 1925-1926 to 70 members in 1933.",39.9375911,-77.6611022,1925
Cambria,Pennsylvania,121,Not Named,"Had 815 members in 1925-1926. Was active in  Barnesboro, PA -- a now defunct borough.",40.4894231,-78.7476208,1925
Uniontown,Pennsylvania,128,Not Named,Operated in Fayette County. Went from 817 members in 1925-1926 to 52 members in 1933.,39.900076,-79.7164326,1933
Tarentinn,Pennsylvania,129,Eureka Klan,No Notes,40.6014555,-79.7597709,1934
Everett,Pennsylvania,133,Not Named,No Notes,40.0114711,-78.3733484,1926
Oil City,Pennsylvania,140,Not Named,"Active in Venango County. Had 1,235 members in 1925-1926.",41.4339484,-79.7064413,1925
Scranton,Pennsylvania,145,Not Named,No Notes,41.408969,-75.6624122,1927
Bethlehem,Pennsylvania,151,Not Named,Celebreated eighth anniversary in 1932,40.6259316,-75.3704579,1931
Bethlehem,Pennsylvania,152,Not Named,No Notes,40.6259316,-75.3704579,1931
East Liberty,Pennsylvania,153,Not Named,No Notes,40.4643479,-79.926266,1929
Braddock,Pennsylvania,154,Keystone State Klan,No Notes,40.4034024,-79.8683824,1928
Weissport,Pennsylvania,155,Gratten Hutten Klan,No Notes,40.8288549,-75.7015297,1927
Bethlehem,Pennsylvania,157,Not Named,No Notes,40.6259316,-75.3704579,1925
Vanderbilt,Pennsylvania,160,Not Named,No Notes,40.0331301,-79.6614284,1935
Windber,Pennsylvania,162,Defender Klan,No Notes,40.2397986,-78.8350223,1925
Smith's Ferry,Pennsylvania,166,Midland Klan,Celebrated sixth anniversary in 1929,40.662324,-80.4939264,1927
Ridgeway,Pennsylvania,186,Not Named,Gets charter in 1926,41.4203391,-78.7286388,1926
Clearfield County,Pennsylvania,187,Not Named,No Notes,40.9519685,-78.5660852,1931
Meadeville,Pennsylvania,195,Not Named,No Notes,41.6414438,-80.1514484,1930
Slate Run,Pennsylvania,199,Not Named,No Notes,41.470994,-77.500919,1926
Bethlehem,Pennsylvania,202,Not Named,No Notes,40.6259316,-75.3704579,1928
Williamsport,Pennsylvania,205,Calvin R. Butler Klan,Operated throughout Lycoming County. Went from 827 members in 1925-1926 to 42 members in 1933.,41.2411897,-77.0010786,1931
Titusville,Pennsylvania,208,Colonel Drake Klan,Operated in Crawford County. Went from 88 members in 1926 to 4-5 members in 1932,41.6270036,-79.6736631,1926
Slatington,Pennsylvania,210,Not Named,"Operated in Schnecksville (Lehigh) as well. In 1933, had 23 members.",40.7526123,-75.6062105,1928
Schnecksville,Pennsylvania,210,Not Named,No Notes,40.6749111,-75.6178991,1932
Wellsboro,Pennsylvania,213,Alpha Klan,"Operated in Wilkes Barre, PA as well",41.7486838,-77.3005304,1927
Delaware County,Pennsylvania,234,Red Star Klan,"Operated in Chester, Ardmore, and throughout Montgomery County. Had 25 members in 1933",39.907793,-75.3878525,1930
Schkuylkill,Pennsylvania,236,Haven Klan,Also known as St. Paul's Klan. Had 44 members in 1933.,40.6873058,-76.1783739,1931
Montgomery County,Pennsylvania,239,Hickory Hill Klan,"Operated in Worcester and Norristown. Went from 1,831 members in 1925-1926 to 26 members in 1933",40.2290075,-75.3878525,1927
Susquehanna,Pennsylvania,241,Not Named,No Notes,41.9436071,-75.5991789,1934
Towanda,Pennsylvania,247,Not Named,No Notes,41.767575,-76.4427188,1927
Clearfield County,Pennsylvania,252,Caleb Lee Klan,Operated in Frackville. Celebrated 8th anniversary in 1932.,40.9519685,-78.5660852,1932
Coatesville,Pennsylvania,253,Not Named,No Notes,39.9831616,-75.8238355,1929
Bradford,Pennsylvania,255,Lester C. Kiser Klan,No Notes,41.9564953,-78.649163,1927
Phoenixville,Pennsylvania,256,Bonnie Brae Klan,Actve in Spring City and the areas between Phoenixville. Celebrated 5th anniversary of charter on 28 Mar 32,40.1303822,-75.5149128,1932
Hummelstown,Pennsylvania,257,Golden Rule Klan,No Notes,40.2653681,-76.7083033,1932
West Chester,Pennsylvania,258,Not Named,No Notes,39.9606643,-75.6054882,1932
Chester,Pennsylvania,260,Not Named,Reportedly founded by 1938.,39.849557,-75.3557457,1938
Paoli,Pennsylvania,261,Not Named,No Notes,40.0419021,-75.4876445,1928
Harrisburg,Pennsylvania,263,Daylight Klan,"Operated Dauphin, 1,320 members, 1925-1926",40.2731911,-76.8867008,1928
Honesdale,Pennsylvania,264,Not Named,No Notes,41.5767552,-75.2587871,1931
Reading,Pennsylvania,265,Not Named,No Notes,40.3356483,-75.9268747,1927
Dallas,Pennsylvania,268,C. A. Hilghman Klan,"Named for Chester A. Hilghman of Buffalo, New York",41.3361911,-75.9632546,1928
Reading,Pennsylvania,269,Not Named,No Notes,40.3356483,-75.9268747,1931
Harveyville,Pennsylvania,270,Huntington Valley Klan,No Notes,41.0937032,-75.2412927,1928
Hamburg,Pennsylvania,270,Blue Mountain Klan,Operated in Hamburg as well. Reorganized in 1931.,40.5556484,-75.9818772,1932
Millersburg,Pennsylvania,271,Not Named,No Notes,40.5395289,-76.9608103,1933
Chambersburg,Pennsylvania,273,Not Named,No Notes,39.9375911,-77.6611022,1931
Wyoming,Pennsylvania,276,Not Named,Connected to Fort Jenkins commerations,41.3117471,-75.8374174,1931
Tower City,Pennsylvania,277,Progressive Klan,Had 26 members in 1933,40.5892542,-76.5524621,1931
Pottsville,Pennsylvania,283,American Pilots Klan,No Notes,40.6856456,-76.195499,1932
Lykens,Pennsylvania,284,Stone Mountain Klan,Operated out of Elizabethville as well. Had 823 members in 1925-1926.,40.5667527,-76.700522,1931
Herndon,Pennsylvania,288,Not Named,No Notes,40.709529,-76.842472,1933
Philadelphia,Pennsylvania,289,Liberty Bell,Reportedly founed by 1933,39.9525839,-75.1652215,1933
Philadelphia,Pennsylvania,290,Philadelphia Klan,Also known as Puritan Klan,39.9525839,-75.1652215,1931
Kingston,Pennsylvania,292,West Side Klan,Had 922 members in 1925-1926 throughout Luzerne County,41.2617481,-75.8968635,1934
Watsontown,Pennsylvania,293,Not Named,Operated out of Northumberland. Was founded by 1938.,41.0845277,-76.8638522,1931
Lykens,Pennsylvania,301,Bunker Hill Klan,No Notes,40.5667527,-76.700522,1933
Summit Hill,Pennsylvania,302,Philip Ginter Klan,No Notes,40.8248121,-75.8710312,1927
York,Pennsylvania,304,Not Named,"Had 1,518 members in 1925-1926",39.9625984,-76.727745,1929
Springtown,Pennsylvania,306,Not Named,No Notes,40.1417749,-75.3104579,1932
Wilkes-Barre,Pennsylvania,311,Rescue Klan,Operated throughout Luzerne County. Had 929 members in 1925-1926.,41.2459149,-75.8813075,1925
Tamaqua,Pennsylvania,313,Not Named,No Notes,40.7973112,-75.9693707,1930
Carbondale,Pennsylvania,319,Not Named,Operated throughout Lackawanna County. Had 753 members in 1925-1926.,41.5736935,-75.5018508,1930
Dalton,Pennsylvania,320,Abington Klan,No Notes,41.5342441,-75.7360253,1928
Scranton,Pennsylvania,320,Not Named,No Notes,41.408969,-75.6624122,1931
Scranton,Pennsylvania,334,Lackawanna Klan,No Notes,41.408969,-75.6624122,1932
Lancaster County,Pennsylvania,336,Columbia Klan,No Notes,40.0466571,-76.1783739,1930
Collingdale,Pennsylvania,342,"Abiding Klan (Jenkins, 133)",Identified as Philadelphia area Klan,39.9117794,-75.2771292,1931
Fayette,Pennsylvania,345,Fort Mason,Was operating in 1940,39.9272324,-79.6502105,1940
Refton,Pennsylvania,348,Not Named,No Notes,39.9473225,-76.2327348,1932
Chester,Pennsylvania,350,Not Named,"Had 2,155 members in 1925-1926",39.849557,-75.3557457,1925
Montrose,Pennsylvania,355,Not Named,No Notes,41.8339653,-75.8771388,1931
Bonnie Brae,Pennsylvania,356,Not Named,No Notes,39.849557,-75.3557457,1928
Philadelphia,Pennsylvania,358,Cradle of Liberty Klan,No Notes,39.9525839,-75.1652215,1931
Philadelphia,Pennsylvania,359,William Penn Klan,Operated out of West Philadelphia and had 917 members in 1925-1926.,39.9525839,-75.1652215,1928
Philadelphia,Pennsylvania,360,W. G. Harding Klan,No Notes,39.9525839,-75.1652215,1931
Philadelphia,Pennsylvania,362,George Washington Klan,No Notes,39.9525839,-75.1652215,1931
Northampton,Pennsylvania,365,Not Named,Was active by 1938,40.6862075,-75.4968501,1938
Emaus,Pennsylvania,367,Not Named,No Notes,40.5395421,-75.4968502,1929
Doylestown,Pennsylvania,369,Catasauqua Klan,"Also referenced as the Catasaque Klan and Catasqua Klan. Sometimes attributed to Catasqua, PA.",40.3101063,-75.1298939,1929
Northampton,Pennsylvania,370,Konkrete Klan,No Notes,40.6862075,-75.4968501,1928
Philadelphia,Pennsylvania,375,Paul Jones Klan,No Notes,39.9525839,-75.1652215,1931
Philadelphia,Pennsylvania,376,Daniel Webster Klan,No Notes,39.9525839,-75.1652215,1928
Perkasie,Pennsylvania,377,Not Named,No Notes,40.372048,-75.292676,1932
Philadelphia,Pennsylvania,378,Daniel Webster,Active by 1933,39.9525839,-75.1652215,1933
Philadelphia,Pennsylvania,379,Independence Klan,Also known as Daniel Webster Klan. Active mainly in Roxborough neighborhood.,39.9525839,-75.1652215,1931
Philadelphia,Pennsylvania,380,Robert Morris Klan,"Active mainly in the Germantown neighborhood. Had 1,216 members in 1925-1926.",39.9525839,-75.1652215,1931
Philadelphia,Pennsylvania,382,Nathan Hale Klan,No Notes,39.9525839,-75.1652215,1930
Philadelphia,Pennsylvania,383,Spirit of '76 Klan,No Notes,39.9525839,-75.1652215,1931
Philadelphia,Pennsylvania,385,Old Glory Klan,No Notes,39.9525839,-75.1652215,1931
Kingsley,Pennsylvania,391,Not Named,No Notes,41.7597997,-75.7521335,1931
Allison,Pennsylvania,401,Fort Redstone Klan,Reorganized in 1935.,39.9889639,-79.8647684,1935
Philadelphia,Pennsylvania,404,Loyalty Klan,No Notes,39.9525839,-75.1652215,1931
Philadelphia,Pennsylvania,406,Benjamin Franklin Klan,No Notes,39.9525839,-75.1652215,1931
Kittanning,Pennsylvania,416,Not Named,No Notes,40.816453,-79.5219893,1930
Sinking Springs,Pennsylvania,418,West Lawn Klan,No Notes,41.3473688,-77.432701,1932
Phildelphia,Pennsylvania,420,Penn Treaty Klan,", apparently a combination of Daniel Webster Klan, Spirit of '76 Klan, and Philadelphia No. 290. Chartered on October 15, 1932",39.9525839,-75.1652215,1932
Rowes Run,Pennsylvania,422,Rowes Run Klan,Chartered 17 Jan 34,40.009444,-79.816944,1935
Harrisburg,Pennsylvania,423,John Harris Klan,No Notes,40.2731911,-76.8867008,1938
Hustontown,Pennsylvania,744,Not Named,No Notes,40.0489743,-78.0269475,1926
Uniontown,Pennsylvania,14,Not Named,No Notes,39.900076,-79.7164326,1925
Ellwood City,Pennsylvania,15,Not Named,No Notes,40.861111,-80.284722,1924
Sharpsburg,Pennsylvania,18,Not Named,No Notes,40.495278,-79.928889,1927
Latrobe,Pennsylvania,46,Not Named,No Notes,40.31494,-79.381171,1927
New Florence,Pennsylvania,51,Not Named,No Notes,40.379722,-79.074722,1927
Allen,Pennsylvania,67,Not Named,No Notes,40.228056,-76.902222,1927
Finleyville,Pennsylvania,134,Not Named,No Notes,40.252778,-80.003611,1927
Franklin,Pennsylvania,164,Not Named,No Notes,41.397778,-79.831389,1927
Ambridge,Pennsylvania,178,Not Named,No Notes,40.593056,-80.225278,1927
Bradford,Pennsylvania,223,Lester C. Kiser Klan,No Notes,41.9564953,-78.649163,1927
Burrell,Pennsylvania,229,Not Named,No Notes,40.583889,-79.721944,1927
Lawrence,Pennsylvania,251,Central Klan,No Notes,40.306389,-80.121944,1927
Hanover,Pennsylvania,307,Not Named,No Notes,39.807222,-76.984722,1934
Dover,Pennsylvania,308,Garfield Klan,No Notes,40.003889,-76.849444,1934
Newport,Rhode Island,8,Not Named,No Notes,41.4901024,-71.3128285,1931
Westerly,Rhode Island,12,Not Named,Operated out of Ashaway and throughout Washington County as well,41.3775987,-71.8272871,1928
Providence,Rhode Island,16,Roger Williams Klan,No Notes,41.8239891,-71.4128343,1929
Charleston,South Carolina,1,Seventy-Six Klan,No Notes,32.7764749,-79.9310512,1923
Summerville,South Carolina,2,Wade Hampton Klan,No Notes,33.0185039,-80.1756481,1923
Columbia,South Carolina,3,Not Named,No Notes,34.0007104,-81.0348144,1926
Florence,South Carolina,5,Florence Klan,No Notes,34.1954331,-79.7625625,1923
Allendale,South Carolina,7,Not Named,Operated throughout Hampton County,33.0079345,-81.3084405,1927
Greenville,South Carolina,26,Poinsett Klan,Also known as the Poinsetta Klan,34.8526176,-82.3940104,1931
Darlington,South Carolina,36,Not Named,No Notes,34.2998762,-79.8761741,1923
Chesne,South Carolina,48,Daniel Morgan Klan,No Notes,35.1484549,-81.8609371,1923
Spartanburg County,South Carolina,48,Daniel Morgan Klan,No Notes,34.860551,-81.9534815,1922
Columbia,South Carolina,50,Wade Hampton Klan,No Notes,34.0007104,-81.0348144,1924
Langley,South Carolina,84,Not Named,No Notes,33.5179148,-81.8440011,1926
Aiken,South Carolina,94,Not Named,No Notes,33.5604168,-81.7195533,1931
Bennettsville,South Carolina,96,Marlboro County Klan,No Notes,34.6173803,-79.6847814,1926
Dillon County,South Carolina,105,Pee Dee Klan,"Chartered June 13, 1934. Replaces the old Dillon Klan No. 100",34.3596012,-79.4253776,1934
Jefferson,South Carolina,7,Swamp Fox Klan,No Notes,34.651667,-80.389444,1922
Wagener,South Carolina,24,Not Named,No Notes,33.652778,-81.364167,1922
Hartsville,South Carolina,83,Not Named,No Notes,34.369444,-80.080833,1927
Aiken,South Carolina,97,Not Named,No Notes,33.5604168,-81.7195533,1931
Deadwood,South Dakota,6,White Rock Klan,No Notes,44.376651,-103.7296415,1926
Chalk Butte,South Dakota,10,Central Meade Klan,No Notes,44.630531,-102.742918,1926
Sioux Falls,South Dakota,16,On Guard Klan,No Notes,43.5445959,-96.7311034,1927
Elk Point,South Dakota,56,Not Named,No Notes,42.6833303,-96.6836475,1928
Lead,South Dakota,4,Mile Hi Klan,No Notes,44.350833,-103.765833,1926
Chattanooga,Tennessee,1,Not Named,No Notes,35.0456297,-85.3096801,1923
Memphis,Tennessee,3,Not Named,"Charter revoked Feburary 9, 1924. Connecteed to klavern number 50.",35.1495343,-90.0489801,1923
Chattanooga,Tennessee,4,Not Named,Early August is the second anniversary of the chartering of this Klan.,35.0456297,-85.3096801,1923
Johnston City,Tennessee,5,Not Named,No Notes,36.3134397,-82.3534727,1924
Cleveland,Tennessee,12,Not Named,No Notes,35.1595182,-84.8766115,1922
Knox County,Tennessee,14,Not Named,"Chartered fall 1921. Membership fell from more than 2,000 to 406 in 1927 ande 191 in 1928.",35.9874629,-83.9419784,1921
Chattanooga,Tennessee,15,Not Named,Also known as the Lookout Klan,35.0456297,-85.3096801,1923
Lenoir City,Tennessee,17,Not Named,No Notes,35.7972998,-84.2560299,1923
Harrison,Tennessee,18,Harrison Klan,No Notes,35.1136837,-85.1380092,1923
Tullahoma,Tennessee,21,Not Named,No Notes,35.3620235,-86.2094342,1923
Estill Springs,Tennessee,24,Not Named,No Notes,35.2706372,-86.1280417,1923
Soddy,Tennessee,27,Not Named,No Notes,35.2886802,-85.1666236,1923
Coal Creek,Tennessee,35,Not Named,No Notes,36.1657432,-84.2000519,1923
Selmar,Tennessee,40,Not Named,No Notes,35.1700834,-88.5922704,1924
Pulaski,Tennessee,42,Brown Harwood Klan,No Notes,35.1998023,-87.0308412,1924
Chattanooga,Tennessee,44,Not Named,No Notes,35.0456297,-85.3096801,1923
Jackson,Tennessee,45,Not Named,No Notes,35.6145169,-88.8139469,1924
Murfreesboro,Tennessee,46,Not Named,No Notes,35.8456213,-86.39027,1924
Nashville,Tennessee,47,Andrew Jackson Klan,No Notes,36.1626638,-86.7816016,1924
Chattanooga,Tennessee,48,Not Named,No Notes,35.0456297,-85.3096801,1924
Memphis,Tennessee,50,Shelby County Klan,"Chartered April 26, 1924. Reorganized and rechartered. Was previously Memphis No. 3 until Feburary 9, 1924 when their charter was revoked.",35.1495343,-90.0489801,1924
Palmyra,Tennessee,50,Kumberland Klan,No Notes,36.4360545,-87.4846389,1924
Collierville,Tennessee,52,Not Named,No Notes,35.042036,-89.6645266,1924
Bristol,Tennessee,54,Not Named,No Notes,36.5951059,-82.1887444,1924
Dyersburg,Tennessee,57,Forked Deer Klan,No Notes,36.0345159,-89.3856281,1924
Paris,Tennessee,66,Not Named,No Notes,36.3020023,-88.3267107,1925
Humbolt,Tennessee,76,Not Named,No Notes,35.8197917,-88.9158953,1924
McMinnville,Tennessee,83,Not Named,No Notes,35.6865889,-85.7801453,1924
Cleveland,Tennessee,88,Not Named,No Notes,35.1595182,-84.8766115,1922
Medina,Tennessee,87,Not Named,No Notes,35.8028453,-88.7747808,1924
Bolton College,Tennessee,94,Loosahatchie Klan,No Notes,34.9991541,-85.1007333,1926
Knoxville,Tennessee,96,John Sevier Klan,No Notes,35.9606384,-83.9207392,1927
Columbia,Tennessee,101,Henry Rogers Klan,No Notes,35.6150716,-87.0352831,1926
Mt. Pleasant,Tennessee,118,James K. Polk Klan,No Notes,35.5342414,-87.2069541,1926
Mason Hall,Tennessee,119,Not Named,No Notes,36.2067343,-89.0936782,1926
Memphis,Tennessee,121,Jefferson Davis Klan,No Notes,35.1495343,-90.0489801,1927
Shelby County,Tennessee,123,W. J. Bryan Klan,The sixth klan in Shelby County,35.1268552,-89.9253233,1926
Kingsport,Tennessee,80,Not Named,No Notes,36.533333,-82.55,1925
Houston,Texas,1,Not Named,No Notes,29.7604267,-95.3698028,1921
Alvin,Texas,3,Not Named,No Notes,29.4238472,-95.2441009,1922
Goose Creek,Texas,4,Not Named,No Notes,29.7337477,-94.9636628,1922
Beaumont,Texas,7,Not Named,No Notes,30.080174,-94.1265562,1923
Glen Flora,Texas,8,Hamilton B. Dixon Klan,No Notes,29.3468954,-96.1934503,1922
Bryan,Texas,8,Not Named,No Notes,30.6743643,-96.3699632,1923
Kingsville,Texas,10,David Crockett Klan,"Had a special ceremony for the death of member, C. E. Albrecht, who was Great Titan for Province 7.",27.5158689,-97.856109,1924
Angleton,Texas,11,Not Named,No Notes,29.16941,-95.4318847,1923
Lufkin,Texas,16,Angelina Klan,No Notes,31.3382406,-94.729097,1922
Lufton,Texas,17,Angelina Klan,No Notes,31.3382406,-94.729097,1922
Eagle Lake,Texas,18,J. K. Davidson Klan,Named for a local man who was a veteran of the original Klan.,29.5896836,-96.3335769,1923
Bedias,Texas,21,Navasota Klan,No Notes,30.7757486,-95.949397,1922
Crockett,Texas,22,Not Named,No Notes,31.3182359,-95.4566136,1921
Jasper,Texas,24,W. R. Blackshear Klan,No Notes,30.9201995,-93.9965759,1923
Port Arthur,Texas,25,Dick Dowling Klan,No Notes,29.8849504,-93.939947,1926
San Antonio,Texas,31,Not Named,"At one time was in debt for ""about $25,000,"" but a small group worked to pull it out of debt and to secure its own property.",29.4241219,-98.4936282,1922
Waco,Texas,33,Saxet Klan,Also known as the August Saxet Klan.,31.549333,-97.1466695,1922
Palestine,Texas,34,Not Named,No Notes,31.7621153,-95.6307891,1923
Silsbee,Texas,35,Not Named,No Notes,30.3490976,-94.1779624,1922
Galveston,Texas,36,Not Named,No Notes,29.3013479,-94.7976958,1923
Waco,Texas,37,Not Named,No Notes,31.549333,-97.1466695,1922
Richmond,Texas,38,Not Named,The Kligrapp joined in February 1921.,29.5821811,-95.7607832,1923
Dayton,Texas,40,Liberty Klan,No Notes,30.0466051,-94.8852026,1923
Elgin,Texas,42,Not Named,No Notes,30.3496528,-97.3702735,1923
Blackwell,Texas,44,Not Named,No Notes,32.0868017,-100.3175971,1923
Sealy,Texas,44,Not Named,No Notes,29.7807878,-96.1571833,1922
Mexia,Texas,47,Not Named,No Notes,31.6798895,-96.482203,1923
Bryan,Texas,48,Not Named,No Notes,30.6743643,-96.3699632,1923
Cleveland,Texas,49,San Jacinto Klan,No Notes,30.34132,-95.0854885,1923
Orange,Texas,51,Not Named,No Notes,30.0929879,-93.7365549,1922
Timpson,Texas,54,Not Named,No Notes,31.9037814,-94.3952022,1924
Corsicana,Texas,55,Not Named,No Notes,32.0954304,-96.4688727,1921
Freeport,Texas,56,Not Named,No Notes,28.9541368,-95.3596617,1922
Brookshire,Texas,57,Not Named,No Notes,29.7860643,-95.9510661,1922
Rusk,Texas,59,Not Named,No Notes,31.7960064,-95.1502214,1922
Groveton,Texas,63,Argus Klan,No Notes,31.0549071,-95.1257691,1922
Dallas,Texas,66,Not Named,No Notes,32.7766642,-96.7969879,1921
Texas City,Texas,67,Texas City Klan,No Notes,29.383845,-94.9027002,1924
Center,Texas,70,Not Named,No Notes,31.7954512,-94.1790862,1922
Joaquin,Texas,71,Not Named,No Notes,31.9657232,-94.0538028,1922
Belton,Texas,73,Knolan Kreek Klan,Also known as the Nolan Kreek Klan.,31.0560132,-97.464453,1922
Yoakum,Texas,74,Not Named,No Notes,29.2877469,-97.151931,1922
Tyler,Texas,75,Not Named,No Notes,32.3512601,-95.3010624,1923
Hemphill,Texas,78,Not Named,No Notes,31.3407403,-93.846852,1922
Wichita Falls,Texas,78,Not Named,No Notes,33.9137085,-98.4933873,1921
Bellville,Texas,80,Blanchett Klan,No Notes,29.9502253,-96.2571858,1924
Livingstone,Texas,81,Polk County Klan,No Notes,30.711029,-94.9329898,1923
Austin,Texas,81,Capital City Klan,No Notes,30.267153,-97.7430608,1924
Memphis,Texas,82,Hall Klan,No Notes,34.7247758,-100.5340144,1923
Manor,Texas,83,Travis Klan,No Notes,30.3407629,-97.5569456,1924
Mercedes,Texas,84,Not Named,No Notes,26.1497977,-97.9136112,1922
McAllen,Texas,85,Not Named,No Notes,26.2034071,-98.2300124,1934
San Benito,Texas,87,Not Named,No Notes,26.132576,-97.6311006,1925
Paris,Texas,90,Not Named,Also operated out of Terrell,33.6609389,-95.555513,1922
Sour Lake,Texas,92,Not Named,No Notes,30.1402122,-94.4110239,1923
Cuero,Texas,93,Not Named,No Notes,29.0938652,-97.2891568,1922
Bastrop,Texas,94,Mina Klan,No Notes,30.1104947,-97.3152701,1921
McAllen,Texas,95,Not Named,No Notes,26.2034071,-98.2300124,1922
Mineola,Texas,96,Not Named,No Notes,32.6631884,-95.4882896,1923
Gonzales,Texas,97,Not Named,No Notes,29.5016257,-97.4524926,1922
Terrell,Texas,99,Not Named,No Notes,32.7359626,-96.2752569,1922
El Paso,Texas,100,Frontier Klan,No Notes,31.7775757,-106.4424559,1922
Fort Worth,Texas,101,Not Named,Sub-divisions Nos. 2 and 4,32.7554883,-97.3307658,1924
Texarkana,Texas,104,Not Named,No Notes,33.425125,-94.0476882,1922
Sherman,Texas,105,Not Named,No Notes,33.6356618,-96.6088805,1923
Marlin,Texas,107,Not Named,No Notes,31.3062874,-96.8980439,1922
Cleburne,Texas,108,Not Named,No Notes,32.3476438,-97.3866837,1922
Wolfe City,Texas,108,Not Named,No Notes,33.3706654,-96.0688607,1925
Luling,Texas,109,Not Named,No Notes,29.6805066,-97.647498,1923
Rosebud,Texas,110,Not Named,No Notes,31.0729608,-96.9785993,1923
Denison,Texas,113,Not Named,No Notes,33.7556593,-96.536658,1923
Taylor,Texas,117,Not Named,No Notes,30.5707551,-97.4094438,1922
Bremond,Texas,118,Not Named,No Notes,31.1651817,-96.6769217,1922
McKinney,Texas,120,Not Named,No Notes,33.1972465,-96.6397822,1922
Beeville,Texas,121,Bee County Klan,No Notes,28.4008319,-97.7483312,1924
San Marcos,Texas,124,Not Named,No Notes,29.8832749,-97.9413941,1924
Mathis,Texas,125,Not Named,No Notes,28.0944558,-97.8280543,1923
Edgewood,Texas,126,Not Named,No Notes,32.6981846,-95.8852438,1923
Grand Saline,Texas,130,Saline City Klan,No Notes,32.6734636,-95.7094069,1922
Rosenburg,Texas,132,Not Named,No Notes,29.5571825,-95.8085623,1923
Mineral Wells,Texas,133,Not Named,No Notes,32.8084605,-98.1128223,1922
Canyon,Texas,135,Not Named,No Notes,34.9803342,-101.9188024,1922
Henderson,Texas,138,Not Named,No Notes,32.1532156,-94.7993802,1922
Abilene,Texas,139,Not Named,"On November 28, 1921 had the first KKK parade in West Texas.",32.4487364,-99.7331439,1923
Batson,Texas,140,Batoga Klan,No Notes,30.2493767,-94.6071417,1923
Amarillo,Texas,141,Not Named,,35.2219971,-101.8312969,1923
Shepherd,Texas,142,Not Named,No Notes,30.4979813,-94.9966005,1922
Greenville,Texas,144,Not Named,No Notes,33.1384488,-96.1108066,1923
Aransas Pass,Texas,146,Not Named,No Notes,27.9,-97.133333,1924
Lockhart,Texas,147,Not Named,No Notes,29.8849441,-97.6699996,1922
Sinton,Texas,149,Not Named,No Notes,28.0366818,-97.5091611,1922
Gainesville,Texas,151,Not Named,No Notes,33.6259414,-97.1333453,1923
Eastland,Texas,152,Not Named,No Notes,32.4015198,-98.8175623,1923
Smithville,Texas,155,Not Named,No Notes,30.0085542,-97.1594321,1921
Honey Grove,Texas,163,Not Named,No Notes,33.5834377,-95.9099681,1922
Collegeport,Texas,172,Palacios Klan,No Notes,28.7252672,-96.174966,1922
Commerce,Texas,173,Not Named,No Notes,33.2470567,-95.8999656,1922
Winters,Texas,173,Not Named,Connected to klaverns number 272 and 273.,31.9565343,-99.962313,1925
Celeste,Texas,175,Not Named,No Notes,33.2942791,-96.1946983,1921
Weatherford,Texas,176,Watermelon Klan,No Notes,32.7592955,-97.7972544,1923
Dublin,Texas,177,Not Named,No Notes,32.085143,-98.3419882,1923
Damon,Texas,187,Not Named,No Notes,29.290523,-95.7346708,1923
Deweyville,Texas,188,Not Named,No Notes,30.2977058,-93.7435004,1924
Electra,Texas,189,Not Named,No Notes,34.0292588,-98.9189575,1922
Willis,Texas,191,Not Named,No Notes,30.4249276,-95.4799418,1922
Wichita Falls,Texas,195,Not Named,No Notes,33.9137085,-98.4933873,1923
Lubbock,Texas,199,Not Named,No Notes,33.5778631,-101.8551665,1923
Alice,Texas,200,Not Named,No Notes,27.7522487,-98.0697249,1923
Gause,Texas,201,Not Named,No Notes,30.7851923,-96.7213641,1923
Robstown,Texas,204,Not Named,No Notes,27.7903032,-97.6688843,1923
Iredell,Texas,210,Not Named,No Notes,31.9851488,-97.8719741,1923
Meridian,Texas,211,Not Named,No Notes,31.9232085,-97.6566894,1923
Sweetwater,Texas,217,Not Named,No Notes,32.4709519,-100.4059384,1922
McGregor,Texas,220,Not Named,No Notes,31.4440557,-97.4091792,1923
Corpus Christi,Texas,225,Not Named,At one time had plans to build a hospital.,27.8005828,-97.396381,1923
Slaton,Texas,228,Not Named,Slaton Klan No. U. D.,33.4373113,-101.6434915,1922
Jacksboro,Texas,236,Not Named,No Notes,33.2184477,-98.1586558,1922
Italy,Texas,243,Not Named,Began on August 8th 1922.,32.1840381,-96.8847194,1923
Waxahachie,Texas,246,Not Named,No Notes,32.3865312,-96.8483311,1923
Colorado,Texas,248,Colorado Klan,No Notes,29.98556,-97.1338899,1923
Gustine,Texas,249,Not Named,No Notes,31.8451492,-98.4028198,1924
Dalhart,Texas,250,Antelope Klan,No Notes,36.0594772,-102.5132497,1922
Port Lavaca,Texas,253,Port Lavaca Klan,Also associated with klavern number 254.,28.6149968,-96.6260892,1923
Plainview,Texas,260,Not Named,No Notes,34.1847936,-101.7068417,1923
Bowie,Texas,265,Not Named,No Notes,33.5589953,-97.8486457,1923
Winters,Texas,272,Not Named,See also klaverns number 173 and 273.,31.9565343,-99.962313,1924
Winters,Texas,273,Not Named,See also klaverns number 173 and 272.,31.9565343,-99.962313,1924
Kerrsville,Texas,274,Not Named,No Notes,30.0474332,-99.1403189,1923
Knox County,Texas,276,Not Named,No Notes,33.6734243,-99.8124935,1923
Cross Plains,Texas,277,Not Named,No Notes,32.1262493,-99.1653425,1924
Uvalde,Texas,279,Not Named,No Notes,29.2096836,-99.7861679,1923
Como,Texas,280,Not Named,No Notes,33.0609764,-95.4719515,1923
Bishop,Texas,286,Not Named,No Notes,27.5861441,-97.7991636,1923
Bayside,Texas,287,Refugio Klan,No Notes,28.0939035,-97.2147137,1923
McCullough County,Texas,290,Not Named,No Notes,31.2016122,-99.2785583,1923
Falfurries,Texas,291,Not Named,No Notes,27.2269872,-98.1441714,1924
Farmersville,Texas,296,Not Named,No Notes,33.1634493,-96.3599821,1923
Throckmorton,Texas,304,Not Named,No Notes,33.1787153,-99.1775756,1923
San Angelo,Texas,306,Ft. Concho Klan,No Notes,31.4637723,-100.4370375,1923
La Porte,Texas,309,Not Named,No Notes,29.6657838,-95.0193728,1923
Bee County,Texas,321,Bee County Klan,No Notes,28.405556,-97.750833,1924
Oak Cliff,Texas,334,Not Named,,32.7362591,-96.8645856,1931
Brownwood,Texas,346,Not Named,No Notes,31.7093197,-98.9911611,1928
Fort Worth,Texas,356,Hyde Park Klan,No Notes,32.7554883,-97.3307658,1932
Fort Worth,Texas,357,Not Named,No Notes,32.7554883,-97.3307658,1932
Ennis,Texas,359,Not Named,"Chartered on August 19th, 1931.",32.3293111,-96.6252679,1931
Amarillo,Texas,360,Not Named,No Notes,35.2219971,-101.8312969,1932
Port Arthur,Texas,25,Dick Dowling Klan,No Notes,29.885,-93.94,1922
Temple,Texas,46,Knobe Kreek Klan,Could also be number 64.,31.093611,-97.362222,1921
Teague,Texas,68,Not Named,No Notes,31.6275,-96.283333,1922
Longview,Texas,77,Gregg County Klan,No Notes,32.509167,-94.753889,1922
Rockdale,Texas,115,Not Named,No Notes,30.654722,-97.0075,1922
Wills Point,Texas,128,Free State Klan,No Notes,32.708611,-96.006389,1922
Merkel,Texas,137,Not Named,No Notes,32.468333,-100.013333,1923
Vernon,Texas,148,Not Named,No Notes,34.151111,-99.290556,1922
Denton,Texas,156,Not Named,No Notes,33.216389,-97.129167,1925
Georgetown,Texas,178,Not Named,No Notes,30.651111,-97.681389,1924
Bonham,Texas,194,Not Named,No Notes,33.583889,-96.181667,1922
Winters,Texas,273,Not Named,No Notes,31.9565343,-99.962313,1925
Anson,Texas,284,Elisha Anson Klan,No Notes,32.755556,-99.896389,1923
Alpine,Texas,315,Jeff Davis Klan,No Notes,30.360833,-103.665556,1924
Amarillo,Texas,360,Ama Klan,Ad calls for ex-members to come to a BBQ,35.2219971,-101.8312969,1937
Houston,Texas,1,Not Named,No Notes,29.7604267,-95.3698028,1920
Salt Lake,Utah,1,Not Named,No Notes,40.7607793,-111.8910474,1922
Ogden,Utah,6,Not Named,No Notes,41.223,-111.9738304,1931
White River Junction,Vermont,4,Rock Maple Klan,No Notes,43.6489596,-72.3192579,1929
Hartland,Vermont,101,Hugh S. Kelley Klan,No Notes,43.540636,-72.3989314,1931
Newport,Vermont,102,Not Named,No Notes,44.9364356,-72.2051022,1932
Island Pond,Vermont,110,Island Pond Klan,Chartered in 1929.,44.8147712,-71.8803728,1929
Richmond,Virginia,1,Not Named,No Notes,37.5407246,-77.4360481,1931
Fairfax County,Virginia,2,Not Named,No Notes,38.9085472,-77.2405153,1926
Norfolk,Virginia,3,Not Named,No Notes,36.8507689,-76.2858726,1931
Roanoke,Virginia,4,Robert E. Lee Klan,No Notes,37.2709704,-79.9414266,1927
Ballston,Virginia,6,Not Named,No Notes,38.8858006,-77.1053673,1927
Newport News,Virginia,8,Not Named,No Notes,37.0870821,-76.4730122,1931
Lynchburg,Virginia,11,John W. Daniel Klan,No Notes,37.4137536,-79.1422464,1921
Christiansburg,Virginia,13,Not Named,No Notes,37.1298517,-80.4089389,1931
Hopewell,Virginia,14,Not Named,No Notes,37.3043154,-77.2872001,1923
Appalachia,Virginia,15,Not Named,No Notes,36.9067631,-82.7818275,1924
Portsmouth,Virginia,16,A. S. U. Klan,No Notes,36.8354258,-76.2982742,1927
Danville,Virginia,17,Not Named,No Notes,36.5859718,-79.3950228,1924
Arlington,Virginia,17,Not Named,No Notes,38.8799697,-77.1067698,1931
Winchester,Virginia,18,Not Named,No Notes,39.1856597,-78.1633341,1931
Arlington,Virginia,21,Not Named,No Notes,38.8799697,-77.1067698,1926
Melfa,Virginia,25,Not Named,Connected to klavern number 52.,37.6492986,-75.7413182,1925
Suffolk,Virginia,33,Not Named,No Notes,36.7282054,-76.5835621,1928
Petersburg,Virginia,35,Krater Klan,No Notes,37.2279279,-77.4019267,1931
Cape Charles,Virginia,38,Not Named,No Notes,37.267916,-76.0174336,1923
Tazewell,Virginia,43,Red Ash Klan,No Notes,37.1148374,-81.5195548,1922
Occoquan,Virginia,45,Not Named,No Notes,38.6837271,-77.260261,1931
Alexandria,Virginia,47,Not Named,No Notes,38.8048355,-77.0469214,1931
Graham,Virginia,48,Robert E. Lee Klan,No Notes,38.8665013,-77.1949586,1924
Bluefield,Virginia,48,Robert E. Lee Klan,No Notes,37.252617,-81.2712105,1930
Covington,Virginia,49,Allegheny Klan,No Notes,37.7934585,-79.9939463,1923
Elkton,Virginia,54,Spotswood Klan,No Notes,38.4079042,-78.6236277,1931
Gretna,Virginia,64,Not Named,No Notes,36.9537526,-79.3589134,1931
Culpeper,Virginia,65,Not Named,No Notes,38.4729632,-77.9962512,1928
Staunton,Virginia,66,Not Named,No Notes,38.149576,-79.0716958,1926
Harrisonburg,Virginia,68,Not Named,No Notes,38.4495688,-78.8689155,1926
Bristol,Virginia,75,Not Named,No Notes,36.595141,-82.1888089,1924
Parrott,Virginia,80,Dublin Klan,No Notes,37.205054,-80.6156013,1928
Warsaw,Virginia,84,Not Named,No Notes,37.9587446,-76.7580139,1926
Fredericksburg,Virginia,97,Not Named,No Notes,38.3031837,-77.4605399,1931
Richmond,Virginia,99,William Byrd Klan,"Was chartered on Nov. 2, 1925 with 300 members",37.5407246,-77.4360481,1925
Virginia Beach,Virginia,100,Not Named,No Notes,36.8529263,-75.977985,1931
King George,Virginia,107,Not Named,No Notes,38.2664512,-77.1807842,1927
Crewe,Virginia,108,Not Named,No Notes,37.1732074,-78.1233329,1927
Purcellville,Virginia,113,Not Named,No Notes,39.1367717,-77.7147153,1926
Potomac,Virginia,115,Not Named,No Notes,38.341325,-77.4132716,1927
Norfolk,Virginia,125,Albert Pike Klan,No Notes,36.8507689,-76.2858726,1931
South Richmond,Virginia,128,Not Named,No Notes,37.4880754,-77.4587239,1931
Warrenton,Virginia,129,Not Named,Chartered in 1926.,38.7134516,-77.7952712,1926
Lawrenceville,Virginia,132,Not Named,No Notes,36.7576469,-77.8469374,1929
Pocahontas,Virginia,39,Not Named,No Notes,37.305,-81.339722,1923
Richmond,Virginia,1,Not Named,No Notes,37.5407246,-77.4360481,1920
Vancouver,Washington,1,Columbia Klan,No Notes,45.6387281,-122.6614861,1922
Buckley,Washington,2,Not Named,No Notes,47.1631573,-122.0267787,1923
Walla Walla,Washington,3,Not Named,No Notes,46.0645809,-118.3430209,1923
Seattle,Washington,4,Not Named,No Notes,47.6062095,-122.3320708,1923
Colfax,Washington,5,Not Named,No Notes,46.8801654,-117.3643495,1923
Woodland,Washington,7,Ben Karr Klan,No Notes,45.9045591,-122.7439912,1923
Kent,Washington,13,Not Named,No Notes,47.3809335,-122.2348431,1923
Kelso,Washington,14,Not Named,No Notes,46.146779,-122.9084445,1923
Bellingham,Washington,19,Mt. Baker Klan,No Notes,48.74908,-122.4781473,1924
Spokane,Washington,22,Not Named,No Notes,47.6587802,-117.4260466,1930
Pasco,Washington,22,Not Named,No Notes,46.2395793,-119.1005657,1929
Enuclaw,Washington,23,Natches Klan,Chartered in 1924.,47.2042681,-121.9915003,1924
Everett,Washington,27,Not Named,No Notes,47.9789848,-122.2020794,1929
Mount Vernon,Washington,28,Skagit Valley Klan,No Notes,48.421216,-122.3340474,1924
Auburn,Washington,29,Not Named,No Notes,47.3073228,-122.2284532,1924
Raymond,Washington,43,Douglas Fir Klan,No Notes,46.6864887,-123.7329385,1930
Yakima,Washington,48,Not Named,No Notes,46.6020711,-120.5058987,1931
Sedro Woolley,Washington,49,Not Named,Also operated out of Skagit County,48.50389,-122.23611,1931
Fall City,Washington,51,Cascade Klan,No Notes,47.5673237,-121.8887269,1931
Bellingham,Washington,51,Kaskade Klan,No Notes,48.74908,-122.4781473,1932
Seattle,Washington,56,Not Named,No Notes,47.6062095,-122.3320708,1929
Tacoma,Washington,59,Not Named,No Notes,47.2528768,-122.4442906,1929
Cowlitz County,Washington,18,Not Named,No Notes,46.19,-122.68,1925
Centralia,Washington,24,Not Named,No Notes,46.720556,-122.961389,1928
Wheeling,West Virginia,1,Not Named,No Notes,40.0639616,-80.7209149,1921
Charleston,West Virginia,2,Kanawha Klan,Dr. V. T. Churchman is klavern president.,38.3498195,-81.6326234,1923
Bluefield,West Virginia,4,Not Named,No Notes,37.2698395,-81.2223195,1924
Huntington,West Virginia,7,Kabell Klan,No Notes,38.4192496,-82.445154,1923
Matoaka,West Virginia,9,Not Named,No Notes,37.4201162,-81.2431548,1924
Parkersburg,West Virginia,10,Not Named,No Notes,39.2667418,-81.5615135,1922
Beckley,West Virginia,11,Not Named,No Notes,37.7781702,-81.1881557,1923
Mullens,West Virginia,13,Guyandotte Klan,No Notes,37.5831698,-81.3803804,1923
Keyser,West Virginia,18,Not Named,No Notes,39.4409277,-78.9739156,1930
Parkersburg,West Virginia,20,Not Named,No Notes,39.2667418,-81.5615135,1923
Morgantown,West Virginia,25,Not Named,No Notes,39.629526,-79.9558968,1923
Oak Hill,West Virginia,28,Not Named,No Notes,37.9723339,-81.1487135,1924
Clarksburg,West Virginia,33,Not Named,No Notes,39.2806451,-80.3445341,1923
Piedmont,West Virginia,34,Not Named,No Notes,39.4803706,-79.0478073,1924
Moundsville,West Virginia,35,Not Named,No Notes,39.9203526,-80.7431407,1923
Ravenswood,West Virginia,39,Not Named,No Notes,38.9481366,-81.7609646,1924
Wellsburg,West Virginia,40,Not Named,No Notes,40.2720146,-80.6095187,1923
Weirton,West Virginia,44,Not Named,No Notes,40.4189566,-80.5895167,1924
Logan,West Virginia,45,Not Named,No Notes,37.8487147,-81.9934581,1923
Grafton,West Virginia,52,Not Named,No Notes,39.3409249,-80.0189659,1924
Morgantown,West Virginia,59,Monongalia County Klan,No Notes,39.629526,-79.9558968,1933
Fairmount,West Virginia,61,Marion County,No Notes,39.4850848,-80.1425781,1925
Follansbee,West Virginia,62,Brook County Klan,No Notes,40.3275693,-80.5959065,1925
Rovenceverte,West Virginia,69,Greenbrier County Klan,No Notes,37.7498438,-80.4628519,1925
Parkersburg,West Virginia,78,Wood County,No Notes,39.2667418,-81.5615135,1925
Pocahontas County,West Virginia,83,Cass Unit,"This particular klavern was created as a way to consolidate members and power in Cass, WV away from the bigger Pocahontas County klavern.",38.3101706,-80.0087746,1926
Randolph County,West Virginia,84,Randolph Klan,Concentrated activity in Elkin,38.8092552,-80.0087746,1925
Hinton,West Virginia,90,Summers County,No Notes,37.674008,-80.8892539,1925
Martinsburg,West Virginia,93,Not Named,No Notes,39.4562099,-77.9638869,1926
Berkeley County,West Virginia,93,Not Named,No Notes,39.4885604,-78.0651931,1925
Clarksburg,West Virginia,95,Harrison County Klan,No Notes,39.2806451,-80.3445341,1926
Matoaka,West Virginia,121,East River Klan,"Princeton Klan gave up its charter ""about one year ago."" Met to reinstate ex-Klansmen and will work with the Bluefield, VA, Robert E. Lee Klan No. 48.",37.4201162,-81.2431548,1925
Keystone,West Virginia,123,McDowell County,"Reorganized  in 1927 after a long, internal struggle.",37.4148369,-81.450937,1927
Wheeling,West Virginia,141,Ohio County Klan,No Notes,40.0639616,-80.7209149,1931
Princeton,West Virginia,6,Not Named,No Notes,37.368056,-81.095833,1923
Logan,West Virginia,22,Old Glory Klan,No Notes,37.8487147,-81.9934581,1928
Northfork,West Virginia,31,Not Named,No Notes,37.416667,-81.431667,1923
St. Albans,West Virginia,47,Not Named,No Notes,38.380278,-81.819722,1925
Mullens,West Virginia,65,Wyoming County Klan,No Notes,37.5831698,-81.3803804,1925
Matoaka,West Virginia,121,East River Klan,No Notes,37.4201162,-81.2431548,1932
Milwaukee,Wisconsin,1,Not Named,No Notes,43.0389025,-87.9064736,1923
Racine,Wisconsin,2,Not Named,No Notes,42.7261309,-87.7828523,1923
Fort Atkinson,Wisconsin,3,Not Named,No Notes,42.9288944,-88.8370509,1923
Clinton,Wisconsin,3,Liberty Klan,First four members were initiated in early winter 1922.,42.5577925,-88.865107,1931
Kenosha,Wisconsin,4,Genesee Klan,No Notes,42.5847425,-87.8211854,1931
Madison,Wisconsin,7,Provisional Klan,No Notes,43.0730517,-89.4012302,1923
Chippewa Falls,Wisconsin,12,Not Named,No Notes,44.9369054,-91.3929348,1926
Cornell,Wisconsin,13,Not Named,No Notes,45.1671881,-91.1493107,1926
Menomenie,Wisconsin,19,Not Named,Operated throughout Dunn County.,44.8755183,-91.9193422,1931
Madison,Wisconsin,22,Not Named,No Notes,43.0730517,-89.4012302,1935
Fence,Wisconsin,52,Lief Erickson Klan,Records show it was five years old by 1932.,45.7445979,-88.4251475,1931
Marinette,Wisconsin,53,Wesley Klan,Chartered in 1926.,45.0999849,-87.6306623,1926
Brown County,Wisconsin,69,Not Named,Operated throughout Green Bay as well,44.4561674,-87.9334803,1931
New London,Wisconsin,73,Mosquito Hill,No Notes,44.3927582,-88.7398256,1929
Racine,Wisconsin,76,Not Named,No Notes,42.7261309,-87.7828523,1931
Goodman,Wisconsin,81,Charles A. Lindbergh Klan,No Notes,45.6307027,-88.3535655,1931
Milwaukee,Wisconsin,82,Progressive Klan,No Notes,43.0389025,-87.9064736,1931
Milwaukee,Wisconsin,83,Progressive Klan,No Notes,43.0389025,-87.9064736,1931
Ellsworth,Wisconsin,89,Pierce County,No Notes,44.7321897,-92.4874124,1929
Fon Du Lac,Wisconsin,96,Not Named,The old klan is rechartered as Old Ironsides Klan,43.7730448,-88.4470508,1931
Ellsworth,Wisconsin,132,Not Named,No Notes,44.7321897,-92.4874124,1927
Ellsworth,Wisconsin,89,Not Named,No Notes,44.7321897,-92.4874124,1929
Casper,Wyoming,3,Not Named,No Notes,42.866632,-106.313081,1923
Sheridan,Wyoming,5,Not Named,No Notes,44.7971939,-106.9561791,1926
Green River,Wyoming,15,Green River Klan,No Notes,41.5285757,-109.4662461,1923
Cheyenne,Wyoming,16,Not Named,No Notes,41.1399814,-104.8202462,1928
Rock Springs,Wyoming,18,Not Named,No Notes,41.5874644,-109.2029043,1923
Laramie,Wyoming,22,Not Named,No Notes,41.3113669,-105.5911007,1928
Pinedale,Wyoming,26,Not Named,No Notes,42.8678809,-109.8633501,1924
Saratoga,Wyoming,29,Saratoga Encampment Klan,Also operated out of Sarene,41.4549621,-106.8064263,1931
Torrington,Wyoming,33,Lingle Klan,No Notes,42.0624646,-104.1843942,1931
Cheyenne,Wyoming,45,Not Named,No Notes,41.1399814,-104.8202462,1932
